county,name,address,city,zip,joinedAddress,GMcoordinates
Barbour,Philip Barbour High School Complex,99 Horseshoe Drive ,Philippi,26416,"99 Horseshoe Drive , Philippi, WV, 26416","-79.99286359999999, 39.1090421"
Barbour,Belington Middle School,Rr 2 Box 343 ,Belington,26250,"Rr 2 Box 343 , Belington, WV, 26250",
Barbour,Philippi Head Start,Chestnut Street ,Philippi,26416,"Chestnut Street , Philippi, WV, 26416","-80.0402579, 39.1452617"
Barbour,Junior Elementary,415 First Street ,Junior,26275,"415 First Street , Junior, WV, 26275","-79.956704, 38.97761"
Barbour,Kasson Elementary/Middle School,Rt. 1 Box 233a ,Moatsville,26405,"Rt. 1 Box 233a , Moatsville, WV, 26405",
Barbour,Philippi Middle School,Rt 3 Box 40 ,Philippi,26416,"Rt 3 Box 40 , Philippi, WV, 26416","-80.0403578, 39.1523198"
Barbour,Belington Head Start,25 Horseshoe Drive ,Philippi,26416,"25 Horseshoe Drive , Philippi, WV, 26416","-79.994379, 39.1097589"
Barbour,Philippi Elementary School,Route 3 Box 38 ,Philippi,26416,"Route 3 Box 38 , Philippi, WV, 26416","-80.0403578, 39.1523198"
Barbour,Belington Elementary,Rr 2 Box 344 ,Belington,26250,"Rr 2 Box 344 , Belington, WV, 26250",
Berkeley,Rosemont Elementary School,301 South Alabama Avenue ,Martinsburg,25401,"301 South Alabama Avenue , Martinsburg, WV, 25401","-77.981876, 39.459074"
Berkeley,James Rumsey Technical Institute,3274 Hedgesville Road ,Martinsburg,25403,"3274 Hedgesville Road , Martinsburg, WV, 25403","-77.9790623, 39.5327798"
Berkeley,Mountain Ridge Intermediate,2691 Gerrardstown Road ,Gerrardstown,25420,"2691 Gerrardstown Road , Gerrardstown, WV, 25420","-78.0795452, 39.3680257"
Berkeley,Marlowe Elementary School,9580 Williamsport Pike ,Falling Waters,25419,"9580 Williamsport Pike , Falling Waters, WV, 25419","-77.85986419999999, 39.5869298"
Berkeley,Musselman High School,126 Excellence Way ,Inwood,25428,"126 Excellence Way , Inwood, WV, 25428","-78.04147669999999, 39.3518554"
Berkeley,Eagle School Intermediate,730 Eagle School Road ,Martinsburg,25404,"730 Eagle School Road , Martinsburg, WV, 25404","-77.94692599999999, 39.481384"
Berkeley,Hedgesville Elementary School,88 School House Drive ,Hedgesville,25427,"88 School House Drive , Hedgesville, WV, 25427","-77.9909057, 39.5521408"
Berkeley,Hedgesville High School,109 Ridge Road North ,Hedgesville,25427,"109 Ridge Road North , Hedgesville, WV, 25427","-77.982083, 39.53749"
Berkeley,Potomack Intermediate School,5308 Williamsport Pike ,Martinsburg,25404,"5308 Williamsport Pike , Martinsburg, WV, 25404","-77.9061217, 39.5410241"
Berkeley,Burke Street Elementary School,422 West Burke Street ,Martinsburg,25401,"422 West Burke Street , Martinsburg, WV, 25401","-77.9680652, 39.4585893"
Berkeley,Musselman Middle School,105 Pride Avenue ,Bunker Hill,25413,"105 Pride Avenue , Bunker Hill, WV, 25413","-78.049437, 39.347733"
Berkeley,Winchester Avenue Elementary School,650 Winchester Avenue ,Martinsburg,25401,"650 Winchester Avenue , Martinsburg, WV, 25401","-77.9756049, 39.4522398"
Berkeley,Berkeley Heights Elementary School,726 Hack Wilson Way ,Martinsburg,25401,"726 Hack Wilson Way , Martinsburg, WV, 25401","-77.96564900000001, 39.444722"
Berkeley,Martinsburg North Middle School,250 East Road ,Martinsburg,25404,"250 East Road , Martinsburg, WV, 25404","-77.949767, 39.471956"
Berkeley,Tuscarora Elementary School,2000 Tavern Road ,Martinsburg,25401,"2000 Tavern Road , Martinsburg, WV, 25401","-77.97516159999999, 39.47693"
Berkeley,Back Creek Valley Elementary School,1962 Back Creek Valley Road ,Hedgesville,25427,"1962 Back Creek Valley Road , Hedgesville, WV, 25427","-78.148207, 39.406958"
Berkeley,Mountain Ridge Middle School,2771 Gerrardstown Road,Gerrardstown,25420,"2771 Gerrardstown Road, Gerrardstown, WV, 25420","-78.0801529, 39.3663866"
Berkeley,Spring Mills Primary,401 Campus Drive ,Martinsburg,25404,"401 Campus Drive , Martinsburg, WV, 25404","-77.8989029, 39.5374723"
Berkeley,Opequon Elementary School,395 East Road ,Martinsburg,25404,"395 East Road , Martinsburg, WV, 25404","-77.94528, 39.472123"
Berkeley,Pikeside Learning Center,3635 Winchester Ave ,Martinsburg,25405,"3635 Winchester Ave , Martinsburg, WV, 25405","-77.992766, 39.40784499999999"
Berkeley,Orchard View Intermediate School,1455 Delmar Orchard Rd ,Martinsburg,25403,"1455 Delmar Orchard Rd , Martinsburg, WV, 25403","-78.003641, 39.454135"
Berkeley,Inwood Primary School,7864 Winchester Ave ,Inwood,25428,"7864 Winchester Ave , Inwood, WV, 25428","-78.03947029999999, 39.3587175"
Berkeley,Martinsburg High School,701 South Queen Street ,Martinsburg,25401,"701 South Queen Street , Martinsburg, WV, 25401","-77.9684319, 39.4480153"
Berkeley,Mill Creek Intermediate School,8785 Winchester Avenue ,Bunker Hill,25413,"8785 Winchester Avenue , Bunker Hill, WV, 25413","-78.046363, 39.3470439"
Berkeley,Gerrardstown Elementary School,15 Dominion Road ,Gerrardstown,25420,"15 Dominion Road , Gerrardstown, WV, 25420","-78.093987, 39.37188099999999"
Berkeley,Spring Mills Middle School,255 Campus Drive ,Martinsburg,25404,"255 Campus Drive , Martinsburg, WV, 25404","-77.9019254, 39.5414585"
Berkeley,Spring Mills High School,499 Campus Drive,Martinsburg,25404,"499 Campus Drive, Martinsburg, WV, 25404","-77.898354, 39.538216"
Berkeley,Tomahawk Intermediate School,6665 Hedgesville Road ,Hedgesville,25427,"6665 Hedgesville Road , Hedgesville, WV, 25427","-78.021008, 39.553755"
Berkeley,Bunker Hill Elementary School,58 Happy School Avenue ,Bunker Hill,25413,"58 Happy School Avenue , Bunker Hill, WV, 25413","-78.05763, 39.321487"
Berkeley,Martinsburg South Middle School,150 Bulldog Boulevard ,Martinsburg,25401,"150 Bulldog Boulevard , Martinsburg, WV, 25401","-77.9690619, 39.449668"
Berkeley,Valley View Elementary School,140 Nadenbousch Lane ,Martinsburg,25405,"140 Nadenbousch Lane , Martinsburg, WV, 25405","-78.013966, 39.382314"
Berkeley,Bedington Elementary School,149 Bedington Road ,Martinsburg,25404,"149 Bedington Road , Martinsburg, WV, 25404","-77.91696879999999, 39.52595780000001"
Berkeley,Hedgesville Middle School,334 School House Drive ,Hedgesville,25427,"334 School House Drive , Hedgesville, WV, 25427","-77.9907273, 39.5559444"
Boone,Sherman High School,10008 Coal River Road Po Box Ab,Seth,25181,"10008 Coal River Road Po Box Ab, Seth, WV, 25181","-81.62169460000001, 38.1143459"
Boone,Jeffrey-Spencer Elementary,3277 Hewett Creek Road Po Box 319,Hewett,25108,"3277 Hewett Creek Road Po Box 319, Hewett, WV, 25108","-81.8469301, 37.9641221"
Boone,Sherman Junior High School,9846 Coal River Road Po Box Aa,Seth,25181,"9846 Coal River Road Po Box Aa, Seth, WV, 25181",
Boone,Whitesville Elementary School,"37949 Coal River Road Hc82, Box 265",Whitesville,25209,"37949 Coal River Road Hc82, Box 265, Whitesville, WV, 25209",
Boone,Brookview Elementary,1 Learning Way ,Foster,25081,"1 Learning Way , Foster, WV, 25081","-81.8257659, 38.1043071"
Boone,Wharton Elementary,36071 Pond Fork Road Po Box 60,Wharton,25208,"36071 Pond Fork Road Po Box 60, Wharton, WV, 25208","-81.6723184, 37.8954448"
Boone,Ramage Elementary,"15908 Spruce River Road Rt 1, Box 293",Danville,25053,"15908 Spruce River Road Rt 1, Box 293, Danville, WV, 25053",
Boone,Van Junior/Senior High School,913 Van High School Road Po Box 100,Van,25206,"913 Van High School Road Po Box 100, Van, WV, 25206","-81.71336749999999, 37.9718766"
Boone,Madison Elementary,150 Josephine Avenue ,Madison,25130,"150 Josephine Avenue , Madison, WV, 25130","-81.8164446, 38.0628103"
Boone,Scott High School,1 Skyhawk Place ,Madison,25130,"1 Skyhawk Place , Madison, WV, 25130","-81.8331248, 38.0742221"
Boone,Ashford-Rumble Elementary,1649 Ashford Nellis Road ,Ashford,25009,"1649 Ashford Nellis Road , Ashford, WV, 25009","-81.70038679999999, 38.1837243"
Boone,Madison Middle School,404 Riverside Dr-W ,Madison,25130,"404 Riverside Dr-W , Madison, WV, 25130","-81.82732709999999, 38.0723384"
Boone,Sherman Elementary School,7487 Coal River Road Po Box 369,Comfort,25049,"7487 Coal River Road Po Box 369, Comfort, WV, 25049","-81.6141415, 38.1303013"
Boone,Van Elementary,338 Van High School Road Po Box 360,Van,25206,"338 Van High School Road Po Box 360, Van, WV, 25206","-81.7139301, 37.97191960000001"
Boone,Boone Career-Technical Center,"3505 Daniel Boone Pkwy-Suite B Hc81, Box 50-B",Danville,25053,"3505 Daniel Boone Pkwy-Suite B Hc81, Box 50-B, Danville, WV, 25053",
Boone,Nellis Elementary,"179 Memorial Drive,1 School St Box 135",Nellis,25142,"179 Memorial Drive,1 School St Box 135, Nellis, WV, 25142",
Braxton,Braxton County Middle School,100 Carter Braxton Drive ,Sutton,26601,"100 Carter Braxton Drive , Sutton, WV, 26601","-80.6636461, 38.6945697"
Braxton,Little Birch Elementary School,55 Little Birch Road,Sutton,26601,"55 Little Birch Road, Sutton, WV, 26601","-80.710011, 38.579581"
Braxton,Flatwoods Elementary School,Po Box 130 ,Flatwoods,26621,"Po Box 130 , Flatwoods, WV, 26621","-80.6529971, 38.7216606"
Braxton,Burnsville Elementary School,Po Box 35 228 Kanawha Ave,Burnsville,26335,"Po Box 35 228 Kanawha Ave, Burnsville, WV, 26335","-80.65688209999999, 38.8588926"
Braxton,Braxton County High School,200 Jerry Burton Drive ,Sutton,26601,"200 Jerry Burton Drive , Sutton, WV, 26601","-80.66719069999999, 38.6958124"
Braxton,Sutton Elementary School,288 N Hill Road ,Sutton,26601,"288 N Hill Road , Sutton, WV, 26601","-80.7074118, 38.6673006"
Braxton,Frametown Elementary School,Hc 61 Box 14 ,Frametown,26623,"Hc 61 Box 14 , Frametown, WV, 26623","-80.853968, 38.638059"
Braxton,Davis Elementary School,113 Fifth Street ,Gassaway,26624,"113 Fifth Street , Gassaway, WV, 26624","-80.774655, 38.671378"
Brooke,Wellsburg Middle School,1447 Main Street ,Wellsburg,26070,"1447 Main Street , Wellsburg, WV, 26070","-80.611811, 40.277456"
Brooke,Wellsburg Primary School,1448 Main Street ,Wellsburg,26070,"1448 Main Street , Wellsburg, WV, 26070","-80.6105096, 40.278004"
Brooke,Jefferson Primary School,Jefferson Street ,Follansbee,26037,"Jefferson Street , Follansbee, WV, 26037","-80.594312, 40.329752"
Brooke,Franklin Primary School,1305 Washington Pike ,Wellsburg,26070,"1305 Washington Pike , Wellsburg, WV, 26070","-80.53826, 40.2725069"
Brooke,Beech Bottom Primary,High Street ,Beech Bottom,26030,"High Street , Beech Bottom, WV, 26030","-80.6516039, 40.225851"
Brooke,Brooke High School,"R.d. 3, Box 610 Cross Creek Road",Wellsburg,26070,"R.d. 3, Box 610 Cross Creek Road, Wellsburg, WV, 26070",
Brooke,Follansbee Middle School,1400 Main Street ,Follansbee,26037,"1400 Main Street , Follansbee, WV, 26037","-80.5953079, 40.3355161"
Brooke,Lauretta B Millsop Primary School,Legion & Swearingen ,Weirton,26062,"Legion & Swearingen , Weirton, WV, 26062","-80.6118381, 40.3953038"
Brooke,Hooverson Heights Primary School,200 Rockdale Road ,Follansbee,26037,"200 Rockdale Road , Follansbee, WV, 26037","-80.577852, 40.324597"
Brooke,Colliers Primary School,Penn Street ,Colliers,26035,"Penn Street , Colliers, WV, 26035","-80.53747229999999, 40.3663856"
Cabell,Cabell County Career Technology Center,1035 Norway Ave ,Huntington,25705,"1035 Norway Ave , Huntington, WV, 25705","-82.3722257, 38.4032754"
Cabell,Village Of Barboursville Elementary Sch,718 Central Ave ,Barboursville,25504,"718 Central Ave , Barboursville, WV, 25504","-82.296893, 38.407411"
Cabell,Highlawn Elementary School,2549 1st Avenue ,Huntington,25703,"2549 1st Avenue , Huntington, WV, 25703","-82.4111944, 38.4300068"
Cabell,Huntington High School,1 Highlander Way ,Huntington,25701,"1 Highlander Way , Huntington, WV, 25701","-82.39857429999999, 38.3936242"
Cabell,Spring Hill Elementary School,1901 Hall Avenue ,Huntington,25701,"1901 Hall Avenue , Huntington, WV, 25701","-82.4203404, 38.4121254"
Cabell,Geneva Kent Elementary School,68 Holley Avenue ,Huntington,25705,"68 Holley Avenue , Huntington, WV, 25705","-82.38715309999999, 38.4031628"
Cabell,Alternative School,2800 5th Ave ,Huntington,25702,"2800 5th Ave , Huntington, WV, 25702","-82.4020243, 38.4266393"
Cabell,Peyton Elementary School,199 Rotary Rd ,Huntington,25705,"199 Rotary Rd , Huntington, WV, 25705","-82.399326, 38.413612"
Cabell,Culloden Elementary School,2100 U.s. Route 60 ,Culloden,25510,"2100 U.s. Route 60 , Culloden, WV, 25510","-82.06179999999999, 38.4194869"
Cabell,Milton Middle School,1 Panther Trail ,Milton,25541,"1 Panther Trail , Milton, WV, 25541","-82.15105, 38.4373515"
Cabell,Nichols Elementary School,3505 Erwin Road ,Barboursville,25504,"3505 Erwin Road , Barboursville, WV, 25504","-82.25429299999999, 38.41907399999999"
Cabell,Altizer Elementary School,"250 Third Street, Altizer ",Huntington,25705,"250 Third Street, Altizer , Huntington, WV, 25705","-82.36421299999999, 38.41531"
Cabell,Beverly Hills Middle School,2901 Saltwell Rd ,Huntington,25705,"2901 Saltwell Rd , Huntington, WV, 25705","-82.391392, 38.407296"
Cabell,Meadows Elementary School,1601 Washington Blvd ,Huntington,25701,"1601 Washington Blvd , Huntington, WV, 25701","-82.4272414, 38.4040281"
Cabell,Southside Elementary,200 Tenth Avenue ,Huntington,25701,"200 Tenth Avenue , Huntington, WV, 25701","-82.4528441, 38.4108658"
Cabell,Hite Saunders Elementary School,3708 Green Valley Road ,Huntington,25701,"3708 Green Valley Road , Huntington, WV, 25701","-82.37721599999999, 38.382375"
Cabell,Cabell County Career Technology Center,1035 Norway Ave ,Huntington,25705,"1035 Norway Ave , Huntington, WV, 25705","-82.3722257, 38.4032754"
Cabell,Central City Elementary School,2100 Washington Ave ,Huntington,25704,"2100 Washington Ave , Huntington, WV, 25704","-82.49075810000001, 38.4104518"
Cabell,Guyandotte Elementary School,607 5th Ave Guy ,Huntington,25702,"607 5th Ave Guy , Huntington, WV, 25702",
Cabell,Cabell Midland High School,2300 Us Route 60 East ,Ona,25545,"2300 Us Route 60 East , Ona, WV, 25545","-82.20874479999999, 38.4287096"
Cabell,Salt Rock Elementary School,5570 Madison Creek Rd ,Salt Rock,25559,"5570 Madison Creek Rd , Salt Rock, WV, 25559","-82.2210593, 38.3208479"
Cabell,Huntington East Middle School,2901 Saltwell Rd,Huntington,25705,"2901 Saltwell Rd, Huntington, WV, 25705","-82.391392, 38.407296"
Cabell,Davis Creek Elementary School,6330 Davis Creek Rd ,Barboursville,25504,"6330 Davis Creek Rd , Barboursville, WV, 25504","-82.33237, 38.38570800000001"
Cabell,Explorer Academy,68 Holley Ave,Huntington,25705,"68 Holley Ave, Huntington, WV, 25705","-82.38715309999999, 38.4031628"
Cabell,Huntington Middle School,925 Third Street ,Huntington,25701,"925 Third Street , Huntington, WV, 25701","-82.45287789999999, 38.4111169"
Cabell,Ona Elementary School,2701 Elementary Dr ,Ona,25545,"2701 Elementary Dr , Ona, WV, 25545","-82.2158561, 38.42558349999999"
Cabell,Cox Landing Elementary School,6358 Cox Lane ,Lesage,25537,"6358 Cox Lane , Lesage, WV, 25537","-82.30640749999999, 38.4773629"
Cabell,Enslow Middle School,2613 Collis Ave ,Huntington,25702,"2613 Collis Ave , Huntington, WV, 25702","-82.4091638, 38.4291151"
Cabell,Milton Elementary School,1201 Pike St. ,Milton,25541,"1201 Pike St. , Milton, WV, 25541","-82.13456, 38.4368405"
Cabell,Barboursville Middle School,1400 Central Ave ,Barboursville,25504,"1400 Central Ave , Barboursville, WV, 25504","-82.294518, 38.403337"
Cabell,Martha Elementary School,3067 Martha Road ,Barboursville,25504,"3067 Martha Road , Barboursville, WV, 25504","-82.286162, 38.379285"
Calhoun,Pleasant Hill School,3254 N Calhoun Hwy ,Grantsville,26147,"3254 N Calhoun Hwy , Grantsville, WV, 26147","-81.0592741, 38.9498905"
Calhoun,Calhoun Middle/High School,50 Underwood Circle ,Mt. Zion,26151,"50 Underwood Circle , Mt. Zion, WV, 26151","-81.1129632, 38.8376242"
Calhoun,Arnoldsburg School,Post Office Box 159 ,Arnoldsburg,25234,"Post Office Box 159 , Arnoldsburg, WV, 25234","-81.1286808, 38.7893803"
Calhoun,Calhoun-Gilmer Career Center,5260 E Little Kanawha Hwy,Grantsville,26147,"5260 E Little Kanawha Hwy, Grantsville, WV, 26147","-81.0959455, 38.9234195"
Clay,Clay County High School,Po Box 729 1 Panther Drive,Clay,25043,"Po Box 729 1 Panther Drive, Clay, WV, 25043","-81.09237639999999, 38.4460987"
Clay,Big Otter Elementary School,Po Box 100 59 Ossia Road,Ivydale,25113,"Po Box 100 59 Ossia Road, Ivydale, WV, 25113","-81.0343194, 38.5869375"
Clay,Lizemore Elementary School,Po Box 70 #1 Lizemore Street,Lizemore,25125,"Po Box 70 #1 Lizemore Street, Lizemore, WV, 25125","-81.1791452, 38.3306638"
Clay,Clay Middle School,Po Box 489 419 Church Street,Clay,25043,"Po Box 489 419 Church Street, Clay, WV, 25043","-81.08316769999999, 38.460473"
Clay,H E White Elementary School,501 Bomont Road ,Bomont,25030,"501 Bomont Road , Bomont, WV, 25030","-81.23006749999999, 38.446661"
Clay,Clay Elementary School,Po Box 600 219 Church Street,Clay,25043,"Po Box 600 219 Church Street, Clay, WV, 25043","-81.0836987, 38.460489"
Doddridge,Doddridge County Preschool Center,2945 Smithton Road,West Union,26426,"2945 Smithton Road, West Union, WV, 26426","-80.755513, 39.3003339"
Doddridge,Doddridge County High School,79 Bulldog Drive ,West Union,26456,"79 Bulldog Drive , West Union, WV, 26456","-80.7857567, 39.2771531"
Doddridge,Doddridge County Elementary School,182 Doddridge School Road,West Union,26456,"182 Doddridge School Road, West Union, WV, 26456","-80.7735429, 39.29271"
Doddridge,Doddridge County Middle School,65 Doddridge School Road,West Union,26456,"65 Doddridge School Road, West Union, WV, 26456","-80.77487289999999, 39.2924959"
Fayette,Meadow Bridge Elementary,2725 Main Street ,Meadow Bridge,25976,"2725 Main Street , Meadow Bridge, WV, 25976","-80.8600282, 37.866317"
Fayette,Midland Trail High,Po Box 89 Rt 60-E,Hico,25854,"Po Box 89 Rt 60-E, Hico, WV, 25854","-80.9688239, 38.1107386"
Fayette,Gatewood Elementary,5094 Gatewood Road ,Fayetteville,25840,"5094 Gatewood Road , Fayetteville, WV, 25840","-81.065429, 38.006748"
Fayette,Fayetteville High,515 West Maple Avenue ,Fayetteville,25840,"515 West Maple Avenue , Fayetteville, WV, 25840","-81.1131642, 38.0467048"
Fayette,Divide Elementary,Po Box 180 ,Lookout,25868,"Po Box 180 , Lookout, WV, 25868",
Fayette,Ansted Middle,Po Box 766 ,Ansted,25812,"Po Box 766 , Ansted, WV, 25812",
Fayette,Valley Elementary,Po Box 215 ,Smithers,25186,"Po Box 215 , Smithers, WV, 25186",
Fayette,Fayette Institute Of Technology,300 West Oyler Avenue ,Oak Hill,25901,"300 West Oyler Avenue , Oak Hill, WV, 25901","-81.14692509999999, 37.9888198"
Fayette,Mount Hope Elementary,408 Lincoln Street ,Mount Hope,25880,"408 Lincoln Street , Mount Hope, WV, 25880","-81.1632868, 37.8942657"
Fayette,Oak Hill High,350 West Oyler Avenue ,Oak Hill,25901,"350 West Oyler Avenue , Oak Hill, WV, 25901","-81.14838979999999, 37.9911471"
Fayette,Gauley Bridge Elementary,Po Box 519 ,Gauley Bridge,25085,"Po Box 519 , Gauley Bridge, WV, 25085",
Fayette,Meadow Bridge High,2775 Main Street ,Meadow Bridge,25976,"2775 Main Street , Meadow Bridge, WV, 25976","-80.8600685, 37.8663527"
Fayette,Fayetteville Elementary,200 Wiseman Avenue ,Fayetteville,25840,"200 Wiseman Avenue , Fayetteville, WV, 25840","-81.1052421, 38.0525436"
Fayette,Collins Middle,601 Jones Avenue ,Oak Hill,25901,"601 Jones Avenue , Oak Hill, WV, 25901","-81.1579053, 37.9738781"
Fayette,Ansted Elementary,Po Box 609 ,Ansted,25812,"Po Box 609 , Ansted, WV, 25812","-81.09954789999999, 38.1362201"
Fayette,New River Elementary,262 Oyler Avenue ,Oak Hill,25901,"262 Oyler Avenue , Oak Hill, WV, 25901","-81.142077, 37.98552"
Fayette,Rosedale Elementary,4001 Summerlee Rd ,Oak Hill,25901,"4001 Summerlee Rd , Oak Hill, WV, 25901","-81.1335433, 37.9995935"
Fayette,Valley High School,Po Box 459 Greyhound Lane,Smithers,25186,"Po Box 459 Greyhound Lane, Smithers, WV, 25186",
Gilmer,Calhoun-Gilmer Career Center,5260 East Little Kanawha Hwy,Grantsville,26147,"5260 East Little Kanawha Hwy, Grantsville, WV, 26147",
Gilmer,Gilmer County Elementary School,99 Fairground Road,Glenville,26351,"99 Fairground Road, Glenville, WV, 26351","-80.81851309999999, 38.9374884"
Gilmer,Gilmer County High School,300 Pine Street ,Glenville,26351,"300 Pine Street , Glenville, WV, 26351","-80.8342108, 38.9388632"
Grant,Petersburg High School,207 Jefferson Avenue ,Petersburg,26847,"207 Jefferson Avenue , Petersburg, WV, 26847","-79.12042559999999, 38.9981669"
Grant,Maysville Elementary School,7147 Highway 42s ,Maysville,26833,"7147 Highway 42s , Maysville, WV, 26833","-79.1780876, 39.1226596"
Grant,Union Educational Complex,Hc 76 Box 750 ,Mount Storm,26839,"Hc 76 Box 750 , Mount Storm, WV, 26839",
Grant,South Branch Career & Technical Center,401 Pierpont Street ,Petersburg,26847,"401 Pierpont Street , Petersburg, WV, 26847","-79.12039899999999, 39.000801"
Grant,Petersburg Elementary School,333 Rig Street ,Petersburg,26847,"333 Rig Street , Petersburg, WV, 26847","-79.1164019, 39.0013999"
Grant,Dorcas Elementary School,Hc 33 Box 1060 ,Petersburg,26847,"Hc 33 Box 1060 , Petersburg, WV, 26847","-79.1059444, 38.9395833"
Greenbrier,Ronceverte Elementary,246 Ronceverte Elementary School Drive,Ronceverte,24970,"246 Ronceverte Elementary School Drive, Ronceverte, WV, 24970","-80.4756314, 37.7627578"
Greenbrier,Frankford Elementary,21692 Seneca Trail ,Frankford,24938,"21692 Seneca Trail , Frankford, WV, 24938","-80.38476039999999, 37.9721875"
Greenbrier,Smoot Elementary,General Delivery ,Smoot,24977,"General Delivery , Smoot, WV, 24977",
Greenbrier,Greenbrier West High School,Po Box 325 One Cavalier Drive,Charmco,25958,"Po Box 325 One Cavalier Drive, Charmco, WV, 25958","-80.7329419, 38.0030774"
Greenbrier,Rainelle Elementary,701 Kanawha Avenue ,Rainelle,25962,"701 Kanawha Avenue , Rainelle, WV, 25962","-80.7801418, 37.9685215"
Greenbrier,Western Greenbrier Middle School,Hc 40 Box 14 ,Crawley,24931,"Hc 40 Box 14 , Crawley, WV, 24931",
Greenbrier,White Sulphur Elementary,150 Reed Street ,White Sulphur Springs,24986,"150 Reed Street , White Sulphur Springs, WV, 24986","-80.2952394, 37.7946857"
Greenbrier,Lewisburg Elementary,206 North Lee Street ,Lewisburg,24901,"206 North Lee Street , Lewisburg, WV, 24901","-80.4415078, 37.8011158"
Greenbrier,Alderson Elementary,Rr1 Box 162f ,Alderson,24910,"Rr1 Box 162f , Alderson, WV, 24910",
Greenbrier,Greenbrier School Of Practical Nursing,One Spartan Lane ,Lewisburg,24901,"One Spartan Lane , Lewisburg, WV, 24901","-80.470457, 37.7758556"
Greenbrier,Rupert Elementary,Po Drawer D ,Rupert,25984,"Po Drawer D , Rupert, WV, 25984","-80.6869167, 37.965"
Greenbrier,Greenbrier East High School,One Spartan Lane ,Lewisburg,24901,"One Spartan Lane , Lewisburg, WV, 24901","-80.470457, 37.7758556"
Greenbrier,Crichton Elementary,Po Box 205 ,Quinwood,25981,"Po Box 205 , Quinwood, WV, 25981","-80.7325287, 38.0664173"
Greenbrier,Eastern Greenbrier Middle School,Route 1 Box 150 ,Ronceverte,24970,"Route 1 Box 150 , Ronceverte, WV, 24970",
Hampshire,Hampshire Senior High School,"Hc 63, Box 1970 ",Romney,26757,"Hc 63, Box 1970 , Romney, WV, 26757",
Hampshire,Capon Bridge Middle School,"Hc 71, Box 1001 ",Capon Bridge,26711,"Hc 71, Box 1001 , Capon Bridge, WV, 26711",
Hampshire,Springfield-Green Spring Elementary School,Hc 65 Box 9000 ,Springfield,26763,"Hc 65 Box 9000 , Springfield, WV, 26763",
Hampshire,Romney Elementary School,45 School Street ,Romney,26757,"45 School Street , Romney, WV, 26757","-78.76463820000001, 39.3435028"
Hampshire,Augusta Elementary School,Po Box 910 ,Augusta,26704,"Po Box 910 , Augusta, WV, 26704","-78.6391041, 39.29524079999999"
Hampshire,Hampshire County Career Training Center,Hc 63 Box 1970 ,Romney,26757,"Hc 63 Box 1970 , Romney, WV, 26757",
Hampshire,Romney Middle School,"Hc 63, Box 1975 ",Romney,26757,"Hc 63, Box 1975 , Romney, WV, 26757","-78.746453, 39.335391"
Hampshire,Capon Bridge Elementary School,"Hc 71, Box 1000 ",Capon Bridge,26711,"Hc 71, Box 1000 , Capon Bridge, WV, 26711",
Hampshire,Slanesville Elementary School,P.o. Box 308 ,Slanesville,25444,"P.o. Box 308 , Slanesville, WV, 25444","-78.52633050000001, 39.4281739"
Hampshire,John J. Cornwell,"Hc 60, Box 72 ",Levels,25431,"Hc 60, Box 72 , Levels, WV, 25431",
Hancock,Weir Middle School,125 Sinclair Avenue ,Weirton,26062,"125 Sinclair Avenue , Weirton, WV, 26062","-80.5753514, 40.4060847"
Hancock,Weirton Elementary,3428 Pennsylvania Ave,Weirton,26062,"3428 Pennsylvania Ave, Weirton, WV, 26062","-80.53370439999999, 40.4086851"
Hancock,Weirton Heights Elementary School,160 South 12th Street ,Weirton,26062,"160 South 12th Street , Weirton, WV, 26062","-80.5710948, 40.418015"
Hancock,Liberty Elementary School,200 Culler Road ,Weirton,26062,"200 Culler Road , Weirton, WV, 26062","-80.543061, 40.4166389"
Hancock,Weir High School,100 Red Rider Road ,Weirton,26062,"100 Red Rider Road , Weirton, WV, 26062","-80.57708699999999, 40.4052795"
Hancock,Oak Glen Middle School,39 Golden Bear Drive ,New Cumberland,26047,"39 Golden Bear Drive , New Cumberland, WV, 26047","-80.5599587, 40.5444746"
Hancock,A. T. Allison Elementary School,600 Railroad Street ,Chester,26034,"600 Railroad Street , Chester, WV, 26034","-80.56128540000002, 40.6157365"
Hancock,New Manchester Elementary School,128 Frankfort Road ,New Cumberland,26047,"128 Frankfort Road , New Cumberland, WV, 26047","-80.576799, 40.5290139"
Hancock,Broadview Elementary School,189 Circle Drive ,Weirton,26062,"189 Circle Drive , Weirton, WV, 26062","-80.5252366, 40.4134553"
Hancock,John D. Rockefeller Career Center,95 Rockyside Road ,New Cumberland,26047,"95 Rockyside Road , New Cumberland, WV, 26047",
Hancock,Oak Glen High School,195 Golden Bear Drive ,New Cumberland,26047,"195 Golden Bear Drive , New Cumberland, WV, 26047","-80.55907499999999, 40.543326"
Hardy,Moorefield Intermediate School,345 Caledonia Heights Road ,Moorefield,26836,"345 Caledonia Heights Road , Moorefield, WV, 26836","-78.9437178, 39.06905709999999"
Hardy,Moorefield Elementary School,400 North Main Street ,Moorefield,26836,"400 North Main Street , Moorefield, WV, 26836","-78.97308819999999, 39.0533213"
Hardy,Moorefield High School,401 North Main Street ,Moorefield,26836,"401 North Main Street , Moorefield, WV, 26836","-78.9688414, 39.0678067"
Hardy,Moorefield Middle School,303 Caledonia Heights Road ,Moorefield,26836,"303 Caledonia Heights Road , Moorefield, WV, 26836","-78.9437178, 39.06905709999999"
Hardy,East Hardy Early/Middle School,P. O. Box 260 238 Cougar Drive,Baker,26801,"P. O. Box 260 238 Cougar Drive, Baker, WV, 26801","-78.758904, 39.048115"
Hardy,East Hardy High School,P. O. Box 120 259 Cougar Drive,Baker,26801,"P. O. Box 120 259 Cougar Drive, Baker, WV, 26801","-78.7606382, 39.0473439"
Harrison,Mountaineer Middle School,2 Mountaineer Dr ,Clarksburg,26301,"2 Mountaineer Dr , Clarksburg, WV, 26301","-80.3969089, 39.2779669"
Harrison,United High School,,,,,
Harrison,Simpson Elementary School,250 Worthington Dr ,Bridgeport,26330,"250 Worthington Dr , Bridgeport, WV, 26330","-80.2522571, 39.2860172"
Harrison,Washington Irving Middle School,443 Lee Ave ,Clarksburg,26301,"443 Lee Ave , Clarksburg, WV, 26301","-80.3428076, 39.2781728"
Harrison,North View Elementary School,1400 N 19th Street ,Clarksburg,26301,"1400 N 19th Street , Clarksburg, WV, 26301","-80.3479852, 39.29504120000001"
Harrison,Pressley Ridge School,Rr 5 Box 697 ,Clarksburg,26301,"Rr 5 Box 697 , Clarksburg, WV, 26301",
Harrison,Bridgeport Middle School,413 Johnson Ave ,Bridgeport,26330,"413 Johnson Ave , Bridgeport, WV, 26330","-80.2620134, 39.2882846"
Harrison,Lost Creek Elementary School,Po Box 128 ,Lost Creek,26385,"Po Box 128 , Lost Creek, WV, 26385","-80.35051899999999, 39.160535"
Harrison,Robert C. Byrd High School,1 Eagle Way ,Clarksburg,26301,"1 Eagle Way , Clarksburg, WV, 26301","-80.350843, 39.2612878"
Harrison,Nutter Fort Intermediate School,1302 Buckhannon Pike ,Nutter Fort,26301,"1302 Buckhannon Pike , Nutter Fort, WV, 26301","-80.3256627, 39.2599393"
Harrison,Adamston Elementary School,1636 W Pike St ,Clarksburg,26301,"1636 W Pike St , Clarksburg, WV, 26301","-80.35916590000001, 39.2914318"
Harrison,Lincoln High School,Rr 1 Box 300 ,Shinnston,26431,"Rr 1 Box 300 , Shinnston, WV, 26431",
Harrison,Big Elm Elementary School,200 Tetrick Rd ,Shinnston,26431,"200 Tetrick Rd , Shinnston, WV, 26431","-80.28544169999999, 39.4043252"
Harrison,Bridgeport High School,515 Johnson Ave ,Bridgeport,26330,"515 Johnson Ave , Bridgeport, WV, 26330","-80.2636684, 39.2897899"
Harrison,West Milford Elementary School,226 School St ,West Milford,26451,"226 School St , West Milford, WV, 26451","-80.4040406, 39.2018943"
Harrison,South Harrison Middle School,Rr 1 Box 58b ,Lost Creek,26385,"Rr 1 Box 58b , Lost Creek, WV, 26385","-80.35203349999999, 39.1612035"
Harrison,Harrison Co Transitional Middle School,1349 Shinnston Pk,Clarksburg,26301,"1349 Shinnston Pk, Clarksburg, WV, 26301","-80.35526999999999, 39.309937"
Harrison,Norwood Elementary School,208 Kidd Ave ,Stonewood,26301,"208 Kidd Ave , Stonewood, WV, 26301","-80.3160369, 39.2500377"
Harrison,United Technical Center,251 Marietta St.,Clarksburg,26301,"251 Marietta St., Clarksburg, WV, 26301","-80.35883400000002, 39.310815"
Harrison,Lumberport Middle School,314 Main Street ,Lumberport,26386,"314 Main Street , Lumberport, WV, 26386","-80.345862, 39.37685099999999"
Harrison,Lumberport Elementary School,Po Box 417 Chestnut & Lyndon Streets,Lumberport,26386,"Po Box 417 Chestnut & Lyndon Streets, Lumberport, WV, 26386","-80.3495721, 39.3767753"
Harrison,Harrison Co Alternative Learning Center,Rr 3 Box 43b ,Clarksburg,26301,"Rr 3 Box 43b , Clarksburg, WV, 26301","-80.34453409999999, 39.2806451"
Harrison,Salem Elementary,Rr 1 Box 10a ,Salem,26426,"Rr 1 Box 10a , Salem, WV, 26426",
Harrison,Johnson Elementary School,531 Johnson Ave ,Bridgeport,26330,"531 Johnson Ave , Bridgeport, WV, 26330","-80.263604, 39.2909507"
Harrison,South Harrison High School,Rr 1 Box 58 ,Lost Creek,26385,"Rr 1 Box 58 , Lost Creek, WV, 26385","-80.35203349999999, 39.1612035"
Harrison,Nutter Fort Primary School,1302 Buckhannon Pike ,Nutter Fort,26301,"1302 Buckhannon Pike , Nutter Fort, WV, 26301","-80.3256627, 39.2599393"
Harrison,Liberty High School,1 Mountaineer Dr ,Clarksburg,26301,"1 Mountaineer Dr , Clarksburg, WV, 26301","-80.397701, 39.276026"
Harrison,Wilsonburg Elementary School,Rr 4 Box 1 ,Clarksburg,26301,"Rr 4 Box 1 , Clarksburg, WV, 26301","-80.34453409999999, 39.2806451"
Jackson,Evans Elementary School,205 Schoolhouse Drive ,Evans,25241,"205 Schoolhouse Drive , Evans, WV, 25241","-81.783355, 38.822207"
Jackson,Ravenswood High School,Plaza Drive ,Ravenswood,26164,"Plaza Drive , Ravenswood, WV, 26164","-81.76132129999999, 38.9521781"
Jackson,Ravenswood Middle School,409 Sycamore Street ,Ravenswood,26164,"409 Sycamore Street , Ravenswood, WV, 26164","-81.7588268, 38.95071"
Jackson,Ravenswood Grade School,"Rt 2, Box 22-A ",Ravenswood,26164,"Rt 2, Box 22-A , Ravenswood, WV, 26164",
Jackson,Kenna Elementary School,650 Route 21 ,Kenna,25248,"650 Route 21 , Kenna, WV, 25248","-81.6767629, 38.6860454"
Jackson,Fairplain Elementary School,Rt 3 Box 147 ,Ripley,25271,"Rt 3 Box 147 , Ripley, WV, 25271",
Jackson,Ripley High School,2 School Street ,Ripley,25271,"2 School Street , Ripley, WV, 25271","-81.701605, 38.812448"
Jackson,Cottageville Elementary School,100 School Street ,Cottageville,25239,"100 School Street , Cottageville, WV, 25239","-81.7009587, 38.8141683"
Jackson,Ripley Middle School,"Route 2, Box 75-A Klondyke Road",Ripley,25271,"Route 2, Box 75-A Klondyke Road, Ripley, WV, 25271",
Jackson,Ripley Elementary School,404 Second Avenue ,Ripley,25271,"404 Second Avenue , Ripley, WV, 25271","-81.7016002, 38.8149997"
Jackson,Henry J Kaiser Elementary School,803 Kaiser Avenue ,Ravenswood,26164,"803 Kaiser Avenue , Ravenswood, WV, 26164","-81.761432, 38.960579"
Jackson,Gilmore Elementary School,"Rt. 3, Box 28-A ",Sandyville,25275,"Rt. 3, Box 28-A , Sandyville, WV, 25275",
Jackson,Roane-Jackson Technical Center,9450 Spencer Rd,Leroy,25252,"9450 Spencer Rd, Leroy, WV, 25252","-81.561241, 38.822323"
Jefferson,South Jefferson Elementary School,4599 Summit Point Road ,Charles Town,25414,"4599 Summit Point Road , Charles Town, WV, 25414","-77.9307367, 39.2540896"
Jefferson,Washington High School,300 Washington Patriots Drive ,Charles Town,25414,"300 Washington Patriots Drive , Charles Town, WV, 25414","-77.8801323, 39.259929"
Jefferson,Shepherdstown Elementary School,662 South Church Street ,Shepherdstown,25443,"662 South Church Street , Shepherdstown, WV, 25443","-77.808409, 39.426181"
Jefferson,Wildwood Middle School,1209 Shenandoah Junction Road ,Shenandoah Junction,25442,"1209 Shenandoah Junction Road , Shenandoah Junction, WV, 25442","-77.833491, 39.356507"
Jefferson,Page Jackson Elementary,370 Page Jackson School Road ,Charles Town,25414,"370 Page Jackson School Road , Charles Town, WV, 25414","-77.8747308, 39.2704147"
Jefferson,Harpers Ferry Middle School,1710 West Washington Street ,Harpers Ferry,25425,"1710 West Washington Street , Harpers Ferry, WV, 25425","-77.7563009, 39.3225089"
Jefferson,Blue Ridge Elementary School,18866 Charles Town Road ,Harpers Ferry,25425,"18866 Charles Town Road , Harpers Ferry, WV, 25425","-77.7856879, 39.24225"
Jefferson,Driswood Elementary School,75 Caspian Way ,Shenandoah Junction,25442,"75 Caspian Way , Shenandoah Junction, WV, 25442","-77.8210996, 39.3377069"
Jefferson,Wright Denny Intermediate School,209 West Congress Street ,Charles Town,25414,"209 West Congress Street , Charles Town, WV, 25414","-77.8611147, 39.2871896"
Jefferson,C. W. Shipley Elementary School,652 Shipley School Road ,Harpers Ferry,25425,"652 Shipley School Road , Harpers Ferry, WV, 25425","-77.780159, 39.318272"
Jefferson,Blue Ridge Primary,175 Lowery Lane ,Harpers Ferry,25425,"175 Lowery Lane , Harpers Ferry, WV, 25425","-77.784761, 39.2428641"
Jefferson,Jefferson High School,4141 Flowing Springs Road ,Shenandoah Junction,25442,"4141 Flowing Springs Road , Shenandoah Junction, WV, 25442","-77.833176, 39.35246009999999"
Jefferson,Ranson Elementary School,600 North Preston Street ,Ranson,25438,"600 North Preston Street , Ranson, WV, 25438","-77.86160590000001, 39.3031882"
Jefferson,Shepherdstown Middle School,54 Minden Avenue ,Shepherdstown,25443,"54 Minden Avenue , Shepherdstown, WV, 25443","-77.81144259999999, 39.4271079"
Jefferson,North Jefferson Elementary,6996 Charles Town Road ,Kearneysville,25430,"6996 Charles Town Road , Kearneysville, WV, 25430","-77.88149469999999, 39.3680452"
Jefferson,Charles Town Middle School,193 High Street ,Charles Town,25414,"193 High Street , Charles Town, WV, 25414","-77.848365, 39.278019"
Jefferson,T A Lowery Elementary School,103 Shenandoah Junction Road ,Shenandoah Junction,25442,"103 Shenandoah Junction Road , Shenandoah Junction, WV, 25442","-77.8530826, 39.3565361"
Kanawha,Pinch Elementary School,300 South Pinch Rd ,Elkview,25071,"300 South Pinch Rd , Elkview, WV, 25071","-81.4815615, 38.4050054"
Kanawha,Holz Elementary School,1505 Hampton Rd ,Charleston,25314,"1505 Hampton Rd , Charleston, WV, 25314","-81.641459, 38.3244967"
Kanawha,Ben Franklin Career Center,500 28th Street ,Dunbar,25064,"500 28th Street , Dunbar, WV, 25064","-81.7540336, 38.36725140000001"
Kanawha,Cedar Grove Elementary School,Po Box J ,Cedar Grove,25039,"Po Box J , Cedar Grove, WV, 25039","-81.4289228, 38.2172265"
Kanawha,Stonewall Jackson Middle School,812 Park Avenue ,Charleston,25302,"812 Park Avenue , Charleston, WV, 25302","-81.649518, 38.3678017"
Kanawha,Andrew Jackson Middle School,5445 Big Tyler Road ,Charleston,25313,"5445 Big Tyler Road , Charleston, WV, 25313","-81.78304179999999, 38.4259847"
Kanawha,Sissonville Elementary School,8324 Sissonville Drive ,Sissonville,25320,"8324 Sissonville Drive , Sissonville, WV, 25320","-81.629853, 38.528963"
Kanawha,Nitro Elementary School,1921 19th Street ,Nitro,25143,"1921 19th Street , Nitro, WV, 25143","-81.8404091, 38.4204528"
Kanawha,Glenwood Elementary School,810 Grant St ,Charleston,25302,"810 Grant St , Charleston, WV, 25302","-81.654968, 38.3630761"
Kanawha,Riverside High School,#1 Warrior Way ,Belle,25015,"#1 Warrior Way , Belle, WV, 25015","-81.512694, 38.207217"
Kanawha,Bonham Elementary School,"Route 1, Box 425a ",Charleston,25312,"Route 1, Box 425a , Charleston, WV, 25312",
Kanawha,Sissonville Middle School,100 Middle School Lane ,Charleston,25312,"100 Middle School Lane , Charleston, WV, 25312","-81.6678096, 38.4649799"
Kanawha,Mary C. Snow West Side Elementary School,100 Florida Street ,Charleston,25302,"100 Florida Street , Charleston, WV, 25302","-81.66138029999999, 38.36448000000001"
Kanawha,Sharon Dawes Elementary School,P O Box 149 ,Miami,25134,"P O Box 149 , Miami, WV, 25134",
Kanawha,Midland Trail Elementary School,200 Ferry St ,Diamond,25015,"200 Ferry St , Diamond, WV, 25015","-81.51536899999999, 38.21035699999999"
Kanawha,Dunbar Primary Center,2401 Myers Avenue ,Dunbar,25064,"2401 Myers Avenue , Dunbar, WV, 25064","-81.75391739999999, 38.3623581"
Kanawha,South Charleston High School,1 Eagle Way ,South Charleston,25309,"1 Eagle Way , South Charleston, WV, 25309","-81.735449, 38.348251"
Kanawha,Anne Bailey Elementary School,405 Winfield Road ,St. Albans,25177,"405 Winfield Road , St. Albans, WV, 25177","-81.856883, 38.400735"
Kanawha,Horace Mann Middle School,4300 Maccorkle Avenue ,Charleston,25304,"4300 Maccorkle Avenue , Charleston, WV, 25304","-81.5868325, 38.3245153"
Kanawha,Piedmont Year-Round Education,203 Bradford Street ,Charleston,25301,"203 Bradford Street , Charleston, WV, 25301","-81.6267249, 38.343956"
Kanawha,Ruffner Elementary School,809 Litz Drive ,Charleston,25311,"809 Litz Drive , Charleston, WV, 25311","-81.59197300000001, 38.350269"
Kanawha,Marmet Elementary School,408 94th St ,Marmet,25315,"408 94th St , Marmet, WV, 25315","-81.5664886, 38.2460696"
Kanawha,Clendenin Elementary School,P O Box 462 ,Clendenin,25045,"P O Box 462 , Clendenin, WV, 25045",
Kanawha,Saint Albans High School,2100 Kanawha Terrace ,St. Albans,25177,"2100 Kanawha Terrace , St. Albans, WV, 25177","-81.8118956, 38.37898029999999"
Kanawha,Alum Creek Elementary School,Rt 7 Box 279a ,So Charleston,25309,"Rt 7 Box 279a , So Charleston, WV, 25309","-81.77705900000001, 38.270804"
Kanawha,Elkview Middle School,5090 N Elk River Rd ,Elkview,25071,"5090 N Elk River Rd , Elkview, WV, 25071","-81.477891, 38.442588"
Kanawha,Elk Elementary Center,3320 Pennsylvania Ave ,Charleston,25302,"3320 Pennsylvania Ave , Charleston, WV, 25302","-81.5703936, 38.3965411"
Kanawha,Richmond Elementary School,4620 Spring Hill Avenue ,South Charleston,25309,"4620 Spring Hill Avenue , South Charleston, WV, 25309","-81.724538, 38.3453609"
Kanawha,Lakewood Elementary School,2089 Lakewood Drive ,St. Albans,25177,"2089 Lakewood Drive , St. Albans, WV, 25177","-81.8373357, 38.36868320000001"
Kanawha,Chandler Elementary School,1900 School Street ,Charleston,25312,"1900 School Street , Charleston, WV, 25312","-81.66227190000001, 38.380167"
Kanawha,Herbert Hoover High School,5096 N Elk River Rd ,Elkview,25071,"5096 N Elk River Rd , Elkview, WV, 25071","-81.48276489999999, 38.442321"
Kanawha,Du Pont Middle School,1 Panther Way ,Belle,25015,"1 Panther Way , Belle, WV, 25015","-81.53761829999999, 38.2320461"
Kanawha,George C. Weimer Elementary School,3040 Kanawha Terrace ,St. Albans,25177,"3040 Kanawha Terrace , St. Albans, WV, 25177","-81.7888692, 38.37571"
Kanawha,Point Harmony Elementary School,5312 Big Tyler Road ,Cross Lanes,25313,"5312 Big Tyler Road , Cross Lanes, WV, 25313","-81.77135489999999, 38.4312865"
Kanawha,Kanawha City Elementary School,3601 Staunton Avenue Se ,Charleston,25304,"3601 Staunton Avenue Se , Charleston, WV, 25304","-81.5955627, 38.329578"
Kanawha,Carver Career Center,4799 Midland Dr ,Charleston,25306,"4799 Midland Dr , Charleston, WV, 25306","-81.562899, 38.2895581"
Kanawha,Central Elementary School,900 Helene Street ,St. Albans,25177,"900 Helene Street , St. Albans, WV, 25177","-81.83152989999999, 38.382825"
Kanawha,Tyler Middle School,4277 West Washington Street ,Charleston,25313,"4277 West Washington Street , Charleston, WV, 25313","-81.71591699999999, 38.3875993"
Kanawha,Cedar Grove Middle School,Po Box J ,Cedar Grove,25039,"Po Box J , Cedar Grove, WV, 25039","-81.4289228, 38.2172265"
Kanawha,Watts Elementary School,230 Costello St ,Charleston,25302,"230 Costello St , Charleston, WV, 25302","-81.63328589999999, 38.3652026"
Kanawha,Overbrook Elementary School,218 Overbrook Rd ,Charleston,25314,"218 Overbrook Rd , Charleston, WV, 25314","-81.6576312, 38.3377448"
Kanawha,Grandview Elementary School,959 Woodward Drive ,Charleston,25312,"959 Woodward Drive , Charleston, WV, 25312","-81.681378, 38.381726"
Kanawha,Chandler Academy,1900 School Street,Charleston,25312,"1900 School Street, Charleston, WV, 25312","-81.66227190000001, 38.380167"
Kanawha,Bridge Elementary School,5120 Elk River Road N ,Elkview,25071,"5120 Elk River Road N , Elkview, WV, 25071","-81.4671585, 38.4449168"
Kanawha,South Charleston Middle School,400 Third Avenue ,South Charleston,25303,"400 Third Avenue , South Charleston, WV, 25303","-81.691468, 38.3661634"
Kanawha,John Adams Middle School,2002 Presidential Dr ,Charleston,25314,"2002 Presidential Dr , Charleston, WV, 25314","-81.6593844, 38.3272158"
Kanawha,Shoals Elementary School,100 Dutch Rd ,Charleston,25302,"100 Dutch Rd , Charleston, WV, 25302","-81.5937735, 38.3900224"
Kanawha,Montrose Elementary School,631 Montrose Drive ,So. Charleston,25303,"631 Montrose Drive , So. Charleston, WV, 25303","-81.6852301, 38.3567209"
Kanawha,Flinn Elementary School,2006 Mcclure Parkway ,Charleston,25312,"2006 Mcclure Parkway , Charleston, WV, 25312","-81.670879, 38.48052370000001"
Kanawha,Capital High School,1500 Greenbrier St ,Charleston,25311,"1500 Greenbrier St , Charleston, WV, 25311","-81.5767874, 38.3720105"
Kanawha,Belle Elementary School,401 E 6th Street ,Belle,25015,"401 E 6th Street , Belle, WV, 25015","-81.5398014, 38.2327788"
Kanawha,Mckinley Middle School,3000 Kanawha Terrace ,St. Albans,25177,"3000 Kanawha Terrace , St. Albans, WV, 25177","-81.790656, 38.375632"
Kanawha,Edgewood Elementary,550 Hawks Ridge,Charleston,25302,"550 Hawks Ridge, Charleston, WV, 25302","-81.63725819999999, 38.3838867"
Kanawha,Dunbar Intermediate Center,1330 Myers Avenue ,Dunbar,25064,"1330 Myers Avenue , Dunbar, WV, 25064","-81.743146, 38.3594428"
Kanawha,Ruthlawn Elementary School,Rt 8 Box 428 ,So Charleston,25309,"Rt 8 Box 428 , So Charleston, WV, 25309",
Kanawha,Mary Ingles Elementary School,Po Box 367 ,Tad,25201,"Po Box 367 , Tad, WV, 25201","-81.4943595, 38.3332057"
Kanawha,Cross Lanes Elementary School,5525 Big Tyler Road ,Charleston,25313,"5525 Big Tyler Road , Charleston, WV, 25313","-81.7897519, 38.42118"
Kanawha,Sissonville High School,6100 Sissonville Dr. ,Charleston,25312,"6100 Sissonville Dr. , Charleston, WV, 25312","-81.6725903, 38.4749352"
Kanawha,Andrews Heights Elementary School,P O  Box 340 ,Tornado,25202,"P O  Box 340 , Tornado, WV, 25202","-81.86068209999999, 38.3232547"
Kanawha,Hayes Middle School,830 Strawberry Road ,St. Albans,25177,"830 Strawberry Road , St. Albans, WV, 25177","-81.8419873, 38.3732791"
Kanawha,Bridgeview Elementary School,5100 Ohio Street ,South Charleston,25309,"5100 Ohio Street , South Charleston, WV, 25309","-81.735788, 38.352637"
Kanawha,J E Robins Elementary School,915 Beech Ave ,Charleston,25302,"915 Beech Ave , Charleston, WV, 25302","-81.6510612, 38.3710492"
Kanawha,Malden Elementary School,4001 Salinas Drive ,Charleston,25306,"4001 Salinas Drive , Charleston, WV, 25306","-81.5583881, 38.3007452"
Kanawha,Chesapeake Elementary School,13620 Mccorkle Ave ,Chesapeake,25315,"13620 Mccorkle Ave , Chesapeake, WV, 25315","-81.5263424, 38.2155946"
Kanawha,Nitro High School,1300 Park Avenue ,Nitro,25143,"1300 Park Avenue , Nitro, WV, 25143","-81.8453229, 38.419258"
Kanawha,Alban Elementary School,2030 Harrison Avenue ,St. Albans,25177,"2030 Harrison Avenue , St. Albans, WV, 25177","-81.812957, 38.3855708"
Kanawha,East Bank Middle School,Po Box 897 ,East Bank,25067,"Po Box 897 , East Bank, WV, 25067",
Kanawha,Shawnee Community Center,142 Marshall Avenue ,Dunbar,25064,"142 Marshall Avenue , Dunbar, WV, 25064","-81.7564522, 38.3729711"
Kanawha,Pratt Elementary School,Center And Stark Street ,Pratt,25162,"Center And Stark Street , Pratt, WV, 25162",
Kanawha,Kenna Elementary School,198 Eureka Rd ,Charleston,25314,"198 Eureka Rd , Charleston, WV, 25314","-81.68327579999999, 38.3385611"
Kanawha,Garnet Career Center,422 Dickinson Street ,Charleston,25301,"422 Dickinson Street , Charleston, WV, 25301","-81.6299222, 38.35104"
Kanawha,Chamberlain Elementary School,4901 Venable Av S E ,Charleston,25304,"4901 Venable Av S E , Charleston, WV, 25304","-81.5803354, 38.3191508"
Kanawha,George Washington High School,1522 Tennis Club Rd ,Charleston,25314,"1522 Tennis Club Rd , Charleston, WV, 25314","-81.6568363, 38.3343177"
Kanawha,Dunbar Middle School,325 27th Street ,Dunbar,25064,"325 27th Street , Dunbar, WV, 25064","-81.7556178, 38.3652734"
Kanawha,Weberwood Elementary School,732 Gordon Road ,So. Charleston,25303,"732 Gordon Road , So. Charleston, WV, 25303","-81.6703656, 38.353107"
Lewis,Lewis County High School,205 Minuteman Drive ,Weston,26452,"205 Minuteman Drive , Weston, WV, 26452","-80.478138, 39.01965999999999"
Lewis,Jane Lew Elementary School,6536 Main Street ,Jane Lew,26378,"6536 Main Street , Jane Lew, WV, 26378","-80.406618, 39.114994"
Lewis,Leading Creek Elementary,15300 US Highway 33W,Linn,26384,"15300 US Highway 33W, Linn, WV, 26384","-80.7098714, 39.0126472"
Lewis,Roanoke Elementary School,1176 Oil Creek Road ,Roanoke,26447,"1176 Oil Creek Road , Roanoke, WV, 26447","-80.50982300000001, 38.921695"
Lewis,Robert L. Bland Middle School,358 Court Avenue ,Weston,26452,"358 Court Avenue , Weston, WV, 26452","-80.4623979, 39.039392"
Lewis,Peterson-Central Elementary School,509 Berlin Road ,Weston,26452,"509 Berlin Road , Weston, WV, 26452","-80.415087, 39.024501"
Lincoln,Duval Pk-8,5304 Straight Fork,Griffithsville,25521,"5304 Straight Fork, Griffithsville, WV, 25521","-81.993031, 38.238749"
Lincoln,Lincoln County High School,81 Lincoln Panther Way ,Hamlin,25523,"81 Lincoln Panther Way , Hamlin, WV, 25523","-82.1163273, 38.27583"
Lincoln,West Hamlin Elementary,114 Dairy Road,West Hamlin,25571,"114 Dairy Road, West Hamlin, WV, 25571","-82.196229, 38.29387699999999"
Lincoln,Midway Elementary School,267 Midway Road,Alum Creek,25003,"267 Midway Road, Alum Creek, WV, 25003","-81.8363011, 38.2607881"
Lincoln,Hamlin Pk-8,8130 Court Ave ,Hamlin,25523,"8130 Court Ave , Hamlin, WV, 25523","-82.10094860000001, 38.2788761"
Lincoln,Guyan Valley Middle,5312 McClellan Hwy,Branchland,25506,"5312 McClellan Hwy, Branchland, WV, 25506","-82.1898441, 38.2487168"
Lincoln,Ranger Elementary,59 Vanatters Creek ,Ranger,25557,"59 Vanatters Creek , Ranger, WV, 25557","-82.1902243, 38.12137329999999"
Lincoln,Harts Pk-8,1246 Mcclellan Highway ,Harts,25524,"1246 Mcclellan Highway , Harts, WV, 25524","-82.13501389999999, 38.0370312"
Logan,Chapmanville Middle School,300 Vance St. ,Chapmanville,25508,"300 Vance St. , Chapmanville, WV, 25508","-82.02488489999999, 37.9764615"
Logan,Buffalo Elementary School,Po Box 310 ,Accoville,25606,"Po Box 310 , Accoville, WV, 25606","-81.8497567, 37.7653234"
Logan,Man Elementary School,Box 269 ,Mallory,25634,"Box 269 , Mallory, WV, 25634",
Logan,Omar Elementary,Route 44 Box 590,Omar,25638,"Route 44 Box 590, Omar, WV, 25638",
Logan,Verdunville Elementary School,Drawer J Hill Drive,Verdunville,25649,"Drawer J Hill Drive, Verdunville, WV, 25649","-82.0462652, 37.847937"
Logan,Logan Elementary School,Midelburg Island ,Logan,25601,"Midelburg Island , Logan, WV, 25601","-81.99506629999999, 37.8511408"
Logan,Man Senior High School,800 East Mcdonald Avenue ,Man,25635,"800 East Mcdonald Avenue , Man, WV, 25635","-81.8748159, 37.7345366"
Logan,Hugh Dingess Elementary School,Rt. 1 Box 607,Harts,25524,"Rt. 1 Box 607, Harts, WV, 25524","-82.1386833, 37.9779553"
Logan,Chapmanville Regional High School,200 Vance Street ,Chapmanville,25508,"200 Vance Street , Chapmanville, WV, 25508","-82.02193869999999, 37.9758979"
Logan,Chapmanville East Elementary School,P.o. Box 340 ,Chapmanville,25508,"P.o. Box 340 , Chapmanville, WV, 25508",
Logan,Logan Middle School,14 Wildcat Way ,Logan,25601,"14 Wildcat Way , Logan, WV, 25601","-81.9959825, 37.8503511"
Logan,Man Middle School,Box 390 ,Mallory,25634,"Box 390 , Mallory, WV, 25634",
Logan,West Chapmanville Elementary School,100 Vance Street Box 310,Chapmanville,25508,"100 Vance Street Box 310, Chapmanville, WV, 25508",
Logan,South Man Elementary School,301 East Mcdonald Avenue ,Man,25635,"301 East Mcdonald Avenue , Man, WV, 25635","-81.8766558, 37.7386318"
Logan,Ralph R. Willis Vocational Center,Three Mile Curve Po Box 1747,Logan,25601,"Three Mile Curve Po Box 1747, Logan, WV, 25601","-81.9426074, 37.8268911"
Logan,Justice Elementary School,407 Circle Dirve ,Logan,25601,"407 Circle Dirve , Logan, WV, 25601","-81.9933508, 37.8953677"
Logan,Logan Senior High School,1 Wildcat Way ,Logan,25601,"1 Wildcat Way , Logan, WV, 25601","-81.99550169999999, 37.8518548"
Logan,Holden Central Elementary School,Box M ,Holden,25625,"Box M , Holden, WV, 25625",
Marion,Monongah Middle School,550 Camden Avenue ,Monongah,26554,"550 Camden Avenue , Monongah, WV, 26554","-80.2178929, 39.4619286"
Marion,East Dale Elementary School,Rt.3  57 East Dale Road ,Fairmont,26554,"Rt.3  57 East Dale Road , Fairmont, WV, 26554","-80.09589489999999, 39.49327419999999"
Marion,Fairview Middle School,17 Jesses Run Road ,Fairview,26570,"17 Jesses Run Road , Fairview, WV, 26570","-80.2527099, 39.592258"
Marion,Barrackville Elementary/Middle School,P O Box 150 509 Pike Street,Barrackville,26559,"P O Box 150 509 Pike Street, Barrackville, WV, 26559","-80.167157, 39.5042556"
Marion,Marion County Technical Center,2 North Marion Drive Route 250 North,Farmington,26571,"2 North Marion Drive Route 250 North, Farmington, WV, 26571","-80.3000291, 39.5117126"
Marion,White Hall Elementary School,38 Emerald Lane ,White Hall,26554,"38 Emerald Lane , White Hall, WV, 26554","-80.1767826, 39.4189844"
Marion,North Marion High School,1 North Marion Drive ,Farmington,26571,"1 North Marion Drive , Farmington, WV, 26571","-80.30161199999999, 39.512022"
Marion,Pleasant Valley Elementary School,1858 Valley School Road ,Pleasant Valley,26554,"1858 Valley School Road , Pleasant Valley, WV, 26554","-80.144477, 39.459"
Marion,East Fairmont High School,1993 Airport Road ,Fairmont,26554,"1993 Airport Road , Fairmont, WV, 26554","-80.15646459999999, 39.451003"
Marion,Jayenne Elementary School,1504 Country Club Road ,Fairmont,26554,"1504 Country Club Road , Fairmont, WV, 26554","-80.1769405, 39.4730426"
Marion,West Fairmont Middle School,1010 Tenth Street ,Fairmont,26554,"1010 Tenth Street , Fairmont, WV, 26554","-80.1506868, 39.4700756"
Marion,East Park Elementary School,1025 Fairfax Street ,Fairmont,26554,"1025 Fairfax Street , Fairmont, WV, 26554","-80.1218779, 39.4815002"
Marion,Mannington Middle School,113 Clarksburg Street ,Mannington,26582,"113 Clarksburg Street , Mannington, WV, 26582","-80.34455, 39.529531"
Marion,Rivesville Elementary/Middle School,229 Phillips Avenue ,Rivesville,26588,"229 Phillips Avenue , Rivesville, WV, 26588","-80.12819209999999, 39.5317529"
Marion,Blackshere Elementary School,77 Blackshere Drive ,Mannington,26582,"77 Blackshere Drive , Mannington, WV, 26582","-80.321513, 39.522108"
Marion,Marion Co Adult And Community Ed Center,601 Locust Ave. ,Fairmont,26554,"601 Locust Ave. , Fairmont, WV, 26554","-80.1542276, 39.4837654"
Marion,Barnes Learning Center (Alc),100 Naomi Street ,Fairmont,26554,"100 Naomi Street , Fairmont, WV, 26554","-80.137014, 39.5011709"
Marion,Watson Elementary School,1579 Mary Lou Retton Dr ,Fairmont,26554,"1579 Mary Lou Retton Dr , Fairmont, WV, 26554","-80.1666678, 39.4620476"
Marion,Fairmont Senior High School,Loop Park Drive ,Fairmont,26554,"Loop Park Drive , Fairmont, WV, 26554","-80.1571422, 39.4789039"
Marion,Monongah Elementary School,628 Walnut Street ,Monongah,26554,"628 Walnut Street , Monongah, WV, 26554","-80.221461, 39.4636691"
Marion,East Fairmont Middle School,221 Mason Street,Fairmont,26554,"221 Mason Street, Fairmont, WV, 26554","-80.13091759999999, 39.480476"
Marion,Fairview Elementary School,Po Box 39 100 School Street,Fairview,26570,"Po Box 39 100 School Street, Fairview, WV, 26570","-80.2470452, 39.5933829"
Marshall,Moundsville Middle School,223 Tomlinson Avenue ,Moundsville,26041,"223 Tomlinson Avenue , Moundsville, WV, 26041","-80.74544999999999, 39.92239199999999"
Marshall,Washington Lands Elementary School,Rr 4 Box 255 ,Moundsville,26041,"Rr 4 Box 255 , Moundsville, WV, 26041",
Marshall,Mcninch Primary School,2600 Fourth Street ,Moundsville,26041,"2600 Fourth Street , Moundsville, WV, 26041","-80.7222431, 39.9206454"
Marshall,John Marshall Adult Prep,John Marshall High School 1300 Wheeling Avenue,Glen Dale,26038,"John Marshall High School 1300 Wheeling Avenue, Glen Dale, WV, 26038","-80.7532632, 39.9416792"
Marshall,Glen Dale Elementary School,407 Seventh Street ,Glen Dale,26038,"407 Seventh Street , Glen Dale, WV, 26038","-80.7528797, 39.9475823"
Marshall,John Marshall High School,1300 Wheeling Avenue ,Glen Dale,26038,"1300 Wheeling Avenue , Glen Dale, WV, 26038","-80.7532632, 39.9416792"
Marshall,Cameron Elementary School,12 Church Street ,Cameron,26033,"12 Church Street , Cameron, WV, 26033","-80.5651907, 39.82610760000001"
Marshall,Sherrard Middle School,1000 Fairmont Pike ,Wheeling,26003,"1000 Fairmont Pike , Wheeling, WV, 26003","-80.6795751, 39.9968277"
Marshall,Hilltop Elementary School,2 Ram Drive ,Wheeling,26003,"2 Ram Drive , Wheeling, WV, 26003","-80.67522459999999, 39.9967406"
Marshall,Sand Hill Elementary School,Rr 1 Box 87 ,Dallas,26036,"Rr 1 Box 87 , Dallas, WV, 26036","-80.54940069999999, 39.9994074"
Marshall,Center Mcmechen Elementary School,800 Marshall Street ,Mcmechen,26040,"800 Marshall Street , Mcmechen, WV, 26040","-80.7282553, 39.989034"
Marshall,Gateway Achievement Center,21 Park Street ,Moundsville,26041,"21 Park Street , Moundsville, WV, 26041","-80.7363211, 39.9309101"
Marshall,Central Elementary School,750 Tomlinson Avenue ,Moundsville,26041,"750 Tomlinson Avenue , Moundsville, WV, 26041","-80.7451428, 39.91825499999999"
Marshall,Cameron High School,61 Maple Avenue ,Cameron,26033,"61 Maple Avenue , Cameron, WV, 26033","-80.55961219999999, 39.8225811"
Mason,Beale Elementary School,12897 Huntington Road,Gallipolis Ferry,25515,"12897 Huntington Road, Gallipolis Ferry, WV, 25515","-82.1973117, 38.7677634"
Mason,Wahama High School,P.o. Box 348 ,Mason,25260,"P.o. Box 348 , Mason, WV, 25260",
Mason,Hannan High School,15638 Ashton Upland Road ,Ashton,25503,"15638 Ashton Upland Road , Ashton, WV, 25503","-82.07308800000001, 38.567419"
Mason,Pt. Pleasant Primary,2200 Lincoln Ave ,Pt. Pleasant,0,"2200 Lincoln Ave , Pt. Pleasant, WV, 0","-82.130189, 38.863892"
Mason,Roosevelt Elementary School,Route 2 Box 841 ,Point Pleasant,25550,"Route 2 Box 841 , Point Pleasant, WV, 25550",
Mason,Leon Elementary School,138 Aylor Street ,Leon,25123,"138 Aylor Street , Leon, WV, 25123","-81.9572479, 38.7481123"
Mason,Mason County Career Center,281 Scenic Drive ,Point Pleasant,25550,"281 Scenic Drive , Point Pleasant, WV, 25550","-82.120972, 38.881619"
Mason,Point Pleasant Junior/Senior High School,Rt. 1 Box 4 ,Point Pleasant,25550,"Rt. 1 Box 4 , Point Pleasant, WV, 25550",
Mason,Pt. Pleasant Intermediate,1 Walden Way ,Pt. Pleasant,0,"1 Walden Way , Pt. Pleasant, WV, 0","-82.1275871, 38.87296"
Mason,Ashton Elementary School,4250 Ashton-Upland Road ,Ashton,25503,"4250 Ashton-Upland Road , Ashton, WV, 25503","-82.14643980000001, 38.6190022"
Mason,Mason County School For Success,758 Scenic Drive,Point Pleasant,25550,"758 Scenic Drive, Point Pleasant, WV, 25550","-82.11697699999999, 38.879924"
Mason,New Haven Elementary School,P.o. Box 989 ,New Haven,25265,"P.o. Box 989 , New Haven, WV, 25265","-81.9684821, 38.985761"
McDowell,River View High School,512 Mountaineer Highway ,Bradshaw,24817,"512 Mountaineer Highway , Bradshaw, WV, 24817","-81.8032638, 37.3579867"
McDowell,Southside K-8,Po Box 730 ,War,24892,"Po Box 730 , War, WV, 24892","-81.6740799, 37.304933"
McDowell,Kimball Elementary School,Box 308 Route #52,Kimball,24853,"Box 308 Route #52, Kimball, WV, 24853",
McDowell,Fall River Elementary School,Route 7 Drawer 70 ,Big Sandy,24816,"Route 7 Drawer 70 , Big Sandy, WV, 24816","-81.70411109999999, 37.45763890000001"
McDowell,Career And Technology Center,Drawer V ,Welch,24801,"Drawer V , Welch, WV, 24801",
McDowell,Anawalt Elementary School,Box 230 ,Anawalt,24808,"Box 230 , Anawalt, WV, 24808","-81.4365833, 37.3295833"
McDowell,Mount View High School,960 Mount View Road ,Welch,24801,"960 Mount View Road , Welch, WV, 24801","-81.5757711, 37.4387926"
McDowell,Sandy River Middle School,P.o. Box 419 ,Avondale,24811,"P.o. Box 419 , Avondale, WV, 24811","-81.78425469999999, 37.4130236"
McDowell,Welch Elementary School,1235 Stewart Street ,Welch,24801,"1235 Stewart Street , Welch, WV, 24801","-81.56412809999999, 37.4488145"
McDowell,Iaeger Elementary School,P.o. Box 359 Waters Street,Iaeger,24844,"P.o. Box 359 Waters Street, Iaeger, WV, 24844","-81.8213349, 37.466634"
McDowell,Bradshaw Elementary School,P.o. Box 40 ,Bradshaw,24817,"P.o. Box 40 , Bradshaw, WV, 24817","-81.7980489, 37.3507725"
McDowell,Phoenix Center,275 Virginia Avenue ,Welch,24801,"275 Virginia Avenue , Welch, WV, 24801","-81.5813805, 37.434714"
Mercer,Pikeview Middle School,3550 Eads Mill Road ,Princeton,24740,"3550 Eads Mill Road , Princeton, WV, 24740","-81.061092, 37.427192"
Mercer,Mercer Elementary School,1200 Mercer Street ,Princeton,24740,"1200 Mercer Street , Princeton, WV, 24740","-81.1001355, 37.3671685"
Mercer,Princeton Primary,219b Old Bluefield Road ,Princeton,24740,"219b Old Bluefield Road , Princeton, WV, 24740","-81.10179099999999, 37.354954"
Mercer,Melrose Elementary School,"Hc 71, Box 257 ",Princeton,24740,"Hc 71, Box 257 , Princeton, WV, 24740",
Mercer,Mercer County Early Learning Center,821 Broadway Street ,Princeton,24740,"821 Broadway Street , Princeton, WV, 24740","-81.0954184, 37.3788847"
Mercer,Glenwood School,1734 Glenwood Park Road ,Princeton,24740,"1734 Glenwood Park Road , Princeton, WV, 24740","-81.151944, 37.3373018"
Mercer,Pikeview High School,3566 Eads Mill Road ,Princeton,24740,"3566 Eads Mill Road , Princeton, WV, 24740","-81.0599572, 37.4286616"
Mercer,Sun Valley Elementary School,Po Box 10 ,Lerona,25971,"Po Box 10 , Lerona, WV, 25971",
Mercer,Brushfork Elementary School,Rt 4  Box 93 ,Bluefield,24701,"Rt 4  Box 93 , Bluefield, WV, 24701",
Mercer,Montcalm High School,5366 Simmons River Road,Rock,24747,"5366 Simmons River Road, Rock, WV, 24747","-81.2511024, 37.3473785"
Mercer,Spanishburg School,Po Box 7 ,Spanishburg,25922,"Po Box 7 , Spanishburg, WV, 25922","-81.1030573, 37.4786642"
Mercer,Athens School,Po Box 568 ,Athens,24712,"Po Box 568 , Athens, WV, 24712","-81.00604899999999, 37.42475750000001"
Mercer,Princeton Middle School,300 N. Johnston Street ,Princeton,24740,"300 N. Johnston Street , Princeton, WV, 24740","-81.1045068, 37.3687344"
Mercer,Montcalm Elementary School,Rt 2 Box 35 ,Rock,24747,"Rt 2 Box 35 , Rock, WV, 24747","-81.19679, 37.406273"
Mercer,Bluefield Middle School,2002 Stadium Drive ,Bluefield,24701,"2002 Stadium Drive , Bluefield, WV, 24701","-81.2436322, 37.2494521"
Mercer,Memorial Primary,319  Memorial Avenue ,Bluefield,24701,"319  Memorial Avenue , Bluefield, WV, 24701","-81.2097371, 37.2583355"
Mercer,Bluefield Intermediate,1301 Southview Drive ,Bluefield,24701,"1301 Southview Drive , Bluefield, WV, 24701","-81.23238429999999, 37.2431432"
Mercer,Lashmeet/Matoaka School,Po  Box 408 ,Matoaka,24736,"Po  Box 408 , Matoaka, WV, 24736","-81.30693149999999, 37.4780145"
Mercer,Mercer County Technical Education Center,1397 Stafford Drive ,Princeton,24740,"1397 Stafford Drive , Princeton, WV, 24740","-81.1046952, 37.3600179"
Mercer,Whitethorn Elementary School,1919 Maryland Avenue ,Bluefield,24701,"1919 Maryland Avenue , Bluefield, WV, 24701","-81.23070059999999, 37.249801"
Mercer,Ceres Elementary School,Rt 2  Box 189 ,Bluefield,24701,"Rt 2  Box 189 , Bluefield, WV, 24701",
Mercer,Princeton Senior High School,1321 Stafford Drive ,Princeton,24740,"1321 Stafford Drive , Princeton, WV, 24740","-81.09971039999999, 37.3606943"
Mercer,Straley Elementary School,810 Straley Avenue ,Princeton,24740,"810 Straley Avenue , Princeton, WV, 24740","-81.09446179999999, 37.3706849"
Mercer,Bluewell Elementary School,Rt 4  Box 480 ,Bluefield,24701,"Rt 4  Box 480 , Bluefield, WV, 24701",
Mercer,Bluefield High School,535 West Cumberland Road ,Bluefield,24701,"535 West Cumberland Road , Bluefield, WV, 24701","-81.217817, 37.248651"
Mercer,Oakvale School,2503 Goodwins Chapel Road ,Princeton,24740,"2503 Goodwins Chapel Road , Princeton, WV, 24740","-80.9547709, 37.3398449"
Mineral,Burlington Primary,10474 Patterson Creek Road,Burlington,26710,"10474 Patterson Creek Road, Burlington, WV, 26710","-78.91971319999999, 39.3343491"
Mineral,Mineral County Alternative School,89 Baker Place,Keyser,26726,"89 Baker Place, Keyser, WV, 26726","-78.9906196, 39.4297575"
Mineral,Elk Garden School,86 Elk Garden Highway,Elk Garden,26717,"86 Elk Garden Highway, Elk Garden, WV, 26717","-79.1522566, 39.3809314"
Mineral,Frankfort High School,393 Falcon Way,Ridgeley,26753,"393 Falcon Way, Ridgeley, WV, 26753","-78.8032197, 39.5477384"
Mineral,Frankfort Middle School,356 Golden Drive,Ridgeley,26753,"356 Golden Drive, Ridgeley, WV, 26753","-78.8038712, 39.5409756"
Mineral,New Creek Primary School,"PO Box 97, 85 New Creek School Road",New Creek,26743,"PO Box 97, 85 New Creek School Road, New Creek, WV, 26743","-79.0284095, 39.374188"
Mineral,Fort Ashby Primary School,44 Fort Ashby Primary School Road,Ft. Ashby,26719,"44 Fort Ashby Primary School Road, Ft. Ashby, WV, 26719","-78.7645086, 39.5052093"
Mineral,Mineral County Technical Center,981 Harley O. Staggers Drive ,Keyser,26726,"981 Harley O. Staggers Drive , Keyser, WV, 26726","-78.98466289999999, 39.4302781"
Mineral,Keyser Middle School,879 Harley O. Staggers Drive ,Keyser,26726,"879 Harley O. Staggers Drive , Keyser, WV, 26726","-78.98466289999999, 39.4302781"
Mineral,Keyser High School,328 One Tornado Way,Keyser,26726,"328 One Tornado Way, Keyser, WV, 26726","-79.0213966, 39.3996909"
Mineral,Frankfort Intermediate School,284 Intermediate Drive,Fort Ashby,26719,"284 Intermediate Drive, Fort Ashby, WV, 26719","-78.75754239999999, 39.508279"
Mineral,Wiley Ford Primary School,PO Box 20 ,Wiley Ford,26767,"PO Box 20 , Wiley Ford, WV, 26767","-78.7561222, 39.61679609999999"
Mineral,Fountain Primary School,289 Fountain School Road,Keyser,26726,"289 Fountain School Road, Keyser, WV, 26726","-78.9375829, 39.4222667"
Mineral,Keyser Primary School,1123 Harley O. Staggers Drive,Keyser,26726,"1123 Harley O. Staggers Drive, Keyser, WV, 26726","-78.9905764, 39.4244634"
Mingo,Williamson PK-8,Alderson Street ,Williamson,25661,"Alderson Street , Williamson, WV, 25661","-82.2726283, 37.6764793"
Mingo,Mingo Central Comprehensive High,1000 King Coal Highway,Delbarton,25670,"1000 King Coal Highway, Delbarton, WV, 25670","-82.0846054, 37.64188619999999"
Mingo,Mingo County Extended Learning Center,Rt. 2 Box 52-A,Delbarton,25670,"Rt. 2 Box 52-A, Delbarton, WV, 25670","-82.1566, 37.7339"
Mingo,Matewan Elementary School,100 Chambers Street ,Matewan,25678,"100 Chambers Street , Matewan, WV, 25678","-82.1559516, 37.6220631"
Mingo,Williamson High School,801 Alderson Street ,Williamson,25661,"801 Alderson Street , Williamson, WV, 25661","-82.2724733, 37.6772854"
Mingo,Gilbert Elementary,Rt. 52 Elementary School Dr. ,Gilbert,25621,"Rt. 52 Elementary School Dr. , Gilbert, WV, 25621","-81.88182359999999, 37.6186173"
Mingo,Gilbert High School,100 Lion Drive ,Gilbert,25621,"100 Lion Drive , Gilbert, WV, 25621","-81.9115556, 37.6358889"
Mingo,Burch Pk-6,Rt. 3 Box 4-B ,Delbarton,25670,"Rt. 3 Box 4-B , Delbarton, WV, 25670",
Mingo,Gilbert Middle School,100 Lion Drive ,Gilbert,25621,"100 Lion Drive , Gilbert, WV, 25621","-81.9115556, 37.6358889"
Mingo,Matewan PK-8,200 Tiger Lane ,Matewan,25678,"200 Tiger Lane , Matewan, WV, 25678",
Mingo,Mingo Career & Technical Center,Route 2 Box 52 A ,Delbarton,25670,"Route 2 Box 52 A , Delbarton, WV, 25670","-82.1769834, 37.6769637"
Mingo,Kermit Area School (K-8),Blue Devil Lane ,Kermit,25674,"Blue Devil Lane , Kermit, WV, 25674",
Mingo,Tug Valley High School,555 Panther Drive ,Williamson,25661,"555 Panther Drive , Williamson, WV, 25661","-82.3380208, 37.799081"
Mingo,Riverside Elementary School,5 Parkway Drive ,Williamson,25661,"5 Parkway Drive , Williamson, WV, 25661","-82.2882846, 37.6694947"
Mingo,Matewan High School,100 Tiger Lane ,Matewan,25678,"100 Tiger Lane , Matewan, WV, 25678",
Mingo,Dingess Elementary School,101 Schoolhouse Rd. ,Dingess,25671,"101 Schoolhouse Rd. , Dingess, WV, 25671","-82.1504999, 37.8544721"
Mingo,Burch High School,Rt. 2 Box 521-A ,Delbarton,25670,"Rt. 2 Box 521-A , Delbarton, WV, 25670",
Mingo,Lenore K-8 School,#1 Ranger Drive ,Williamson,25661,"#1 Ranger Drive , Williamson, WV, 25661","-82.289684, 37.797841"
Mingo,Burch PK-8,Rt. 2 Box 52-1a ,Delbarton,25670,"Rt. 2 Box 52-1a , Delbarton, WV, 25670","-82.1769834, 37.6769637"
Monongalia,Mason-Dixon  Elementary,7041 Mason Dixon Highway ,Blacksville,26521,"7041 Mason Dixon Highway , Blacksville, WV, 26521","-80.25351789999999, 39.7101137"
Monongalia,University High School,131 Baker`s Ridge Road ,Morgantown,26508,"131 Baker`s Ridge Road , Morgantown, WV, 26508","-79.9286664, 39.6878374"
Monongalia,Cheat Lake Elementary School,154 Crosby Road ,Morgantown,26508,"154 Crosby Road , Morgantown, WV, 26508","-79.8681733, 39.6529937"
Monongalia,Clay-Battelle High School,Drawer A ,Blacksville,26521,"Drawer A , Blacksville, WV, 26521","-80.2235649, 39.71975399999999"
Monongalia,North Elementary School,825 Chestnut Ridge Road ,Morgantown,26505,"825 Chestnut Ridge Road , Morgantown, WV, 26505","-79.9568398, 39.657972"
Monongalia,Eastwood Elementary School,677 201 St. Memorial Hwy,Morgantown,26505,"677 201 St. Memorial Hwy, Morgantown, WV, 26505","-79.9395488, 39.6539836"
Monongalia,South Middle School,500 East Parkway Drive ,Morgantown,26501,"500 East Parkway Drive , Morgantown, WV, 26501","-79.9550977, 39.612582"
Monongalia,Brookhaven Elementary School,1215 Baker Street ,Morgantown,26508,"1215 Baker Street , Morgantown, WV, 26508","-79.9050144, 39.6102152"
Monongalia,Mountaineer Middle School,991 Price Street ,Morgantown,26505,"991 Price Street , Morgantown, WV, 26505","-79.9464634, 39.6376357"
Monongalia,Skyview Elementary School,668 River Road ,Morgantown,26501,"668 River Road , Morgantown, WV, 26501","-79.98163699999999, 39.617116"
Monongalia,Technical Education Center,1000 Mississippi Street ,Morgantown,26501,"1000 Mississippi Street , Morgantown, WV, 26501","-79.9572338, 39.61121809999999"
Monongalia,Mountainview Elementary School,661 Greenbag Road ,Morgantown,26508,"661 Greenbag Road , Morgantown, WV, 26508","-79.94335199999999, 39.610532"
Monongalia,Morgantown High School,109 Wilson Avenue ,Morgantown,26501,"109 Wilson Avenue , Morgantown, WV, 26501","-79.9568666, 39.6239373"
Monongalia,Suncrest Primary,523 Junior Avenue ,Morgantown,26505,"523 Junior Avenue , Morgantown, WV, 26505","-79.97686709999999, 39.6599771"
Monongalia,Suncrest Middle School,360 Baldwin Street ,Morgantown,26505,"360 Baldwin Street , Morgantown, WV, 26505","-79.971042, 39.65255399999999"
Monongalia,Ridgedale Elementary School,1550 Goshen Road ,Morgantown,26508,"1550 Goshen Road , Morgantown, WV, 26508","-79.9403896, 39.5505097"
Monongalia,Westwood Middle School,670 River Road ,Morgantown,26501,"670 River Road , Morgantown, WV, 26501","-79.978433, 39.618401"
Monongalia,Mylan Park Elementary School,901 Mylan Park Lane ,Morgantown,26501,"901 Mylan Park Lane , Morgantown, WV, 26501","-80.03017559999999, 39.6424999"
Monroe,James Monroe High School,Rt. 1 Box 97-1-A James Monroe Drive,Lindside,24951,"Rt. 1 Box 97-1-A James Monroe Drive, Lindside, WV, 24951",
Monroe,Mountain View Elementary & Middle School,Mt. View Drive P.o. Box 620,Union,24983,"Mt. View Drive P.o. Box 620, Union, WV, 24983","-80.54463290000001, 37.5865358"
Monroe,Monroe County Vocational Center,"Route 1, Box 97 James Monroe Drive",Lindside,24951,"Route 1, Box 97 James Monroe Drive, Lindside, WV, 24951","-80.6580278, 37.4834722"
Monroe,Peterstown Middle School,108 College Drive ,Peterstown,24963,"108 College Drive , Peterstown, WV, 24963","-80.79153149999999, 37.4009168"
Monroe,Peterstown Elementary,36 College Drive ,Peterstown,24963,"36 College Drive , Peterstown, WV, 24963","-80.7928708, 37.4004768"
Morgan,Berkeley Springs High School,149 Concord Avenue ,Berkeley Springs,25411,"149 Concord Avenue , Berkeley Springs, WV, 25411","-78.2337718, 39.6169959"
Morgan,Warm Springs Intermediate School,575 Warm Springs Way ,Berkeley Springs,25411,"575 Warm Springs Way , Berkeley Springs, WV, 25411","-78.2021278, 39.6325933"
Morgan,Pleasant View Elementary School,10500 Martinsburg Road ,Hedgesville,25427,"10500 Martinsburg Road , Hedgesville, WV, 25427","-78.08067600000001, 39.609071"
Morgan,Greenwood Elementary School,8989 Winchester Grade Road ,Berkeley Springs,25411,"8989 Winchester Grade Road , Berkeley Springs, WV, 25411","-78.2215512, 39.4823331"
Morgan,Paw Paw High School,60 Pirate Circle ,Paw Paw,25434,"60 Pirate Circle , Paw Paw, WV, 25434","-78.4543655, 39.527622"
Morgan,Warm Springs Middle School,271 Warm Springs Way ,Berkeley Springs,25411,"271 Warm Springs Way , Berkeley Springs, WV, 25411","-78.205422, 39.6290323"
Morgan,Widmyer Elementary,10 Myers Road ,Berkeley Springs,25411,"10 Myers Road , Berkeley Springs, WV, 25411","-78.2363115, 39.6138121"
Morgan,Paw Paw Elementary School,60 Pirate Circle ,Paw Paw,25434,"60 Pirate Circle , Paw Paw, WV, 25434","-78.4543655, 39.527622"
Nicholas,Richwood High School,1 Valley Ave. ,Richwood,26261,"1 Valley Ave. , Richwood, WV, 26261","-80.53116729999999, 38.2229779"
Nicholas,Gauley River Elementary,100 School Street,Craigsville,26205,"100 School Street, Craigsville, WV, 26205","-80.6519961, 38.329149"
Nicholas,Summersville Middle School,40 Grizzly Rd ,Summersville,26651,"40 Grizzly Rd , Summersville, WV, 26651","-80.83027030000001, 38.322379"
Nicholas,Birch River Elementary School,379 Birch River Road ,Birch River,26610,"379 Birch River Road , Birch River, WV, 26610","-80.7483056, 38.4971667"
Nicholas,Panther Creek Elementary School,10068 Canvas Nettie Road P.o.box 39,Nettie,26681,"10068 Canvas Nettie Road P.o.box 39, Nettie, WV, 26681","-80.705536, 38.228907"
Nicholas,Summersville Elementary School,108 Mckees Creek Rd ,Summersville,26651,"108 Mckees Creek Rd , Summersville, WV, 26651","-80.856742, 38.278281"
Nicholas,Mt Lookout Elementary School,1945 Mt. Lookout Road ,Mt Lookout,26678,"1945 Mt. Lookout Road , Mt Lookout, WV, 26678","-80.87547289999999, 38.1566215"
Nicholas,Nicholas County Career/Technical Center,215 Milam Addition Rd ,Craigsville,26205,"215 Milam Addition Rd , Craigsville, WV, 26205","-80.64977309999999, 38.3273324"
Nicholas,Dixie Elementary School,Po Box 288 1988 Dixie Highway,Dixie,25059,"Po Box 288 1988 Dixie Highway, Dixie, WV, 25059","-81.192036, 38.254408"
Nicholas,Nicholas County High School,30 Grizzly Rd ,Summersville,26651,"30 Grizzly Rd , Summersville, WV, 26651","-80.8314911, 38.3216046"
Nicholas,Cherry River Elementary School,190 Riverside Drive ,Richwood,26261,"190 Riverside Drive , Richwood, WV, 26261","-80.5534124, 38.21897269999999"
Nicholas,Richwood Middle School,2 Valley Avenue ,Richwood,26261,"2 Valley Avenue , Richwood, WV, 26261","-80.53117600000002, 38.223092"
Nicholas,Zela Elementary School,165 Country Road ,Summersville,26651,"165 Country Road , Summersville, WV, 26651","-80.9508895, 38.2850748"
Nicholas,Mt Nebo Elementary School,Po Box 160 110 Schoolhouse Lane,Mt. Nebo,26651,"Po Box 160 110 Schoolhouse Lane, Mt. Nebo, WV, 26651","-80.8528935, 38.209111"
Nicholas,Glade Creek Elementary School,7950 Webster Road ,Summersville,26651,"7950 Webster Road , Summersville, WV, 26651","-80.8002546, 38.3194084"
Ohio,West Liberty Elementary School,745 Van Meter Way ,Wheeling,26003,"745 Van Meter Way , Wheeling, WV, 26003","-80.5982774, 40.1696903"
Ohio,Ritchie Elementary School,3700 Wood St ,Wheeling,26003,"3700 Wood St , Wheeling, WV, 26003","-80.7236073, 40.0447839"
Ohio,Madison Elementary School,91 Zane St ,Wheeling,26003,"91 Zane St , Wheeling, WV, 26003","-80.7335621, 40.0722792"
Ohio,Wheeling Middle School,35th and Chapline St ,Wheeling,26003,"35th and Chapline St , Wheeling, WV, 26003","-80.726417, 40.04786989999999"
Ohio,Bethlehem Elementary School,22 Chapel Rd ,Wheeling,26003,"22 Chapel Rd , Wheeling, WV, 26003","-80.691768, 40.0449589"
Ohio,Triadelphia Middle School,1636 National Rd ,Wheeling,26003,"1636 National Rd , Wheeling, WV, 26003","-80.67478059999999, 40.0600785"
Ohio,Woodsdale Elementary School,1 Bethany Pike ,Wheeling,26003,"1 Bethany Pike , Wheeling, WV, 26003","-80.6931554, 40.07729399999999"
Ohio,Steenrod Elementary School,100 Clarks Ln ,Wheeling,26003,"100 Clarks Ln , Wheeling, WV, 26003","-80.6762987, 40.0600323"
Ohio,Middle Creek Elementary School,579 Middle Creek Road ,Triadelphia,26059,"579 Middle Creek Road , Triadelphia, WV, 26059","-80.628945, 40.042719"
Ohio,Wheeling Park High School,1976 Park View Rd ,Wheeling,26003,"1976 Park View Rd , Wheeling, WV, 26003","-80.65454009999999, 40.0692047"
Ohio,Elm Grove Elementary School,85 Mil Acres Dr ,Wheeling,26003,"85 Mil Acres Dr , Wheeling, WV, 26003","-80.6513676, 40.0278732"
Ohio,Warwood School,150 Viking Dr ,Wheeling,26003,"150 Viking Dr , Wheeling, WV, 26003","-80.7012561, 40.114285"
Ohio,Bridge Street Middle School,19 Junior Ave ,Wheeling,26003,"19 Junior Ave , Wheeling, WV, 26003","-80.6624185, 40.0426087"
Pendleton,Brandywine Elementary School,11480 Blue Gray Trail P. O. Box 247,Brandywine,26802,"11480 Blue Gray Trail P. O. Box 247, Brandywine, WV, 26802","-79.243922, 38.627775"
Pendleton,Pendleton County Middle/High School,Po Box 40 409 Maple Avenue,Franklin,26807,"Po Box 40 409 Maple Avenue, Franklin, WV, 26807","-79.326016, 38.6507309"
Pendleton,Franklin Elementary School,67 South Branch Street Po Box 848,Franklin,26807,"67 South Branch Street Po Box 848, Franklin, WV, 26807","-79.3287455, 38.6456983"
Pendleton,North Fork Elementary School,"Po Box 186, 189 Price Way",Circleville,26804,"Po Box 186, 189 Price Way, Circleville, WV, 26804","-79.49135439999999, 38.6723225"
Pleasants,Mid Ohio Valley Technical Institute,2134 N Pleasants Highway ,St Marys,26170,"2134 N Pleasants Highway , St Marys, WV, 26170","-81.180206, 39.422841"
Pleasants,Pleasants County Middle School,510 Riverview Drive ,Belmont,26134,"510 Riverview Drive , Belmont, WV, 26134","-81.2634123, 39.3778543"
Pleasants,Belmont Elementary School,512 Riverview Drive ,Belmont,26134,"512 Riverview Drive , Belmont, WV, 26134","-81.26423299999999, 39.377906"
Pleasants,St. Marys High School,2330 N Pleasants Hwy,St Marys,26170,"2330 N Pleasants Hwy, St Marys, WV, 26170","-81.1797971, 39.4243966"
Pleasants,St. Marys Elementary School,317 Washington Street ,St Marys,26170,"317 Washington Street , St Marys, WV, 26170","-81.2029337, 39.3901719"
Pocahontas,Pocahontas County High School,"Route 1, Box 133a ",Dunmore,24934,"Route 1, Box 133a , Dunmore, WV, 24934",
Pocahontas,Marlinton Elementary School,926a Fifth Avenue ,Marlinton,24954,"926a Fifth Avenue , Marlinton, WV, 24954","-80.09247049999999, 38.2209011"
Pocahontas,Hillsboro Elementary School,"Hc 64, Box 399 ",Hillsboro,24946,"Hc 64, Box 399 , Hillsboro, WV, 24946",
Pocahontas,Marlinton Middle School,"Route 2, Box 52s ",Buckeye,24924,"Route 2, Box 52s , Buckeye, WV, 24924",
Pocahontas,Green Bank Elementary-Middle School,"Route 1, Box 5 ",Green Bank,24944,"Route 1, Box 5 , Green Bank, WV, 24944",
Preston,Terra Alta/East Preston School,1103 East State Avenue ,Terra Alta,26764,"1103 East State Avenue , Terra Alta, WV, 26764","-79.535485, 39.443038"
Preston,Rowlesburg School,46 Center Street ,Rowlesburg,26425,"46 Center Street , Rowlesburg, WV, 26425","-79.68640309999999, 39.35596839999999"
Preston,South Preston School,5258 South Preston Highway,Tunnelton,26444,"5258 South Preston Highway, Tunnelton, WV, 26444","-79.7716918, 39.3807731"
Preston,West Preston School,113 Eby School Road,Arthurdale,26520,"113 Eby School Road, Arthurdale, WV, 26520","-79.8118142, 39.496727"
Preston,Central Preston Middle School,500 Knight Drive ,Kingwood,26537,"500 Knight Drive , Kingwood, WV, 26537","-79.677836, 39.460035"
Preston,Fellowsville Elementary,139 Fellowsville School Rd ,Tunnelton,26444,"139 Fellowsville School Rd , Tunnelton, WV, 26444","-79.82287, 39.329611"
Preston,Bruceton School,P.o. Box 141 141 Morgantown Street,Bruceton Mills,26525,"P.o. Box 141 141 Morgantown Street, Bruceton Mills, WV, 26525","-79.64117300000001, 39.657253"
Preston,Aurora Elementary,125 Aurora School Road ,Aurora,26705,"125 Aurora School Road , Aurora, WV, 26705","-79.55032299999999, 39.323677"
Preston,Preston High School,400 Knight Drive ,Kingwood,26537,"400 Knight Drive , Kingwood, WV, 26537","-79.67795600000001, 39.46012"
Preston,Kingwood Elementary,207 S Price Street ,Kingwood,26537,"207 S Price Street , Kingwood, WV, 26537","-79.68647299999999, 39.4686049"
Putnam,Poca Middle School,P.o. Box 647 Route 62 South,Poca,25159,"P.o. Box 647 Route 62 South, Poca, WV, 25159","-81.81417549999999, 38.4722971"
Putnam,Hometown Elementary,P.o. Box 249 Route 62 North,Hometown,25109,"P.o. Box 249 Route 62 North, Hometown, WV, 25109","-81.8619197, 38.536232"
Putnam,George Washington Middle School,P.o. Box 660 Route 62 North,Eleanor,25070,"P.o. Box 660 Route 62 North, Eleanor, WV, 25070","-81.92128480000001, 38.5334092"
Putnam,Eastbrook Elementary School,1600 Bills Creek Road ,Winfield,25213,"1600 Bills Creek Road , Winfield, WV, 25213","-81.8664331, 38.4655985"
Putnam,Winfield Elementary,2 Wall Street ,Winfield,25213,"2 Wall Street , Winfield, WV, 25213","-81.89506820000001, 38.5307242"
Putnam,Confidence Elementary,Hc Box 163 ,Red House,25168,"Hc Box 163 , Red House, WV, 25168",
Putnam,Winfield High School,3022 Winfield Road ,Winfield,25213,"3022 Winfield Road , Winfield, WV, 25213","-81.8782689, 38.538443"
Putnam,Scott Teays Elementary,4308 Teays Valley Road ,Scott Depot,25560,"4308 Teays Valley Road , Scott Depot, WV, 25560","-81.910465, 38.448205"
Putnam,Hurricane High School,3350 Teays Valley Road ,Hurricane,25526,"3350 Teays Valley Road , Hurricane, WV, 25526","-82.0058466, 38.437667"
Putnam,Poca Elementary,P.o. Box 430 Route 62 South,Poca,25159,"P.o. Box 430 Route 62 South, Poca, WV, 25159","-81.81417549999999, 38.4722971"
Putnam,Winfield Middle School,3280 Winfield Road ,Winfield,25213,"3280 Winfield Road , Winfield, WV, 25213","-81.8889311, 38.5353507"
Putnam,Hurricane Town Elementary,300 Harbour Lane ,Hurricane,25526,"300 Harbour Lane , Hurricane, WV, 25526","-82.0307521, 38.4241492"
Putnam,Hurricane Middle,518 Midland Trail ,Hurricane,25526,"518 Midland Trail , Hurricane, WV, 25526","-82.0192376, 38.4282373"
Putnam,George Washington Elementary School,P.o. Box 680 Route 62 North,Eleanor,25070,"P.o. Box 680 Route 62 North, Eleanor, WV, 25070","-81.92128480000001, 38.5334092"
Putnam,Mountain View Elementary School,3967 Teays Valley Road ,Hurricane,25526,"3967 Teays Valley Road , Hurricane, WV, 25526","-81.9429476, 38.4470558"
Putnam,Conner Street Elementary,445 Conner Street ,Hurricane,25526,"445 Conner Street , Hurricane, WV, 25526","-82.0221768, 38.4346469"
Putnam,Putnam Career & Technical Center,P.o. Box 640 300 Roosevelt Bldv,Eleanor,25070,"P.o. Box 640 300 Roosevelt Bldv, Eleanor, WV, 25070","-81.9235564, 38.5349716"
Putnam,West Teays Elementary,3676 Teays Vly Road ,Hurricane,25526,"3676 Teays Vly Road , Hurricane, WV, 25526","-81.9728282, 38.4463223"
Putnam,Buffalo Elementary School,"Rt. 2, Box 93 ",Buffalo,25033,"Rt. 2, Box 93 , Buffalo, WV, 25033",
Putnam,Poca High School,"Rt. 1, Box 5b ",Poca,25159,"Rt. 1, Box 5b , Poca, WV, 25159",
Putnam,Rock Branch Elementary,4616 1st Avenue ,Nitro,25143,"4616 1st Avenue , Nitro, WV, 25143","-81.8191105, 38.4476357"
Putnam,Buffalo High School,3317 Buffalo Road ,Buffalo,25033,"3317 Buffalo Road , Buffalo, WV, 25033","-81.99157819999999, 38.6057368"
Putnam,Lakeside Elementary,2550 Us Rt 60 ,Hurricane,25526,"2550 Us Rt 60 , Hurricane, WV, 25526","-82.00676220000001, 38.4126564"
Raleigh,Bradley Elementary School,210 Bradley School Road ,Mt Hope,25880,"210 Bradley School Road , Mt Hope, WV, 25880","-81.193389, 37.847952"
Raleigh,Park Middle School,212 Park Avenue ,Beckley,25801,"212 Park Avenue , Beckley, WV, 25801","-81.191154, 37.771575"
Raleigh,Hollywood Elementary,Po Box 7 ,Macarthur,25873,"Po Box 7 , Macarthur, WV, 25873","-81.2546366, 37.6987948"
Raleigh,Raleigh-Boone Technical Center,11823 Coal River Road ,Whitesville,25209,"11823 Coal River Road , Whitesville, WV, 25209","-81.5350867, 37.9583058"
Raleigh,Beckley Elementary,399 Gray Flats Road ,Beckley,25801,"399 Gray Flats Road , Beckley, WV, 25801","-81.15519599999999, 37.7832277"
Raleigh,Fairdale Elementary School,Po Box 10 ,Fairdale,25839,"Po Box 10 , Fairdale, WV, 25839","-81.3673719, 37.7827025"
Raleigh,Woodrow Wilson High School,400 Stanaford Road ,Beckley,25801,"400 Stanaford Road , Beckley, WV, 25801","-81.16825469999999, 37.8002154"
Raleigh,Marsh Fork Elementary,5690 Coal River Road ,Naoma,25174,"5690 Coal River Road , Naoma, WV, 25174","-81.4519565, 37.8482081"
Raleigh,Crescent Elementary,205 Crescent Road ,Beckley,25801,"205 Crescent Road , Beckley, WV, 25801","-81.2100044, 37.7873688"
Raleigh,Liberty High School,Po Box 265 ,Glen Daniel,25844,"Po Box 265 , Glen Daniel, WV, 25844","-81.3729372, 37.7998421"
Raleigh,Shady Spring Elementary,Po Box 2009 ,Shady Spring,25918,"Po Box 2009 , Shady Spring, WV, 25918","-81.0942426, 37.7040935"
Raleigh,Crab Orchard Elementary,Po Box 727 Rt 16,Crab Orchard,25827,"Po Box 727 Rt 16, Crab Orchard, WV, 25827","-81.2405784, 37.7182976"
Raleigh,Beckley-Stratton Middle School,401 Gray Flats Road ,Beckley,25801,"401 Gray Flats Road , Beckley, WV, 25801","-81.155153, 37.784953"
Raleigh,Maxwell Hill Elementary,1001 Maxwell Hill Road ,Beckley,25801,"1001 Maxwell Hill Road , Beckley, WV, 25801","-81.197519, 37.807839"
Raleigh,Clear Fork District Elementary,P.o. Box 127 ,Clear Creek,25044,"P.o. Box 127 , Clear Creek, WV, 25044","-81.3234382, 37.9067915"
Raleigh,Shady Spring Middle School,500 Flat Top Road ,Shady Spring,25918,"500 Flat Top Road , Shady Spring, WV, 25918","-81.1026262, 37.6938945"
Raleigh,Lester Elementary,Box 727 ,Lester,25865,"Box 727 , Lester, WV, 25865",
Raleigh,Trap Hill Middle School,665 Coal River Road ,Glen Daniel,25844,"665 Coal River Road , Glen Daniel, WV, 25844","-81.336454, 37.794213"
Raleigh,Ghent Elementary,Po Box 350 ,Ghent,25843,"Po Box 350 , Ghent, WV, 25843",
Raleigh,Academy Of Careers And Technology,390 Stanaford Road ,Beckley,25801,"390 Stanaford Road , Beckley, WV, 25801","-81.1685098, 37.7999083"
Raleigh,Stratton Elementary,1129 South Fayette Street ,Beckley,25801,"1129 South Fayette Street , Beckley, WV, 25801","-81.17383699999999, 37.766447"
Raleigh,Daniels Elementary,Box 689 4-H Lake Road,Daniels,25832,"Box 689 4-H Lake Road, Daniels, WV, 25832",
Raleigh,Shady Spring High,Po Box 2001 ,Shady Spring,25918,"Po Box 2001 , Shady Spring, WV, 25918","-81.0942426, 37.7040935"
Raleigh,Sophia-Soak Creek Elementary,Po Box 487 ,Sophia,25921,"Po Box 487 , Sophia, WV, 25921","-81.2477531, 37.7101555"
Raleigh,Cranberry-Prosperity Elementary,4575 Robert C Byrd Dr ,Beckley,25801,"4575 Robert C Byrd Dr , Beckley, WV, 25801","-81.191169, 37.82106"
Raleigh,Independence High School,Po Box 1595 ,Coal City,25823,"Po Box 1595 , Coal City, WV, 25823","-81.21823309999999, 37.68671560000001"
Raleigh,Stanaford Elementary School,950 Stanaford Road ,Beckley,25801,"950 Stanaford Road , Beckley, WV, 25801","-81.15391699999999, 37.812429"
Raleigh,Coal City Elementary,Po Box 1240 ,Coal City,25823,"Po Box 1240 , Coal City, WV, 25823",
Raleigh,Independence Middle School,Po Box 1171 ,Sophia,25921,"Po Box 1171 , Sophia, WV, 25921","-81.2477531, 37.7101555"
Raleigh,Mabscott Elementary,Box 174 ,Mabscott,25871,"Box 174 , Mabscott, WV, 25871",
Randolph,Elkins Middle School,308 Robert E. Lee Avenue ,Elkins,26241,"308 Robert E. Lee Avenue , Elkins, WV, 26241","-79.8634874, 38.92719690000001"
Randolph,Coalton Elementary School,P.o. Box 129 ,Coalton,26257,"P.o. Box 129 , Coalton, WV, 26257",
Randolph,North Elementary School,"Route 2, Box 320 ",Elkins,26241,"Route 2, Box 320 , Elkins, WV, 26241","-80.2320276, 38.9939872"
Randolph,Homestead Elementary School,P.o. Box 158 ,Dailey,26259,"P.o. Box 158 , Dailey, WV, 26259","-79.8990273, 38.7965659"
Randolph,Elkins Third Ward Elementary School,111 Nathan Street ,Elkins,26241,"111 Nathan Street , Elkins, WV, 26241","-79.8665769, 38.9336861"
Randolph,Randolph County Alternative Center,40 11th Street ,Elkins,26241,"40 11th Street , Elkins, WV, 26241","-79.8517502, 38.9194273"
Randolph,Beverly Elementary School,P.o. Box 209 ,Beverly,26253,"P.o. Box 209 , Beverly, WV, 26253",
Randolph,Tygarts Valley Middle/High School,10189 Seneca Trail,Mill Creek,26280,"10189 Seneca Trail, Mill Creek, WV, 26280","-79.9571776, 38.7535686"
Randolph,Harman Elementary/High School,Po Box 130 ,Harman,26270,"Po Box 130 , Harman, WV, 26270",
Randolph,Valley Head Elementary School,General Delivery ,Valley Head,26294,"General Delivery , Valley Head, WV, 26294",
Randolph,Midland Elementary School,150 Kennedy Drive ,Elkins,26241,"150 Kennedy Drive , Elkins, WV, 26241","-79.8479268, 38.8913564"
Randolph,George Ward Elementary School,P.o. Box 278 ,Mill Creek,26280,"P.o. Box 278 , Mill Creek, WV, 26280","-79.970507, 38.7290538"
Randolph,Randolph Technical Center,200 Kennedy Drive ,Elkins,26241,"200 Kennedy Drive , Elkins, WV, 26241","-79.8526851, 38.9431518"
Randolph,Jennings Randolph Elementary School,101 Scott Ford Road ,Elkins,26241,"101 Scott Ford Road , Elkins, WV, 26241","-79.8600443, 38.9131621"
Randolph,Elkins High School,100 Kennedy Drive ,Elkins,26241,"100 Kennedy Drive , Elkins, WV, 26241","-79.8479268, 38.8913564"
Randolph,Pickens Elementary/High School,One Panther Place ,Pickens,26230,"One Panther Place , Pickens, WV, 26230","-80.21465239999999, 38.6495602"
Ritchie,Ritchie County High School,107 Ritchie County School Rd ,Ellenboro,26346,"107 Ritchie County School Rd , Ellenboro, WV, 26346","-81.06347, 39.262663"
Ritchie,Smithville Elementary,P O Box 30 ,Smithville,26178,"P O Box 30 , Smithville, WV, 26178","-80.9539475, 39.0626312"
Ritchie,Harrisville Elementary,1201 E Main Street ,Harrisville,26362,"1201 E Main Street , Harrisville, WV, 26362","-81.044167, 39.213475"
Ritchie,Ritchie County Middle,105 Ritchie County School Rd ,Ellenboro,26346,"105 Ritchie County School Rd , Ellenboro, WV, 26346","-81.0641006, 39.2626941"
Ritchie,Creed Collins Elementary,512 Collins Avenue ,Pennsboro,26415,"512 Collins Avenue , Pennsboro, WV, 26415","-80.97206229999999, 39.286057"
Ritchie,Ellenboro Elementary,P O Box 219 ,Ellenboro,26346,"P O Box 219 , Ellenboro, WV, 26346",
Roane,Roane-Jackson Technical Center,9450 Spencer Rd,Leroy,25252,"9450 Spencer Rd, Leroy, WV, 25252","-81.561241, 38.822323"
Roane,Spencer Middle School,102 Chapman Avenue ,Spencer,25276,"102 Chapman Avenue , Spencer, WV, 25276","-81.35303189999999, 38.8048358"
Roane,Spencer Elementary School,85 Clay Road ,Spencer,25276,"85 Clay Road , Spencer, WV, 25276","-81.3501871, 38.79167990000001"
Roane,Geary Elementary School,P O Box 89 ,Left Hand,25251,"P O Box 89 , Left Hand, WV, 25251","-81.2353612, 38.6121233"
Roane,Roane County High,One Raider Way ,Spencer,25276,"One Raider Way , Spencer, WV, 25276","-81.3658834, 38.7738286"
Roane,Walton Elementary/Middle School,90 School Drive ,Walton,25286,"90 School Drive , Walton, WV, 25286","-81.40059769999999, 38.6338939"
Roane,Reedy Elementary School,Roosevelt St ,Reedy,25270,"Roosevelt St , Reedy, WV, 25270","-81.4287323, 38.9010358"
Summers,Grads, ,,0,,
Summers,Jumping Branch Elementary School,P O  Box 9 ,Jumping Branch,25969,"P O  Box 9 , Jumping Branch, WV, 25969","-80.9760556, 37.6856403"
Summers,Talcott Elementary School,P O  Box 140 ,Talcott,24981,"P O  Box 140 , Talcott, WV, 24981","-80.7542478, 37.6515095"
Summers,Summers County High School,One Bobcat Drive ,Hinton,25951,"One Bobcat Drive , Hinton, WV, 25951","-80.8881048, 37.7067055"
Summers,Summers Middle School,400 Temple St ,Hinton,25951,"400 Temple St , Hinton, WV, 25951","-80.88836409999999, 37.6745007"
Summers,Hinton Area Elementary School,121 Park Avenue ,Hinton,25951,"121 Park Avenue , Hinton, WV, 25951","-80.8915339, 37.670299"
Taylor,Anna Jarvis Elementary School,650 N. Pike Street ,Grafton,26354,"650 N. Pike Street , Grafton, WV, 26354","-80.0189517, 39.3474382"
Taylor,Taylor County Vocational Center,115 Luby St ,Grafton,26354,"115 Luby St , Grafton, WV, 26354","-80.033484, 39.3380085"
Taylor,Taylor County Middle School,"Rt. 2, Box 148a ",Grafton,26354,"Rt. 2, Box 148a , Grafton, WV, 26354",
Taylor,Flemington Elementary School,824 Simpson Rd,Flemington,26347,"824 Simpson Rd, Flemington, WV, 26347","-80.118652, 39.266854"
Taylor,Grafton High School,400 Riverside Drive ,Grafton,26354,"400 Riverside Drive , Grafton, WV, 26354","-80.0307385, 39.3395637"
Taylor,West Taylor Elementary School,200 Morrow Cross Rd,Flemington,26347,"200 Morrow Cross Rd, Flemington, WV, 26347","-80.153335, 39.322542"
Tucker,Tucker Valley Elementary Middle School,81 Tucker Valley Road ,Hambleton,26269,"81 Tucker Valley Road , Hambleton, WV, 26269","-79.6691316, 39.1022965"
Tucker,Tucker County High School,116 Mountain Lion Way ,Hambleton,26269,"116 Mountain Lion Way , Hambleton, WV, 26269","-79.58325789999999, 39.137539"
Tucker,Davis Thomas Elementary Middle School,100 Quail Ridge Rd Po Box 250,Thomas,26292,"100 Quail Ridge Rd Po Box 250, Thomas, WV, 26292","-79.4947356, 39.1432333"
Tyler,Tyler Consolidated Middle School,1993 Silver Knight Drive ,Sistersville,26175,"1993 Silver Knight Drive , Sistersville, WV, 26175","-80.8946742, 39.5206006"
Tyler,Arthur I Boreman Elementary School,P O Box 299 ,Middlebourne,26149,"P O Box 299 , Middlebourne, WV, 26149",
Tyler,Tyler Consolidated High School,1993 Silver Knight Drive ,Sistersville,26175,"1993 Silver Knight Drive , Sistersville, WV, 26175","-80.8946742, 39.5206006"
Tyler,Sistersville Elementary School,651 Terrace Circle ,Sistersville,26175,"651 Terrace Circle , Sistersville, WV, 26175","-81.00018779999999, 39.5549861"
Upshur,Washington District Elementary,"Hc36, Box 234 ",Buckhannon,26201,"Hc36, Box 234 , Buckhannon, WV, 26201",
Upshur,Rock Cave Elementary,Rt 2 Box 2f Po Box 130,Rock Cave,26201,"Rt 2 Box 2f Po Box 130, Rock Cave, WV, 26201",
Upshur,French Creek Elementary,"Rt.2, Box 305 ",French Creek,26218,"Rt.2, Box 305 , French Creek, WV, 26218","-80.290577, 38.8909929"
Upshur,Buckhannon Upshur High School,50 B.u. Drive ,Buckhannon,26201,"50 B.u. Drive , Buckhannon, WV, 26201","-80.243167, 38.95117580000001"
Upshur,Union Elementary School,20 Heavener Grove Road ,Buckhannon,26201,"20 Heavener Grove Road , Buckhannon, WV, 26201","-80.1727422, 38.9711452"
Upshur,Tennerton Elementary,"Route 6, Box 513 ",Buckhannon,26201,"Route 6, Box 513 , Buckhannon, WV, 26201","-80.23098209999999, 38.9721996"
Upshur,Hodgesville Elementary,"Rt.5, Box 383 ",Buckhannon,26201,"Rt.5, Box 383 , Buckhannon, WV, 26201",
Upshur,Buckhannon Academy Elementary School,16 College Avenue ,Buckhannon,26201,"16 College Avenue , Buckhannon, WV, 26201","-80.2248877, 38.9867716"
Upshur,Fred Eberle Technical Center,RR 5 Box 2,Buckhannon,26201,"RR 5 Box 2, Buckhannon, WV, 26201",
Upshur,B-U Middle School,"Rt. 6, Box 303 ",Buckhannon,26201,"Rt. 6, Box 303 , Buckhannon, WV, 26201","-80.2312688, 38.9708209"
Wayne,Tolsia High School,#1 Rebel Drive ,Fort Gay,25514,"#1 Rebel Drive , Fort Gay, WV, 25514","-82.5002319, 38.0008076"
Wayne,Genoa Elementary School,21269 Rt 152 Road ,Genoa,25517,"21269 Rt 152 Road , Genoa, WV, 25517","-82.4629166, 38.1273332"
Wayne,Vinson Middle School,3851 Piedmont Road ,Huntington,25704,"3851 Piedmont Road , Huntington, WV, 25704","-82.51103599999999, 38.399288"
Wayne,Buffalo Elementary School,331 Buffalo Creek Road ,Kenova,25530,"331 Buffalo Creek Road , Kenova, WV, 25530","-82.515923, 38.349362"
Wayne,Ceredo-Kenova Middle School,P.o. Box 705 4th St. West And High St,Ceredo,25507,"P.o. Box 705 4th St. West And High St, Ceredo, WV, 25507","-82.5872969, 38.4186202"
Wayne,East Lynn Elementary School,19594 East Lynn Road,East Lynn,25512,"19594 East Lynn Road, East Lynn, WV, 25512","-82.383404, 38.162494"
Wayne,Prichard Elementary School,500 Prichard Rd.,Prichard,25555,"500 Prichard Rd., Prichard, WV, 25555","-82.5986676, 38.2404138"
Wayne,Spring Valley High School,#1 Timberwolf Drive ,Huntington,25704,"#1 Timberwolf Drive , Huntington, WV, 25704","-82.527402, 38.378617"
Wayne,Kellogg Elementary School,4415 Piedmont Road ,Huntington,25704,"4415 Piedmont Road , Huntington, WV, 25704","-82.517957, 38.397215"
Wayne,Crum Pre K-8,150 Crum Road,Crum,25669,"150 Crum Road, Crum, WV, 25669","-82.448047, 37.906487"
Wayne,Wayne High School,100 Pioneer Road ,Wayne,25570,"100 Pioneer Road , Wayne, WV, 25570","-82.434381, 38.246841"
Wayne,Dunlow Elementary School,32800 Route 152,Dunlow,25511,"32800 Route 152, Dunlow, WV, 25511","-82.4331737, 38.0271515"
Wayne,Fort Gay PreK - 8,#1 Viking Drive,Fort Gay,25514,"#1 Viking Drive, Fort Gay, WV, 25514","-82.5917223, 38.1145716"
Wayne,Wayne Middle School,200 Pioneer Road ,Wayne,25570,"200 Pioneer Road , Wayne, WV, 25570","-82.434968, 38.245076"
Wayne,Buffalo Middle School,298 Buffalo Creek Road ,Kenova,25530,"298 Buffalo Creek Road , Kenova, WV, 25530","-82.513109, 38.348204"
Wayne,Wayne Elementary School,80 McGinnis Drive,Wayne,25570,"80 McGinnis Drive, Wayne, WV, 25570","-82.429165, 38.254347"
Wayne,Lavalette Elementary School,P.o. Box 380 ,Lavalette,25535,"P.o. Box 380 , Lavalette, WV, 25535","-82.4494931, 38.3233683"
Wayne,Ceredo-Kenova Elementary,1 Wonders Lane,Kenova,25530,"1 Wonders Lane, Kenova, WV, 25530","-82.569, 38.3995854"
Webster,Glade Middle School,25 Mill Street ,Cowen,26206,"25 Mill Street , Cowen, WV, 26206","-80.555126, 38.407934"
Webster,Hacker Valley Elementary School,11 School Loop Road ,Hacker Valley,26222,"11 School Loop Road , Hacker Valley, WV, 26222","-80.3876298, 38.6530821"
Webster,Diana Elementary School,Po Box 90 ,Diana,26217,"Po Box 90 , Diana, WV, 26217",
Webster,Webster County High School,One Highlander Drive ,Upperglade,26266,"One Highlander Drive , Upperglade, WV, 26266","-80.506872, 38.4061028"
Webster,Webster Springs Elementary School,318 River Drive ,Webster Springs,26288,"318 River Drive , Webster Springs, WV, 26288","-80.4113582, 38.4741449"
Webster,Glade Elementary School,25 Mill St. ,Cowen,26206,"25 Mill St. , Cowen, WV, 26206","-80.555126, 38.407934"
Wetzel,Valley High School,One Lumberjack Lane ,Pine Grove,26419,"One Lumberjack Lane , Pine Grove, WV, 26419","-80.6772644, 39.5641231"
Wetzel,Magnolia High School,601 Maple Avenue ,New Martinsville,26155,"601 Maple Avenue , New Martinsville, WV, 26155","-80.8606265, 39.6461944"
Wetzel,Wetzel Co. Ctr. For Children & Families,Rr2 Box 107 ,New Martinsville,26155,"Rr2 Box 107 , New Martinsville, WV, 26155","-80.85759929999999, 39.6445214"
Wetzel,Paden City Elementary School,510 N Second Avenue ,Paden City,26159,"510 N Second Avenue , Paden City, WV, 26159","-80.92624289999999, 39.6103016"
Wetzel,Long Drain School,Rt 1 Box 108-A ,Metz,26585,"Rt 1 Box 108-A , Metz, WV, 26585",
Wetzel,Paden City High School,201 N Fourth Avenue ,Paden City,26159,"201 N Fourth Avenue , Paden City, WV, 26159","-80.9313264, 39.6052878"
Wetzel,Hundred High School,P O  Box 830 ,Hundred,26575,"P O  Box 830 , Hundred, WV, 26575",
Wetzel,Short Line School,Hc 60 Box 170 ,Reader,26167,"Hc 60 Box 170 , Reader, WV, 26167",
Wetzel,New Martinsville School,20 E Benjamin Drive ,New Martinsville,26155,"20 E Benjamin Drive , New Martinsville, WV, 26155","-80.84743019999999, 39.6791762"
Wirt,Wirt County High School,P O Box 219 ,Elizabeth,26143,"P O Box 219 , Elizabeth, WV, 26143",
Wirt,Wirt County Primary Center,P O  Box 220 ,Elizabeth,26143,"P O  Box 220 , Elizabeth, WV, 26143","-81.3922736, 39.0577083"
Wirt,Wirt County Middle School,P O Box 699 ,Elizabeth,26143,"P O Box 699 , Elizabeth, WV, 26143",
Wood,Trek Center,615 Broadway Ave ,Parkersburg,26101,"615 Broadway Ave , Parkersburg, WV, 26101","-81.5322578, 39.24424279999999"
Wood,Worthington Elementary School,2500 36th St ,Parkersburg,26104,"2500 36th St , Parkersburg, WV, 26104","-81.5153516, 39.2848362"
Wood,Greenmont Elementary School,209 58th St ,Vienna,26105,"209 58th St , Vienna, WV, 26105","-81.5397113, 39.3470656"
Wood,Parkersburg South High School,1511 Blizzard Dr ,Parkersburg,26101,"1511 Blizzard Dr , Parkersburg, WV, 26101","-81.54899569999999, 39.2436853"
Wood,Waverly Elementary School,422 Virginia St ,Waverly,26184,"422 Virginia St , Waverly, WV, 26184","-81.3838896, 39.3383318"
Wood,Fairplains Elementary School,615 Broadway Ave ,Parkersburg,26101,"615 Broadway Ave , Parkersburg, WV, 26101","-81.5322578, 39.24424279999999"
Wood,Van Devender Middle School,918 31st St ,Parkersburg,26104,"918 31st St , Parkersburg, WV, 26104","-81.54256459999999, 39.2869681"
Wood,Neale Elementary School,2305 Grand Central Ave ,Vienna,26105,"2305 Grand Central Ave , Vienna, WV, 26105","-81.5522914, 39.3223417"
Wood,Criss Elementary School,2800 22nd St ,Parkersburg,26101,"2800 22nd St , Parkersburg, WV, 26101","-81.5203902, 39.2704223"
Wood,Hamilton Middle School,3501 Cadillac Dr ,Parkersburg,26104,"3501 Cadillac Dr , Parkersburg, WV, 26104","-81.52201269999999, 39.2854332"
Wood,Mckinley Elementary School,1130 19th St ,Parkersburg,26101,"1130 19th St , Parkersburg, WV, 26101","-81.5446396, 39.2755704"
Wood,Blennerhassett Middle School,444 Jewel Rd ,Parkersburg,26101,"444 Jewel Rd , Parkersburg, WV, 26101","-81.61664789999999, 39.2593596"
Wood,Lubeck Elementary School,206 Lubeck Rd ,Parkersburg,26101,"206 Lubeck Rd , Parkersburg, WV, 26101","-81.5758148, 39.2520517"
Wood,Wood Co Voc Tech Ctr,1515 Blizzard Dr ,Parkersburg,26101,"1515 Blizzard Dr , Parkersburg, WV, 26101","-81.549307, 39.2421793"
Wood,Franklin Elementary Center,1511 Division St Ext ,Parkersburg,26101,"1511 Division St Ext , Parkersburg, WV, 26101","-81.55460339999999, 39.2432678"
Wood,Jefferson Elementary Center,1103 Plum St ,Parkersburg,26101,"1103 Plum St , Parkersburg, WV, 26101","-81.5419015, 39.266261"
Wood,Williamstown High School,219 W 5th St ,Williamstown,26187,"219 W 5th St , Williamstown, WV, 26187","-81.4517356, 39.4007652"
Wood,Williamstown Elementary School,418 Williams Ave ,Williamstown,26187,"418 Williams Ave , Williamstown, WV, 26187","-81.4537335, 39.4017671"
Wood,Gihon Elementary School,2000 Belmont Rd ,Parkersburg,26101,"2000 Belmont Rd , Parkersburg, WV, 26101","-81.55154739999999, 39.2379253"
Wood,Parkersburg High School,2101 Dudley Ave ,Parkersburg,26101,"2101 Dudley Ave , Parkersburg, WV, 26101","-81.54482879999999, 39.2785727"
Wood,Vienna Elementary School,700 41st St ,Vienna,26105,"700 41st St , Vienna, WV, 26105","-81.5425142, 39.3313719"
Wood,Emerson Elementary School,1605 36th St ,Parkersburg,26101,"1605 36th St , Parkersburg, WV, 26101","-81.5287, 39.2875325"
Wood,Jackson Middle School,1601 34th St ,Vienna,26105,"1601 34th St , Vienna, WV, 26105","-81.5389659, 39.325156"
Wood,Mineral Wells Elementary School,1776 Elizabeth Pike ,Mineral Wells,26150,"1776 Elizabeth Pike , Mineral Wells, WV, 26150","-81.51349859999999, 39.1775811"
Wood,Blennerhassett Elementary School,448 Jewel Rd ,Parkersburg,26101,"448 Jewel Rd , Parkersburg, WV, 26101","-81.6160094, 39.2596302"
Wood,Edison Middle School,1201 Hillcrest St ,Parkersburg,26101,"1201 Hillcrest St , Parkersburg, WV, 26101","-81.5323006, 39.2315501"
Wood,Madison Elementary School,1426 32nd St ,Parkersburg,26101,"1426 32nd St , Parkersburg, WV, 26101","-81.53367229999999, 39.2835457"
Wood,Caperton Center For Applied Technology,300 Campus Dr ,Parkersburg,26101,"300 Campus Dr , Parkersburg, WV, 26101","-81.5069961, 39.2165703"
Wood,Martin Elementary School,1301 Hillcrest St ,Parkersburg,26101,"1301 Hillcrest St , Parkersburg, WV, 26101","-81.533856, 39.2322512"
Wood,Kanawha Elementary School,6465 Staunton Tpke ,Davisville,26142,"6465 Staunton Tpke , Davisville, WV, 26142","-81.4610269, 39.199402"
Wyoming,Berlin Mckinney Elementary School,Hc 65  Box 402 405 Cook Parkway,Oceana,24870,"Hc 65  Box 402 405 Cook Parkway, Oceana, WV, 24870",
Wyoming,Pineville Middle School,Po Box 470 607 River Road,Pineville,24874,"Po Box 470 607 River Road, Pineville, WV, 24874","-81.53475399999999, 37.5792"
Wyoming,Mullens Middle School,801 Moran Avenue ,Mullens,25882,"801 Moran Avenue , Mullens, WV, 25882","-81.37548819999999, 37.588754"
Wyoming,Pineville Elementary School,"Po Box 700, 541 River Road",Pineville,24874,"Po Box 700, 541 River Road, Pineville, WV, 24874","-81.53475399999999, 37.5792"
Wyoming,Huff Cons Elementary & Middle School,"374 Lizard Creek Rd, Drawer E",Hanover,24839,"374 Lizard Creek Rd, Drawer E, Hanover, WV, 24839","-81.8068693, 37.5856022"
Wyoming,Wyoming County Career & Technical Center,"Hcr 72 Box 200, 1201 Bear Hole Road",Pineville,24874,"Hcr 72 Box 200, 1201 Bear Hole Road, Pineville, WV, 24874",
Wyoming,Glen Fork Elementary & Middle School,Po Box 50 111 Glen Fork Hollow Road,Glen Fork,25845,"Po Box 50 111 Glen Fork Hollow Road, Glen Fork, WV, 25845","-81.5308204, 37.6976706"
Wyoming,Wyoming County East High School,"PO Box 390, 260 Warrior Way",New Richmond,24867,"PO Box 390, 260 Warrior Way, New Richmond, WV, 24867","-81.4709693, 37.570262"
Wyoming,Baileysville Elementary & Middle School,Drawer 409 11618 R.d. Bailey Highway,Brenton,24818,"Drawer 409 11618 R.d. Bailey Highway, Brenton, WV, 24818","-81.67291349999999, 37.5898502"
Wyoming,Oceana Middle School,Hc 65  Box 403 309 Cook Parkway,Oceana,24870,"Hc 65  Box 403 309 Cook Parkway, Oceana, WV, 24870",
Wyoming,Road Branch Elementary & Middle School,"1165 Huff Creek Road, HC 80 Box 422",Cyclone,24827,"1165 Huff Creek Road, HC 80 Box 422, Cyclone, WV, 24827","-81.6709953, 37.7531799"
Wyoming,Mullens Elementary School,2107 Caloric Road ,Mullens,25882,"2107 Caloric Road , Mullens, WV, 25882","-81.3800359, 37.6001498"
Wyoming,Herndon Cons Elementary & Middle School,Po Box 309 4456 Herndon Road,Bud,24716,"Po Box 309 4456 Herndon Road, Bud, WV, 24716","-81.3713247, 37.5259596"
Wyoming,Westside High School,Hc 65  Box 275 122 Renegade Road,Clear Fork,24822,"Hc 65  Box 275 122 Renegade Road, Clear Fork, WV, 24822",
