"type","county","name","address","city","zip","zip4","phone","fax","url","grades"
"ADMINISTRATIVE","Barbour","Barbour County Schools","45 School Street","Philippi","26416","","4573030","4573559","http://www.wvschools.com/barbourcountyschools/",""
"PUBLIC","Barbour","Philip Barbour High School Complex","99 Horseshoe Drive ","Philippi","26416","","4571360","4572658","http://pbhs.barb.k12.wv.us","PK12"
"PUBLIC","Barbour","Belington Middle School","Rr 2 Box 343 ","Belington","26250","","8231281","8232403","http://www.wvschools.com/bms","0608"
"PUBLIC","Barbour","Philippi Head Start","Chestnut Street ","Philippi","26416","","4572181","","",""
"PUBLIC","Barbour","Junior Elementary","415 First Street ","Junior","26275","","8231200","8232895","","PK05"
"PUBLIC","Barbour","Kasson Elementary/Middle School","Rt. 1 Box 233a ","Moatsville","26405","","4571485","4576186","","PK08"
"NON-PUBLIC","Barbour","Feed My Sheep","Rr 3 Box 278-A ","Philippi","26416","","4571135","","",""
"PUBLIC","Barbour","Philippi Middle School","Rt 3 Box 40 ","Philippi","26416","","4572999","4572561","","0608"
"PUBLIC","Barbour","Belington Head Start","25 Horseshoe Drive ","Philippi","26416","","8232315","","",""
"PUBLIC","Barbour","Philippi Elementary School","Route 3 Box 38 ","Philippi","26416","","4574229","4572287","","PK05"
"PUBLIC","Barbour","Belington Elementary","Rr 2 Box 344 ","Belington","26250","","8231411","8232414","http://www.wvschools.com/bes/","PK05"
"PUBLIC","Berkeley","Rosemont Elementary School","301 South Alabama Avenue ","Martinsburg","25401","","2673560","2633838","http://boe.berk.k12.wv.us/bcschools/s211/","PK03"
"ADMINISTRATIVE","Berkeley","Berkeley County Schools","401 S. Queen Street","Martinsburg","25401","","2673500","2673524","http://www.berkeleycountyschools.org",""
"PUBLIC","Berkeley","James Rumsey Technical Institute","3274 Hedgesville Road ","Martinsburg","25403","","7547925","7547933","http://jrti.berk.tec.wv.us/",""
"PUBLIC","Berkeley","Mountain Ridge Intermediate","2691 Gerrardstown Road ","Gerrardstown","25420","","2296791","2296914","","0305"
"PUBLIC","Berkeley","Marlowe Elementary School","9580 Williamsport Pike ","Falling Waters","25419","","2742291","2748939","http://boe.berk.k12.wv.us/bcschools/s209/","PK02"
"PUBLIC","Berkeley","Musselman High School","126 Excellence Way ","Inwood","25428","","2291950","2291959","http://boe.berk.k12.wv.us/BCSchools/s503/","0912"
"PUBLIC","Berkeley","Eagle School Intermediate","730 Eagle School Road ","Martinsburg","25404","","2630422","2636506","","0305"
"PUBLIC","Berkeley","Hedgesville Elementary School","88 School House Drive ","Hedgesville","25427","","7543341","7546660","http://boe.berk.k12.wv.us/bcschools/s207/","PK02"
"NON-PUBLIC","Berkeley","Saint Joseph Parish School","110 East Stephen Street ","Martinsburg","25401","","2676447","2676573","http://www.stjosephparishschool.us",""
"PUBLIC","Berkeley","Hedgesville High School","109 Ridge Road North ","Hedgesville","25427","","7543354","7547445","http://boe.berk.k12.wv.us/bcschools/s501/","0912"
"PUBLIC","Berkeley","Potomack Intermediate School","5308 Williamsport Pike ","Martinsburg","25404","","2746592","2746876","http://boe.berk.k12.wv.us/bcschools/s216/","0305"
"PUBLIC","Berkeley","Burke Street Elementary School","422 West Burke Street ","Martinsburg","25401","","2673525","2673527","http://boe.berk.k12.wv.us/bcschools/s205/","PK03"
"NON-PUBLIC","Berkeley","Eastern Panhandle Christian Academy","P O Box 590 ","Inwood","25428","","2292210","","",""
"PUBLIC","Berkeley","Musselman Middle School","105 Pride Avenue ","Bunker Hill","25413","","2291965","2291967","http://boe.berk.k12.wv.us/bcschools/s304/","0608"
"PUBLIC","Berkeley","Winchester Avenue Elementary School","650 Winchester Avenue ","Martinsburg","25401","","2673570","2673572","http://boe.berk.k12.wv.us/bcschools/s214/","PK03"
"PUBLIC","Berkeley","Berkeley Heights Elementary School","726 Hack Wilson Way ","Martinsburg","25401","","2673520","2633798","http://boe.berk.k12.wv.us/bcschools/s203/","PK03"
"NON-PUBLIC","Berkeley","Martinsburg Christian Academy","2247 Williamsport Pike ","Martinsburg","25404","","2676368","2630287","",""
"PUBLIC","Berkeley","Martinsburg North Middle School","250 East Road ","Martinsburg","25404","","2673540","2645066","http://boe.berk.k12.wv.us/bcschools/s302/","0608"
"PUBLIC","Berkeley","Tuscarora Elementary School","2000 Tavern Road ","Martinsburg","25401","","2673565","2645059","http://boe.berk.k12.wv.us/bcschools/s212/","PK02"
"PUBLIC","Berkeley","Back Creek Valley Elementary School","1962 Back Creek Valley Road ","Hedgesville","25427","","2291975","2291978","http://boe.berk.k12.wv.us/bcschools/s201/","PK02"
"PUBLIC","Berkeley","Mountain Ridge Middle School","2771 Gerrardstown Road","Gerrardstown","25420","","","","",""
"NON-PUBLIC","Berkeley","Various Home School Residences","C/O Berkeley County Bd. Of Ed. 401 S. Queen St.","Martinsburg","25401","","2673500","","",""
"PUBLIC","Berkeley","Spring Mills Primary","401 Campus Drive ","Martinsburg","25404","","","","","PK02"
"PUBLIC","Berkeley","Opequon Elementary School","395 East Road ","Martinsburg","25404","","2673550","2673552","http://boe.berk.k12.wv.us/bcschools/s210/","PK02"
"PUBLIC","Berkeley","Pikeside Learning Center","3635 Winchester Ave ","Martinsburg","25405","","2673555","2673557","http://boe.berk.k12.wv.us/bcschools/s602/",""
"PUBLIC","Berkeley","Orchard View Intermediate School","1455 Delmar Orchard Rd ","Martinsburg","25403","","2634143","2634148","","0405"
"PUBLIC","Berkeley","Inwood Primary School","7864 Winchester Ave ","Inwood","25428","","2291990","2291992","http://boe.berk.k12.wv.us/bcschools/s208/","PK03"
"PUBLIC","Berkeley","Martinsburg High School","701 South Queen Street ","Martinsburg","25401","","2673530","2673536","http://168.216.142.69/bcschools/s502/","0912"
"PUBLIC","Berkeley","Mill Creek Intermediate School","8785 Winchester Avenue ","Bunker Hill","25413","","2294570","2294793","http://boe.berk.k12.wv.us/bcschools/s217/","0405"
"PUBLIC","Berkeley","Gerrardstown Elementary School","15 Dominion Road ","Gerrardstown","25420","","2291985","2291988","http://boe.berk.k12.wv.us/bcschools/s206/","PK02"
"NON-PUBLIC","Berkeley","Morgan Academy","P.o. Box 1281 ","Shepherdstown","25443","","2620188","","",""
"PUBLIC","Berkeley","Spring Mills Middle School","255 Campus Drive ","Martinsburg","25404","","2745030","2743598","","0608"
"PUBLIC","Berkeley","Spring Mills High School","499 Campus Drive","Martinsburg","25404","","2745141","2745144","",""
"PUBLIC","Berkeley","Tomahawk Intermediate School","6665 Hedgesville Road ","Hedgesville","25427","","7543171","7543201","http://168.216.142.69/bcschools/s215/","0305"
"PUBLIC","Berkeley","Bunker Hill Elementary School","58 Happy School Avenue ","Bunker Hill","25413","","2291980","2291983","http://boe.berk.k12.wv.us/bcschools/s204/","PK03"
"NON-PUBLIC","Berkeley","Rocky Knoll Seventh-Day Adventist School","52 Advent Drive ","Martinsburg","25403","","2639894","2639894","http://www.rockyknollsdaschool.org",""
"PUBLIC","Berkeley","Martinsburg South Middle School","150 Bulldog Boulevard ","Martinsburg","25401","","2673545","2645062","http://boe.berk.k12.wv.us/bcschools/s303/","0608"
"PUBLIC","Berkeley","Valley View Elementary School","140 Nadenbousch Lane ","Martinsburg","25405","","2291970","2291973","http://168.216.142.69/bcschools/s213/menu1.htm","PK03"
"PUBLIC","Berkeley","Bedington Elementary School","149 Bedington Road ","Martinsburg","25404","","2742535","2743957","http://boe.berk.k12.wv.us/bcschools/s202/","PK02"
"NON-PUBLIC","Berkeley","Faith Christian Academy","138 Greensburg Rd. ","Martinsburg","25404","","2630011","2670638","http://www.faithchristianacademy.net",""
"PUBLIC","Berkeley","Hedgesville Middle School","334 School House Drive ","Hedgesville","25427","","7543313","7546613","http://boe.berk.k12.wv.us/bcschools/s301/","0608"
"PUBLIC","Boone","Sherman High School","10008 Coal River Road Po Box Ab","Seth","25181","","8373301","8377529","http://www.shermanhigh.com","0912"
"PUBLIC","Boone","Jeffrey-Spencer Elementary","3277 Hewett Creek Road Po Box 319","Hewett","25108","","3691342","3691345","http://www.quicksitebuilder.cnet.com/jeffreyspencerel/","PK05"
"PUBLIC","Boone","Sherman Junior High School","9846 Coal River Road Po Box Aa","Seth","25181","","8373694","8377603","http://www.wvschools.com/sjhs","0708"
"PUBLIC","Boone","Whitesville Elementary School","37949 Coal River Road Hc82, Box 265","Whitesville","25209","476","8541301","8541301","http://www.members.tripod.com/wejhs/","PK06"
"PUBLIC","Boone","Brookview Elementary","1 Learning Way ","Foster","25081","","3691012","3691054","http://www.citynet.net/boonecountyschools/brookview/","PK05"
"PUBLIC","Boone","Wharton Elementary","36071 Pond Fork Road Po Box 60","Wharton","25208","","2476672","2476676","http://www.geocities.com/whartongrade/","PK05"
"NON-PUBLIC","Boone","Christian Faith Academy","Rt. 85, Box 10 ","Van","0","","2455711","","",""
"PUBLIC","Boone","Ramage Elementary","15908 Spruce River Road Rt 1, Box 293","Danville","25053","","3690763","3690765","http://www.geocities.com/rams25053/","PK05"
"PUBLIC","Boone","Van Junior/Senior High School","913 Van High School Road Po Box 100","Van","25206","","2458237","2458695","http://vhs.boon.k12.wv.us/","0612"
"PUBLIC","Boone","Madison Elementary","150 Josephine Avenue ","Madison","25130","","3692241","3692869","http://www.madisonelementary.org","PK05"
"PUBLIC","Boone","Scott High School","1 Skyhawk Place ","Madison","25130","","3693011","3696564","http://www.scotthighskyhawks.com","0912"
"PUBLIC","Boone","Ashford-Rumble Elementary","1649 Ashford Nellis Road ","Ashford","25009","540","8365381","8365381","http://www.geocities.com/webashford/","0K06"
"PUBLIC","Boone","Madison Middle School","404 Riverside Dr-W ","Madison","25130","","3694464","3695800","http://madisonms.bcsd.wv.yso.lightspan.net","0608"
"ADMINISTRATIVE","Boone","Boone County Schools","69 Avenue B","Madison","25130","","3693131","3690855","http://www.boonecountyboe.org",""
"PUBLIC","Boone","Sherman Elementary School","7487 Coal River Road Po Box 369","Comfort","25049","369","8378310","8378342","http://www.geocities.com/Athens/Acropolis/7973/","PK06"
"PUBLIC","Boone","Van Elementary","338 Van High School Road Po Box 360","Van","25206","","2458811","2458811","http://www.angelfire.com/wv2/vanelementary/","0K05"
"PUBLIC","Boone","Boone Career-Technical Center","3505 Daniel Boone Pkwy-Suite B Hc81, Box 50-B","Danville","25053","","3694585","3693692","http://boonecareercenter.com",""
"PUBLIC","Boone","Nellis Elementary","179 Memorial Drive,1 School St Box 135","Nellis","25142","","8365281","8365281","http://www.geocities.com/nelliselementary/","PK06"
"PUBLIC","Braxton","Braxton County Middle School","100 Carter Braxton Drive ","Sutton","26601","","7652644","7652696","http://boe.brax.k12.wv.us/schools/BCMSFrm.htm","0708"
"PUBLIC","Braxton","Little Birch Elementary School","55 Little Birch Road","Sutton","26601","","7652042","7652042","http://boe.brax.k12.wv.us/schools/LittleBirchFrm.htm","PK06"
"PUBLIC","Braxton","Flatwoods Elementary School","Po Box 130 ","Flatwoods","26621","","7655821","7655851","http://boe.brax.k12.wv.us/schools/FlatwoodsFrm.htm","PK06"
"PUBLIC","Braxton","Burnsville Elementary School","Po Box 35 228 Kanawha Ave","Burnsville","26335","","8532523","8532431","http://boe.brax.k12.wv.us/schools/BurnsvilleFrm.htm","PK06"
"PUBLIC","Braxton","Braxton County High School","200 Jerry Burton Drive ","Sutton","26601","","7657331","7657976","http://boe.brax.k12.wv.us/schools/BCHSFrm.htm","0912"
"PUBLIC","Braxton","Sutton Elementary School","288 N Hill Road ","Sutton","26601","","7655202","7655547","http://boe.brax.k12.wv.us/schools/SuttonFrm.htm","PK06"
"PUBLIC","Braxton","Frametown Elementary School","Hc 61 Box 14 ","Frametown","26623","","3645526","3648620","http://boe.brax.k12.wv.us/schools/FrametownFrm.htm","PK06"
"PUBLIC","Braxton","Davis Elementary School","113 Fifth Street ","Gassaway","26624","","3645291","3648547","http://boe.brax.k12.wv.us/schools/DavisFrm.htm","PK06"
"ADMINISTRATIVE","Braxton","Braxton County Schools","98 Carter Braxton Drive","Sutton","26601","","7657101","7657148","http://boe.brax.k12.wv.us/",""
"PUBLIC","Brooke","Wellsburg Middle School","1447 Main Street ","Wellsburg","26070","","7372922","7372976","http://wms.broo.k12.wv.us","0508"
"PUBLIC","Brooke","Wellsburg Primary School","1448 Main Street ","Wellsburg","26070","","7370133","7370463","http://bhs.broo.k12.wv.us/Schools/Wellsburg Primary/index.htm","PK04"
"PUBLIC","Brooke","Jefferson Primary School","Jefferson Street ","Follansbee","26037","","5272250","5272014","http://bhs.broo.k12.wv.us/Schools/Jefferson Primary/index.htm","PK04"
"PUBLIC","Brooke","Franklin Primary School","1305 Washington Pike ","Wellsburg","26070","","7371760","7371760","http://bhs.broo.k12.wv.us/Schools/Franklin Primary/index.htm","0K04"
"PUBLIC","Brooke","Beech Bottom Primary","High Street ","Beech Bottom","26030","","3945341","3945342","http://bhs.broo.k12.wv.us/Schools/Beech Bottom Primary/index.htm","PK04"
"PUBLIC","Brooke","Brooke High School","R.d. 3, Box 610 Cross Creek Road","Wellsburg","26070","","5271410","5273604","http://bhs.broo.k12.wv.us/","PK12"
"PUBLIC","Brooke","Follansbee Middle School","1400 Main Street ","Follansbee","26037","","5271942","5271954","http://bhs.broo.k12.wv.us/Schools/Follansbee Middle School/index.","0508"
"PUBLIC","Brooke","Lauretta B Millsop Primary School","Legion & Swearingen ","Weirton","26062","","7487760","7488470","http://bhs.broo.k12.wv.us/Schools/Millsop Primary/index.htm","0K04"
"PUBLIC","Brooke","Hooverson Heights Primary School","200 Rockdale Road ","Follansbee","26037","","5270870","5272440","http://bhs.broo.k12.wv.us/Schools/Hooverson Heights Primary/index","0K04"
"PUBLIC","Brooke","Colliers Primary School","Penn Street ","Colliers","26035","","7488188","7977242","http://bhs.broo.k12.wv.us/Schools/Colliers Primary/index.htm","PK04"
"ADMINISTRATIVE","Brooke","Brooke County Schools","1201 Pleasant Avenue ","Wellsburg","26070","","7373481","7373480","http://Brooke.schoolwires.net",""
"PUBLIC","Cabell","Cabell County Career Technology Center","1035 Norway Ave ","Huntington","25705","","5285172","5285110","",""
"PUBLIC","Cabell","Village Of Barboursville Elementary Sch","718 Central Ave ","Barboursville","25504","","7333035","7333036","http://vbe.cabellschools.com/","PK05"
"PUBLIC","Cabell","Highlawn Elementary School","2549 1st Avenue ","Huntington","25703","","5285130","5285152","http://hes.cabellschools.com/","PK05"
"PUBLIC","Cabell","Huntington High School","1 Highlander Way ","Huntington","25701","","5286400","5286422","http://hhs.cabellschools.com/","0912"
"PUBLIC","Cabell","Spring Hill Elementary School","1901 Hall Avenue ","Huntington","25701","","5285175","5285177","http://she.cabellschools.com/","PK05"
"PUBLIC","Cabell","Geneva Kent Elementary School","68 Holley Avenue ","Huntington","25705","","5285126","5285150","http://boe.cabe.k12.wv.us/genevake/","PK05"
"NON-PUBLIC","Cabell","St. Joseph Grade School","520 13th St ","Huntington","25701","","5222644","","",""
"PUBLIC","Cabell","Alternative School","2800 5th Ave ","Huntington","25702","","5285060","","http://as.cabellschools.com/","0712"
"PUBLIC","Cabell","Peyton Elementary School","199 Rotary Rd ","Huntington","25705","","5285173","5285195","http://boe.cabe.k12.wv.us/peyton/","PK05"
"PUBLIC","Cabell","Culloden Elementary School","2100 U.s. Route 60 ","Culloden","25510","","7437301","7437306","http://ce.cabellschools.com/","PK05"
"NON-PUBLIC","Cabell","Covenant School","5800 E Us Rt 60 ","Huntington","25705","","","","http://www.covenantschoolwv.org",""
"PUBLIC","Cabell","Milton Middle School","1 Panther Trail ","Milton","25541","","7437308","7437324","http://mms.cabellschools.com/","0608"
"PUBLIC","Cabell","Nichols Elementary School","3505 Erwin Road ","Barboursville","25504","","7333031","7333054","http://nes.cabellschools.com/","PK05"
"PUBLIC","Cabell","Altizer Elementary School","250 Third Street, Altizer ","Huntington","25705","","5285100","5285148","http://ae.cabellschools.com/","PK05"
"NON-PUBLIC","Cabell","Pressley Ridge School","2580 Grant Garden Rd ","Ona","25545","","7434439","","",""
"PUBLIC","Cabell","Beverly Hills Middle School","2901 Saltwell Rd ","Huntington","25705","","5285102","5285197","http://boe.cabe.k12.wv.us/bhms/","0608"
"PUBLIC","Cabell","Meadows Elementary School","1601 Washington Blvd ","Huntington","25701","","5285166","5285153","http://meadows.cabellschools.com/","PK05"
"NON-PUBLIC","Cabell","Mountain State Christian School","1948 Martin Ln ","Culloden","25510","","7433751","","http://www.mscspanthers.org/",""
"PUBLIC","Cabell","Southside Elementary","200 Tenth Avenue ","Huntington","25701","","5285168","5285154","http://sse.cabellschools.com/","PK05"
"PUBLIC","Cabell","Hite Saunders Elementary School","3708 Green Valley Road ","Huntington","25701","","5285132","5285038","http://hses.cabellschools.com/","PK05"
"PUBLIC","Cabell","Cabell County Career Technology Center","1035 Norway Ave ","Huntington","25705","","5285172","5285110","http://ctc.cabellschools.com/",""
"PUBLIC","Cabell","Central City Elementary School","2100 Washington Ave ","Huntington","25704","","5285231","5285245","http://cce.cabellschools.com/","PK05"
"PUBLIC","Cabell","Guyandotte Elementary School","607 5th Ave Guy ","Huntington","25702","","5285128","5285151","http://ges.cabellschools.com/","PK05"
"NON-PUBLIC","Cabell","Our Lady Of Fatima","535 Norway Ave ","Huntington","25705","","5232861","","http://www.ourfatimafamily.com",""
"PUBLIC","Cabell","Cabell Midland High School","2300 Us Route 60 East ","Ona","25545","","7437400","7437577","http://cmhs.cabellschools.com/","0912"
"PUBLIC","Cabell","Salt Rock Elementary School","5570 Madison Creek Rd ","Salt Rock","25559","","7333037","7333060","http://sre.cabellschools.com/","PK05"
"PUBLIC","Cabell","Huntington East Middle School","2901 Saltwell Rd","Huntington","25705","","5289508","","http://hems.cabellschools.com/",""
"PUBLIC","Cabell","Davis Creek Elementary School","6330 Davis Creek Rd ","Barboursville","25504","","7333024","7333049","http://dce.cabellschools.com/","PK05"
"NON-PUBLIC","Cabell","St. Joseph Central Catholic High School","600 13th St ","Huntington","25701","","5255096","","http://www.stjosephhs.org",""
"PUBLIC","Cabell","Explorer Academy","68 Holley Ave","Huntington","25705","","5285126","5285150","http://ea.cabellschools.com/",""
"PUBLIC","Cabell","Huntington Middle School","925 Third Street ","Huntington","25701","","5285180","5285215","http://hms.cabellschools.com/","0608"
"PUBLIC","Cabell","Ona Elementary School","2701 Elementary Dr ","Ona","25545","","7437318","7437321","http://oes.cabellschools.com/","PK05"
"PUBLIC","Cabell","Cox Landing Elementary School","6358 Cox Lane ","Lesage","25537","","7333019","7333021","http://cle.cabellschools.com/","PK05"
"NON-PUBLIC","Cabell","Grace Christian School","1111 Adams Ave ","Huntington","25704","","5228635","","",""
"PUBLIC","Cabell","Enslow Middle School","2613 Collis Ave ","Huntington","25702","","5285121","5285097","http://boe.cabe.k12.wv.us/ems/","0609"
"PUBLIC","Cabell","Milton Elementary School","1201 Pike St. ","Milton","25541","","7437303","7437307","http://milton.cabellschools.com/","PK05"
"ADMINISTRATIVE","Cabell","Cabell County Schools","PO Box 446","Huntington","25702","","5285000","5285080","http://boe.cabe.k12.wv.us/",""
"NON-PUBLIC","Cabell","Cammack Children's Center","64 6th Ave W ","Huntington","25701","","5233497","","",""
"PUBLIC","Cabell","Barboursville Middle School","1400 Central Ave ","Barboursville","25504","","7333003","7333009","http://bms.cabellschools.com/","0608"
"PUBLIC","Cabell","Martha Elementary School","3067 Martha Road ","Barboursville","25504","","7333027","7333016","http://mes.cabellschools.com/","PK05"
"PUBLIC","Calhoun","Pleasant Hill School","3254 N Calhoun Hwy ","Grantsville","26147","7012","3546022","3546070","http://pleasanthill.calh.k12.wv.us","PK04"
"ADMINISTRATIVE","Calhoun","Calhoun County Schools","540 Alan B. Mollohan Dr.","Mt. Zion","26151","","3547011","3547420","http://www.edline.net/pages/Calhoun_CSD",""
"PUBLIC","Calhoun","Calhoun Middle/High School","50 Underwood Circle ","Mt. Zion","26151","","3546148","3547382","http://www.edline.net/pages/Calhoun_County_Middle_School","0512"
"PUBLIC","Calhoun","Arnoldsburg School","Post Office Box 159 ","Arnoldsburg","25234","","6558616","6558618","http://arnoldsburg.calh.k12.wv.us","PK04"
"PUBLIC","Calhoun","Calhoun-Gilmer Career Center","5260 E Little Kanawha Hwy","Grantsville","26147","","3546151","3546154","https://www.edline.net/pages/Calhoun_Gilmer_Center",""
"PUBLIC","Clay","Clay County High School","Po Box 729 1 Panther Drive","Clay","25043","","5874226","5872723","http://www.claycountyhighschool.org","0912"
"PUBLIC","Clay","Big Otter Elementary School","Po Box 100 59 Ossia Road","Ivydale","25113","","2863111","2863112","","PK05"
"PUBLIC","Clay","Lizemore Elementary School","Po Box 70 #1 Lizemore Street","Lizemore","25125","70","5874823","5872772","http://www.claycountyschools.org/Lizemore.htm","PK05"
"ADMINISTRATIVE","Clay","Clay County Schools","PO Box 120","Clay","25043","","5874266","5874181","http://claycountyschools.org",""
"NON-PUBLIC","Clay","Clay Christian Academy","P.o. Box 849 ","Clay","25043","","5872786","","",""
"PUBLIC","Clay","Clay Middle School","Po Box 489 419 Church Street","Clay","25043","","5872343","5872759","http://www.claycountyschools.org/CCMS.htm","0608"
"PUBLIC","Clay","H E White Elementary School","501 Bomont Road ","Bomont","25030","","5487101","5487101","http://www.claycountyschools.org/HE%20White.htm","PK05"
"PUBLIC","Clay","Clay Elementary School","Po Box 600 219 Church Street","Clay","25043","","5874276","5874279","http://www.claycountyschools.org/CES.htm","PK05"
"ADMINISTRATIVE","Doddridge","Doddridge County Schools","1117 WV RT 18N","West Union","26456","","8732300","8732210","http://www.dcschools.us",""
"PUBLIC","Doddridge","Doddridge County Preschool Center","2945 Smithton Road","West Union","26426","","8733955","8733956","http://www.dcschools.us/doddridgecountypreschool_home.aspx",""
"PUBLIC","Doddridge","Doddridge County High School","79 Bulldog Drive ","West Union","26456","","8732521","8731873","http://www.dcschools.us/doddridgecountyhighschool_home.aspx","0912"
"PUBLIC","Doddridge","Doddridge County Elementary School","182 Doddridge School Road","West Union","26456","","8733294","8733297","http://www.dcschools.us/doddridgecountyelementaryschool_home.aspx","PK04"
"NON-PUBLIC","Doddridge","Mountain State Academy","Rr 2 Box 193-2 ","Salem","26426","","7821531","7823800","",""
"PUBLIC","Doddridge","Doddridge County Middle School","65 Doddridge School Road","West Union","26456","","8732390","8732541","http://www.dcschools.us/doddridgecountymiddleschool_home.aspx","0508"
"PUBLIC","Fayette","Meadow Bridge Elementary","2725 Main Street ","Meadow Bridge","25976","","4847914","4847599","http://meadowbridge.faye.k12.wv.us/","PK06"
"PUBLIC","Fayette","Midland Trail High","Po Box 89 Rt 60-E","Hico","25854","","6585184","6585185","http://mths.faye.k12.wv.us/","0912"
"PUBLIC","Fayette","Gatewood Elementary","5094 Gatewood Road ","Fayetteville","25840","","5742025","","http://gatewood.faye.k12.wv.us/","PK04"
"PUBLIC","Fayette","Fayetteville High","515 West Maple Avenue ","Fayetteville","25840","","5740560","5740118","http://fhs.faye.k12.wv.us","0712"
"PUBLIC","Fayette","Divide Elementary","Po Box 180 ","Lookout","25868","","5741443","5740693","http://divide.faye.k12.wv.us/","PK05"
"NON-PUBLIC","Fayette","Saints Peter & Paul Elementary School","123 Elmore Street ","Oak Hill","25901","","4655045","","",""
"PUBLIC","Fayette","Ansted Middle","Po Box 766 ","Ansted","25812","","6585170","","http://ams.faye.k12.wv.us/","0608"
"ADMINISTRATIVE","Fayette","Fayette County Schools","111 Fayette Avenue ","Fayetteville","25840","1299","5741176","5743643","http://boe.faye.k12.wv.us/",""
"NON-PUBLIC","Fayette","Mountain View Christian School","Po Box 1246 ","Oak Hill","25901","","4650502","","",""
"PUBLIC","Fayette","Valley Elementary","Po Box 215 ","Smithers","25186","","4422321","4422337","","PK05"
"PUBLIC","Fayette","Fayette Institute Of Technology","300 West Oyler Avenue ","Oak Hill","25901","","4692911","4696963","http://fit.faye.tec.wv.us/",""
"PUBLIC","Fayette","Mount Hope Elementary","408 Lincoln Street ","Mount Hope","25880","","8772891","8776105","http://mounthope.faye.k12.wv.us/","PK05"
"PUBLIC","Fayette","Oak Hill High","350 West Oyler Avenue ","Oak Hill","25901","","4693551","4651769","http://ohhs.faye.k12.wv.us","0912"
"PUBLIC","Fayette","Gauley Bridge Elementary","Po Box 519 ","Gauley Bridge","25085","","6322661","","http://gauleybridge.faye.k12.wv.us/","PK05"
"PUBLIC","Fayette","Meadow Bridge High","2775 Main Street ","Meadow Bridge","25976","","4847917","","http://www.geocities.com/Athens/Academy/5856/","0712"
"PUBLIC","Fayette","Fayetteville Elementary","200 Wiseman Avenue ","Fayetteville","25840","","5741011","5741011","http://fayetteville.faye.k12.wv.us/","PK06"
"PUBLIC","Fayette","Collins Middle","601 Jones Avenue ","Oak Hill","25901","","4693711","4651352","http://cms.faye.k12.wv.us/","0508"
"PUBLIC","Fayette","Ansted Elementary","Po Box 609 ","Ansted","25812","","6585961","","http://ansted.faye.k12.wv.us","PK05"
"NON-PUBLIC","Fayette","Danese Christian School","Po Box 177 ","Danese","25831","","4388116","","",""
"PUBLIC","Fayette","New River Elementary","262 Oyler Avenue ","Oak Hill","25901","","4653806","","","PK04"
"NON-PUBLIC","Fayette","Boomer Christian Academy","Po Box 446 ","Boomer","25031","","4429867","","",""
"PUBLIC","Fayette","Rosedale Elementary","4001 Summerlee Rd ","Oak Hill","25901","","4696661","4693569","http://rosedale.faye.k12.wv.us/","PK04"
"PUBLIC","Fayette","Valley High School","Po Box 459 Greyhound Lane","Smithers","25186","","4428284","4425865","http://vhs.faye.k12.wv.us/","0612"
"ADMINISTRATIVE","Gilmer","Sand Fork Elementary","65 School House Hill , PO Box 260","Sand Fork","26430","","4627605","4625368","http://sandfork.gilmer.k12.wv.us/","PK06"
"ADMINISTRATIVE","Gilmer","Glenville Elementary School","454 Vanhorn Drive ","Glenville","26351","","4627338","4625108","http://glenville.gilmer.k12.wv.us/","PK06"
"PUBLIC","Gilmer","Calhoun-Gilmer Career Center","5260 East Little Kanawha Hwy","Grantsville","26147","","3546151","3546154","http://calhoun-k12.wvnet.edu/careercenter/2015/06/25/2014-2015-faculty-and-staff/",""
"ADMINISTRATIVE","Gilmer","Troy Elementary School","3093 WV Highway 47W ","Troy","26443","","4628655","4625132","http://troy.gilmer.k12.wv.us/","PK06"
"ADMINISTRATIVE","Gilmer","Normantown Elementary","10223 US Highway 33 West","Normantown","25267","","4628035","4625329","http://normantown.gilmer.k12.wv.us/","PK06"
"PUBLIC","Gilmer","Gilmer County Elementary School","99 Fairground Road","Glenville","26351","","4627338","4625108","http://gces.gilmer.k12.wv.us","PK06"
"ADMINISTRATIVE","Gilmer","Gilmer County Schools","454 Vanhorn Drive","Glenville","26351","","4627386","4625103","http://boe.gilmer.k12.wv.us/",""
"PUBLIC","Gilmer","Gilmer County High School","300 Pine Street ","Glenville","26351","","4627960","4628578","http://gchs.gilmer.k12.wv.us","0712"
"NON-PUBLIC","Grant","North Fork Christian","Hc59 Box 217 ","Petersburg","26847","","2579722","","",""
"PUBLIC","Grant","Petersburg High School","207 Jefferson Avenue ","Petersburg","26847","","2571444","2575243","http://petersburghigh.googlepages.com/","0712"
"PUBLIC","Grant","Maysville Elementary School","7147 Highway 42s ","Maysville","26833","","7497441","7497442","http://mww.grantcountyschools.com/grant9/web/","PK06"
"PUBLIC","Grant","Union Educational Complex","Hc 76 Box 750 ","Mount Storm","26839","","6937612","6937150","","PK12"
"NON-PUBLIC","Grant","Potter's House Christian School","1 Veach Street Petersburg, Wv  26847","","0","","2571740","","",""
"PUBLIC","Grant","South Branch Career & Technical Center","401 Pierpont Street ","Petersburg","26847","","2571331","2572270","http://southbranchtech.com",""
"PUBLIC","Grant","Petersburg Elementary School","333 Rig Street ","Petersburg","26847","","2571110","2579658","http://www.grantcountyschools.com/grant5","PK06"
"PUBLIC","Grant","Dorcas Elementary School","Hc 33 Box 1060 ","Petersburg","26847","","2571220","","http://teacherweb.com/WV/DorcasElementary/SchoolHomePage/S","0206"
"ADMINISTRATIVE","Grant","Grant County Schools","204 Jefferson Avenue ","Petersburg","26847","","2571011","","http://www.grantcountyschools.org",""
"NON-PUBLIC","Grant","Bmf Christian School","Hc33 Box 261 Petersburg, Wv  26847","","0","","2579716","","",""
"PUBLIC","Greenbrier","Ronceverte Elementary","246 Ronceverte Elementary School Drive","Ronceverte","24970","","6476480","6473086","http://ronceverte.greenbriercountyschools.org/","PK05"
"NON-PUBLIC","Greenbrier","Seneca Trail Christian Academy","Route 2 Box 269 ","Ronceverte","24970","","6474878","","",""
"PUBLIC","Greenbrier","Frankford Elementary","21692 Seneca Trail ","Frankford","24938","","4972921","4972963","http://fes.greenbriercountyschools.org/","PK05"
"NON-PUBLIC","Greenbrier","Lewisburg Baptist Academy","113 Montvue  Drive ","Lewisburg","24901","","6453797","","",""
"PUBLIC","Greenbrier","Smoot Elementary","General Delivery ","Smoot","24977","","3925295","3922152","http://ses.greenbriercountyschools.org/","PK05"
"PUBLIC","Greenbrier","Greenbrier West High School","Po Box 325 One Cavalier Drive","Charmco","25958","","4386191","4385865","http://gwhs.greenbriercountyschools.org/","0912"
"PUBLIC","Greenbrier","Rainelle Elementary","701 Kanawha Avenue ","Rainelle","25962","","4388861","4388875","http://rainelle.greenbriercountyschools.org/","PK05"
"PUBLIC","Greenbrier","Western Greenbrier Middle School","Hc 40 Box 14 ","Crawley","24931","","3926446","3926785","http://wgms.greenbriercountyschools.org/","0608"
"ADMINISTRATIVE","Greenbrier","Greenbrier County Schools","197 Chestnut Street ","Lewisburg","24901","","6476470","6476490","http://greenbriercountyschools.org/",""
"PUBLIC","Greenbrier","White Sulphur Elementary","150 Reed Street ","White Sulphur Springs","24986","","5362244","5361930","http://wsse.greenbriercountyschools.org/","PK05"
"NON-PUBLIC","Greenbrier","Greenbrier Episcopal School","10 Dry Creek Road ","White Sulphur Springs","24986","","5363636","","",""
"PUBLIC","Greenbrier","Lewisburg Elementary","206 North Lee Street ","Lewisburg","24901","","6476477","6474838","http://les.greenbriercountyschools.org/","PK05"
"NON-PUBLIC","Greenbrier","Renick Christian School","Hc 66 Box 291 ","Renick","24966","","4972581","","",""
"PUBLIC","Greenbrier","Alderson Elementary","Rr1 Box 162f ","Alderson","24910","","4457241","4459718","http://aes.greenbriercountyschools.org/","PK05"
"PUBLIC","Greenbrier","Greenbrier School Of Practical Nursing","One Spartan Lane ","Lewisburg","24901","","6476487","6476487","",""
"PUBLIC","Greenbrier","Rupert Elementary","Po Drawer D ","Rupert","25984","","3925235","3925234","http://rupert.greenbriercountyschools.org/","PK05"
"PUBLIC","Greenbrier","Greenbrier East High School","One Spartan Lane ","Lewisburg","24901","","6476464","6452698","http://gehs.greenbriercountyschools.org/","PK12"
"PUBLIC","Greenbrier","Crichton Elementary","Po Box 205 ","Quinwood","25981","","4386958","4385227","http://ces.greenbriercountyschools.org/","PK05"
"PUBLIC","Greenbrier","Eastern Greenbrier Middle School","Route 1 Box 150 ","Ronceverte","24970","","6476498","6473087","http://egms.greenbriercountyschools.org/","0608"
"NON-PUBLIC","Hampshire","Potomac Diagnostic And Training","Po Drawer H ","Romney","26757","","8223861","","",""
"ADMINISTRATIVE","Hampshire","Hampshire County Schools","111 School Street ","Romney","26757","","8223528","8225382","http://boe.hamp.k12.wv.us",""
"PUBLIC","Hampshire","Hampshire Senior High School","Hc 63, Box 1970 ","Romney","26757","","8225016","8225760","http://hhs.hamp.k12.wv.us/","0912"
"PUBLIC","Hampshire","Capon Bridge Middle School","Hc 71, Box 1001 ","Capon Bridge","26711","","8562534","8563192","","0608"
"PUBLIC","Hampshire","Springfield-Green Spring Elementary School","Hc 65 Box 9000 ","Springfield","26763","","8224317","8224317","","PK05"
"PUBLIC","Hampshire","Romney Elementary School","45 School Street ","Romney","26757","","8223018","8224201","http://boe.hamp.k12.wv.us/index.asp?nid=60","PK05"
"NON-PUBLIC","Hampshire","Maranatha Christian Academy","Hc 65 Box 300 ","Romney","26757","","8223906","","",""
"PUBLIC","Hampshire","Augusta Elementary School","Po Box 910 ","Augusta","26704","","4967001","4967001","","PK05"
"PUBLIC","Hampshire","Hampshire County Career Training Center","Hc 63 Box 1970 ","Romney","26757","","8223979","8223220","",""
"PUBLIC","Hampshire","Romney Middle School","Hc 63, Box 1975 ","Romney","26757","","8225014","8225744","http://rms.hamp.k12.wv.us","0608"
"PUBLIC","Hampshire","Capon Bridge Elementary School","Hc 71, Box 1000 ","Capon Bridge","26711","","8563329","8563329","","PK05"
"PUBLIC","Hampshire","Slanesville Elementary School","P.o. Box 308 ","Slanesville","25444","","4967069","4961139","","PK05"
"NON-PUBLIC","Hampshire","Slanesville Christian School","P O Box 300 ","Slanesville","25444","","4969224","","",""
"PUBLIC","Hampshire","John J. Cornwell","Hc 60, Box 72 ","Levels","25431","","4925520","4925520","","PK05"
"PUBLIC","Hancock","Weir Middle School","125 Sinclair Avenue ","Weirton","26062","3351","7486080","7480847","http://www.edline.net/pages/Weir_Middle_School","0508"
"PUBLIC","Hancock","Weirton Elementary","3428 Pennsylvania Ave","Weirton","26062","","7488370","","",""
"PUBLIC","Hancock","Weirton Heights Elementary School","160 South 12th Street ","Weirton","26062","3398","7481950","7484102","http://www.edline.net/pages/Weirton_Heights_ES","0K04"
"NON-PUBLIC","Hancock","St. Paul School","140 Walnut ","Weirton","26062","","7485225","","",""
"PUBLIC","Hancock","Liberty Elementary School","200 Culler Road ","Weirton","26062","2899","7232818","7233810","http://www.edline.net/pages/Liberty_Elementary_School","PK04"
"NON-PUBLIC","Hancock","St. Joseph School","Park Avenue ","Weirton","26062","","7233961","","",""
"ADMINISTRATIVE","Hancock","Hancock County Schools","PO Box 1300","New Cumberland","26047","1300","5643411","5643990","http://www.hancockschools.org/",""
"PUBLIC","Hancock","Weir High School","100 Red Rider Road ","Weirton","26062","4295","7487600","7487602","http://www.edline.net/pages/Weir_High_School","0912"
"PUBLIC","Hancock","Oak Glen Middle School","39 Golden Bear Drive ","New Cumberland","26047","","3872363","","http://www.edline.net/pages/Oak_Glen_Middle_School","0508"
"PUBLIC","Hancock","A. T. Allison Elementary School","600 Railroad Street ","Chester","26034","","3871915","3872114","http://www.edline.net/pages/Allison_Elementary_School","0K04"
"PUBLIC","Hancock","New Manchester Elementary School","128 Frankfort Road ","New Cumberland","26047","9462","5643242","5645084","http://www.edline.net/pages/New_Manchester_ES","PK04"
"NON-PUBLIC","Hancock","Madonna High School","Park Avenue & Michael Way ","Weirton","26062","","7230564","","http://www.weirtonmadonna.org",""
"PUBLIC","Hancock","Broadview Elementary School","189 Circle Drive ","Weirton","26062","3003","7232525","7231525","http://www.edline.net/pages/Broadview_Elementary_School","PK04"
"PUBLIC","Hancock","John D. Rockefeller Career Center","95 Rockyside Road ","New Cumberland","26047","9802","5643337","5644058","http://www.jdrcc.org/",""
"PUBLIC","Hancock","Oak Glen High School","195 Golden Bear Drive ","New Cumberland","26047","9172","5643500","3872079","http://www.edline.net/pages/Oak_Glen_High_School","PK12"
"PUBLIC","Hardy","Moorefield Intermediate School","345 Caledonia Heights Road ","Moorefield","26836","","5303450","5303451","","0305"
"PUBLIC","Hardy","Moorefield Elementary School","400 North Main Street ","Moorefield","26836","1015","5306356","5302536","http://www.hardycountyschools.com/~mes","PK02"
"PUBLIC","Hardy","Moorefield High School","401 North Main Street ","Moorefield","26836","1098","5306034","5307569","","0912"
"PUBLIC","Hardy","Moorefield Middle School","303 Caledonia Heights Road ","Moorefield","26836","9507","4343000","4343003","","0608"
"PUBLIC","Hardy","East Hardy Early/Middle School","P. O. Box 260 238 Cougar Drive","Baker","26801","260","8975970","8976653","","PK08"
"ADMINISTRATIVE","Hardy","Hardy County Schools","510 Ashby Street ","Moorefield","26836","1099","5302348","5302340","http://www.hardycountyschools.com",""
"PUBLIC","Hardy","East Hardy High School","P. O. Box 120 259 Cougar Drive","Baker","26801","120","8975948","8976261","http://www.hardycountyschools.com/~ehhs","0912"
"NON-PUBLIC","Harrison","Mother Goose","401 W. Va. Avenue ","Nutter Fort","26301","","6230789","","",""
"PUBLIC","Harrison","Mountaineer Middle School","2 Mountaineer Dr ","Clarksburg","26301","","3267620","3267632","","0608"
"PUBLIC","Harrison","United High School","","","","","","","",""
"PUBLIC","Harrison","Simpson Elementary School","250 Worthington Dr ","Bridgeport","26330","","3267060","8422568","","PK05"
"NON-PUBLIC","Harrison","Emmanuel Christian School","1318 N 16th St ","Clarksburg","26301","","6246125","","",""
"PUBLIC","Harrison","Washington Irving Middle School","443 Lee Ave ","Clarksburg","26301","","3267420","6243388","http://harcoboe.com/wimiddle","0608"
"PUBLIC","Harrison","North View Elementary School","1400 N 19th Street ","Clarksburg","26301","","3267650","6243287","","PK05"
"NON-PUBLIC","Harrison","St Mary's Elementary School","107 E Pike St ","Clarksburg","26301","","6229831","","",""
"PUBLIC","Harrison","Pressley Ridge School","Rr 5 Box 697 ","Clarksburg","26301","","6249875","6249871","","0712"
"PUBLIC","Harrison","Bridgeport Middle School","413 Johnson Ave ","Bridgeport","26330","","3267142","8426275","http://www.wvonline.com/bms/bms.html","0608"
"PUBLIC","Harrison","Lost Creek Elementary School","Po Box 128 ","Lost Creek","26385","","3267040","7454393","","PK05"
"NON-PUBLIC","Harrison","Heritage Christian School","225 Newton Avenue","Bridgeport","26330","","8421740","","http://www.hcswv.org/",""
"PUBLIC","Harrison","Robert C. Byrd High School","1 Eagle Way ","Clarksburg","26301","","3267200","6243211","","0912"
"PUBLIC","Harrison","Nutter Fort Intermediate School","1302 Buckhannon Pike ","Nutter Fort","26301","","3267501","6243259","","0305"
"PUBLIC","Harrison","Adamston Elementary School","1636 W Pike St ","Clarksburg","26301","","3267070","6243270","http://www.harcoboe.com/adamston/","PK05"
"NON-PUBLIC","Harrison","Madonna Center For Children","444 E Pike St ","Clarksburg","26301","","6224453","","",""
"PUBLIC","Harrison","Lincoln High School","Rr 1 Box 300 ","Shinnston","26431","","3267400","5923415","http://www.iolinc.net/lhs/","0912"
"PUBLIC","Harrison","Big Elm Elementary School","200 Tetrick Rd ","Shinnston","26431","","3267280","5923255","http://bigelm.harr.k12.wv.us/","PK05"
"NON-PUBLIC","Harrison","Cubby's Child Care Center","449 Cherry St ","Bridgeport","26330","","8423508","","",""
"PUBLIC","Harrison","Bridgeport High School","515 Johnson Ave ","Bridgeport","26330","","3267137","8426288","http://www.wvonline.com/bhs/","0912"
"PUBLIC","Harrison","West Milford Elementary School","226 School St ","West Milford","26451","","3267030","7454488","http://www.harcoboe.com/WestMilfordElementarySchool/index.cfm","PK05"
"NON-PUBLIC","Harrison","Berean Baptist School","Po Box 151 ","Gypsy","26361","","5921430","","",""
"PUBLIC","Harrison","South Harrison Middle School","Rr 1 Box 58b ","Lost Creek","26385","","3267460","7455587","http://www.harcoboe.com/southharrisonmiddleschool/","0608"
"PUBLIC","Harrison","Harrison Co Transitional Middle School","1349 Shinnston Pk","Clarksburg","26301","","3267560","6243245","",""
"PUBLIC","Harrison","Norwood Elementary School","208 Kidd Ave ","Stonewood","26301","","3267050","6243286","","PK05"
"NON-PUBLIC","Harrison","Notre Dame High School","127 E Pike St ","Clarksburg","26301","","6231026","","",""
"PUBLIC","Harrison","United Technical Center","251 Marietta St.","Clarksburg","26301","","3267580","6226138","http://www.wvonline.com/utc/","1112"
"PUBLIC","Harrison","Lumberport Middle School","314 Main Street ","Lumberport","26386","","3267540","5844602","http://www.lumberportmiddleschool.com","0608"
"PUBLIC","Harrison","Lumberport Elementary School","Po Box 417 Chestnut & Lyndon Streets","Lumberport","26386","","3267020","5845943","","PK05"
"NON-PUBLIC","Harrison","Union High School","216 Roley St ","Bridgeport","26330","","8421745","","",""
"PUBLIC","Harrison","Harrison Co Alternative Learning Center","Rr 3 Box 43b ","Clarksburg","26301","","3267560","6243245","",""
"PUBLIC","Harrison","Salem Elementary","Rr 1 Box 10a ","Salem","26426","","3267180","","","PK05"
"PUBLIC","Harrison","Johnson Elementary School","531 Johnson Ave ","Bridgeport","26330","","3267109","8426562","http://www.harcoboe.com/jes","PK05"
"NON-PUBLIC","Harrison","Headstart-Central Wv Community Action","106 Frederick St ","Clarksburg","26301","","6231665","","",""
"PUBLIC","Harrison","South Harrison High School","Rr 1 Box 58 ","Lost Creek","26385","","3267440","7454292","http://www.southharrison.com","0912"
"PUBLIC","Harrison","Nutter Fort Primary School","1302 Buckhannon Pike ","Nutter Fort","26301","","3267520","6243382","http://www.wvonline.com/nfs/","PK02"
"ADMINISTRATIVE","Harrison","Harrison County Schools","PO Box 1370 ","Clarksburg","26301","","3267300","6243361","http://www.harcoboe.com",""
"NON-PUBLIC","Harrison","Apostolic Christian Academy","Rt 3, Box 303c ","Clarksburg","26301","","6244459","","",""
"PUBLIC","Harrison","Liberty High School","1 Mountaineer Dr ","Clarksburg","26301","","3267470","6233159","http://www.wvonline.com/liberty/","0912"
"PUBLIC","Harrison","Wilsonburg Elementary School","Rr 4 Box 1 ","Clarksburg","26301","","3267640","6243279","","PK05"
"PUBLIC","Jackson","Evans Elementary School","205 Schoolhouse Drive ","Evans","25241","","3727333","3727317","","PK05"
"PUBLIC","Jackson","Ravenswood High School","Plaza Drive ","Ravenswood","26164","","2739301","2739556","","0912"
"ADMINISTRATIVE","Jackson","Jackson County Schools","PO Box 770","Ripley","25271","","3727300","3727312","http://boe.jack.k12.wv.us/",""
"PUBLIC","Jackson","Ravenswood Middle School","409 Sycamore Street ","Ravenswood","26164","","2735480","2735746","","0608"
"PUBLIC","Jackson","Ravenswood Grade School","Rt 2, Box 22-A ","Ravenswood","26164","","2735391","2735392","http://ravgrade.tripod.com/rgs/","0305"
"PUBLIC","Jackson","Kenna Elementary School","650 Route 21 ","Kenna","25248","","3727343","3727313","","PK05"
"NON-PUBLIC","Jackson","Heritage Christian Academy","P.o. Box 427 ","Ravenswood","26164","","2739463","8682229","",""
"PUBLIC","Jackson","Fairplain Elementary School","Rt 3 Box 147 ","Ripley","25271","","3727340","3727347","http://fairplain.jack.k12.wv.us/","PK05"
"PUBLIC","Jackson","Ripley High School","2 School Street ","Ripley","25271","","3727355","3727334","http://ripleyhs.jack.k12.wv.us","0912"
"PUBLIC","Jackson","Cottageville Elementary School","100 School Street ","Cottageville","25239","","3727330","3727342","http://members.tripod.com/~cottageville/","PK05"
"PUBLIC","Jackson","Ripley Middle School","Route 2, Box 75-A Klondyke Road","Ripley","25271","","3727350","3727332","http://ripleyms.jack.k12.wv.us","0608"
"PUBLIC","Jackson","Ripley Elementary School","404 Second Avenue ","Ripley","25271","","3727345","3727364","","PK05"
"PUBLIC","Jackson","Henry J Kaiser Elementary School","803 Kaiser Avenue ","Ravenswood","26164","","2732692","2733029","http://henryjkaiser.jack.k12.wv.us/","PK02"
"PUBLIC","Jackson","Gilmore Elementary School","Rt. 3, Box 28-A ","Sandyville","25275","","2733511","2739560","","PK05"
"PUBLIC","Jackson","Roane-Jackson Technical Center","9450 Spencer Rd","Leroy","25252","","3727335","3727336","",""
"NON-PUBLIC","Jefferson","Rock Spring Child Learning Center","114 Poor Farm Road ","Kearneysville","25430","","","","",""
"PUBLIC","Jefferson","South Jefferson Elementary School","4599 Summit Point Road ","Charles Town","25414","4673","7289216","7256428","http://boe.jeff.k12.wv.us/sjes","0K05"
"PUBLIC","Jefferson","Washington High School","300 Washington Patriots Drive ","Charles Town","25414","4961","8855110","7259233","http://boe.jeff.k12.wv.us/whs","0912"
"PUBLIC","Jefferson","Shepherdstown Elementary School","662 South Church Street ","Shepherdstown","25443","4717","8766270","8766850","http://boe.jeff.k12.wv.us/ses","0K05"
"PUBLIC","Jefferson","Wildwood Middle School","1209 Shenandoah Junction Road ","Shenandoah Junction","25442","4035","7284518","7289521","http://boe.jeff.k12.wv.us/wms","0608"
"PUBLIC","Jefferson","Page Jackson Elementary","370 Page Jackson School Road ","Charles Town","25414","5502","7289212","7252968","http://boe.jeff.k12.wv.us/pjes","PK02"
"PUBLIC","Jefferson","Harpers Ferry Middle School","1710 West Washington Street ","Harpers Ferry","25425","6325","5356357","5356986","http://boe.jeff.k12.wv.us/hfms","0608"
"PUBLIC","Jefferson","Blue Ridge Elementary School","18866 Charles Town Road ","Harpers Ferry","25425","5503","7252995","7287041","http://boe.jeff.k12.wv.us/bres","0205"
"PUBLIC","Jefferson","Driswood Elementary School","75 Caspian Way ","Shenandoah Junction","25442","","8855020","7251936","","PK05"
"NON-PUBLIC","Jefferson","Wee Disciples Christian Enrichment Progr","110 W North Street ","Charles Town","25414","","7076812","","",""
"PUBLIC","Jefferson","Wright Denny Intermediate School","209 West Congress Street ","Charles Town","25414","1623","7252513","7251721","http://boe.jeff.k12.wv.us/wdis","0305"
"NON-PUBLIC","Jefferson","Country Day School Of Jefferson County","449 Rose Hill Drive ","Kearneysville","25430","","7251438","","http://www.thecountrydayschool.com",""
"PUBLIC","Jefferson","C. W. Shipley Elementary School","652 Shipley School Road ","Harpers Ferry","25425","3131","7254395","7287388","http://boe.jeff.k12.wv.us/cwses","0K05"
"PUBLIC","Jefferson","Blue Ridge Primary","175 Lowery Lane ","Harpers Ferry","25425","","","","","PK01"
"PUBLIC","Jefferson","Jefferson High School","4141 Flowing Springs Road ","Shenandoah Junction","25442","4712","7258491","7286590","http://boe.jeff.k12.wv.us/jhs","0912"
"PUBLIC","Jefferson","Ranson Elementary School","600 North Preston Street ","Ranson","25438","1546","7257310","7251912","http://boe.jeff.k12.wv.us/res","PK05"
"PUBLIC","Jefferson","Shepherdstown Middle School","54 Minden Avenue ","Shepherdstown","25443","4771","8766120","8761826","http://boe.jeff.k12.wv.us/sms","0608"
"PUBLIC","Jefferson","North Jefferson Elementary","6996 Charles Town Road ","Kearneysville","25430","2770","7259587","7287331","http://boe.jeff.k12.wv.us/njes","PK05"
"PUBLIC","Jefferson","Charles Town Middle School","193 High Street ","Charles Town","25414","1244","7257821","7287526","http://boe.jeff.k12.wv.us/ctms","0608"
"ADMINISTRATIVE","Jefferson","Jefferson County Schools"," 110 Mordington Avenue","Charles Town","25414","1693","7259741","7256487","http://boe.jeff.k12.wv.us/",""
"NON-PUBLIC","Jefferson","The Joy Of Learning Montessori","P.o. Box 889 ","Harpers Ferry","25425","","5826729","","",""
"PUBLIC","Jefferson","T A Lowery Elementary School","103 Shenandoah Junction Road ","Shenandoah Junction","25442","4757","7287250","7287631","http://boe.jeff.k12.wv.us/tales","PK05"
"PUBLIC","Kanawha","Pinch Elementary School","300 South Pinch Rd ","Elkview","25071","","3481943","3481944","http://pinch.kana.k12.wv.us/","PK05"
"NON-PUBLIC","Kanawha","Freedom Christian Academy","Po Box 754 ","Nitro","25143","","7557075","","",""
"PUBLIC","Kanawha","Holz Elementary School","1505 Hampton Rd ","Charleston","25314","","3481906","3450387","http://holz.kana.k12.wv.us/","PK05"
"PUBLIC","Kanawha","Ben Franklin Career Center","500 28th Street ","Dunbar","25064","","7660369","7660371","http://benfranklinctc.weebly.com/",""
"PUBLIC","Kanawha","Cedar Grove Elementary School","Po Box J ","Cedar Grove","25039","","9491642","5952541","http://cg.kana.k12.wv.us/","PK05"
"PUBLIC","Kanawha","Stonewall Jackson Middle School","812 Park Avenue ","Charleston","25302","","3486123","3481999","http://www.sjgenerals.com/","0608"
"NON-PUBLIC","Kanawha","Charleston Montessori","319 Washington Street West","Charleston","25302","","3409000","","http://www.charlestonmontessori.com",""
"PUBLIC","Kanawha","Andrew Jackson Middle School","5445 Big Tyler Road ","Charleston","25313","","7763310","7763305","http://KCS.KANA.K12.WV.US/AJMS/","0608"
"PUBLIC","Kanawha","Sissonville Elementary School","8324 Sissonville Drive ","Sissonville","25320","","3481961","3486147","http://kcs.kana.k12.wv.us/sisselem/","PK04"
"NON-PUBLIC","Kanawha","Saint Francis Of Assisi","525 Holley Street ","Saint Albans","25177","","7275690","","http://www.sfswv.com/",""
"PUBLIC","Kanawha","Nitro Elementary School","1921 19th Street ","Nitro","25143","","7552451","7559215","http://nitro.kana.k12.wv.us/","PK05"
"NON-PUBLIC","Kanawha","Upper Kanawha Valley Christian School","12721 Mccorkle Avenue ","Chesapeake","25315","","","","",""
"PUBLIC","Kanawha","Glenwood Elementary School","810 Grant St ","Charleston","25302","","3486610","3486681","","PK05"
"PUBLIC","Kanawha","Riverside High School","#1 Warrior Way ","Belle","25015","","3481996","","http://rhs.kana.k12.wv.us","0912"
"PUBLIC","Kanawha","Bonham Elementary School","Route 1, Box 425a ","Charleston","25312","","3481912","3481367","","PK05"
"PUBLIC","Kanawha","Sissonville Middle School","100 Middle School Lane ","Charleston","25312","","3481993","3486594","http://sms.wvnet.edu/","0508"
"PUBLIC","Kanawha","Mary C. Snow West Side Elementary School","100 Florida Street ","Charleston","25302","","","","http://mcs.kana.k12.wv.us/","PK05"
"PUBLIC","Kanawha","Sharon Dawes Elementary School","P O Box 149 ","Miami","25134","","5953323","5953361","http://sd.kana.k12.wv.us/","PK05"
"NON-PUBLIC","Kanawha","Saint Anthony School","1027 Sixth Street West ","Charleston","25302","","3468441","","http://home.att.net/~stanthonyschool/stanthonyschool.html",""
"PUBLIC","Kanawha","Midland Trail Elementary School","200 Ferry St ","Diamond","25015","","9491823","9491016","http://mt.kana.k12.wv.us/","PK05"
"NON-PUBLIC","Kanawha","Mountaineer Montessori","308 20th Street ","Charleston","25304","","3427870","","http://www.mountaineermontessori.com",""
"PUBLIC","Kanawha","Dunbar Primary Center","2401 Myers Avenue ","Dunbar","25064","","7660367","7660368","http://dp.kana.k12.wv.us/","PK02"
"PUBLIC","Kanawha","South Charleston High School","1 Eagle Way ","South Charleston","25309","","7660352","7684663","http://kcs.kana.k12.wv.us/schs/","0912"
"PUBLIC","Kanawha","Anne Bailey Elementary School","405 Winfield Road ","St. Albans","25177","","7220230","7220231","http://ab.kana.k12.wv.us/","PK05"
"PUBLIC","Kanawha","Horace Mann Middle School","4300 Maccorkle Avenue ","Charleston","25304","","3481971","3486591","http://kcs.kana.k12.wv.us/horacemann/Teachers_6th.htm","0608"
"PUBLIC","Kanawha","Piedmont Year-Round Education","203 Bradford Street ","Charleston","25301","","3481910","3481911","http://kcs.kana.k12.wv.us/piedmont/","PK05"
"PUBLIC","Kanawha","Ruffner Elementary School","809 Litz Drive ","Charleston","25311","","3481130","3481131","http://kcs.kana.k12.wv.us/ruffner","PK05"
"NON-PUBLIC","Kanawha","South Charelston Christian Academy","Seventh And E Street ","South Charleston","25303","","4441258","","",""
"PUBLIC","Kanawha","Marmet Elementary School","408 94th St ","Marmet","25315","","9492382","","http://marmet.kana.k12.wv.us/","PK05"
"NON-PUBLIC","Kanawha","Elk Valley Christian School","58 Mount Pleasant Drive ","Elkview","25071","","9657063","","",""
"PUBLIC","Kanawha","Clendenin Elementary School","P O Box 462 ","Clendenin","25045","","9655311","5487372","http://clendenin.kana.k12.wv.us/","PK05"
"PUBLIC","Kanawha","Saint Albans High School","2100 Kanawha Terrace ","St. Albans","25177","","7220212","7220211","http://stalbanshigh.com","0912"
"PUBLIC","Kanawha","Alum Creek Elementary School","Rt 7 Box 279a ","So Charleston","25309","","3481935","3481936","http://kanawha-k12.wvnet.edu/alumcreek/","PK05"
"PUBLIC","Kanawha","Elkview Middle School","5090 N Elk River Rd ","Elkview","25071","","3481947","3486590","http://kcs.kana.k12.wv.us/schools/elkviewmiddle/","0608"
"PUBLIC","Kanawha","Elk Elementary Center","3320 Pennsylvania Ave ","Charleston","25302","","3487776","9656921","http://elk.kana.k12.wv.us/","PK05"
"PUBLIC","Kanawha","Richmond Elementary School","4620 Spring Hill Avenue ","South Charleston","25309","","7660357","","http://richmond.kana.k12.wv.us/","PK05"
"NON-PUBLIC","Kanawha","Twin City Christian Academy","100 1st Avenue ","Nitro","25143","","7293002","","",""
"PUBLIC","Kanawha","Lakewood Elementary School","2089 Lakewood Drive ","St. Albans","25177","","7220200","7220456","http://kcs.kana.k12.wv.us/lakewood","PK05"
"NON-PUBLIC","Kanawha","Bible Center School","1111 Oakhurst Drive ","Charleston","25314","","3460431","","http://www.biblecenterchurch.com/school",""
"PUBLIC","Kanawha","Chandler Elementary School","1900 School Street ","Charleston","25312","","3481902","3481903","","PK05"
"PUBLIC","Kanawha","Herbert Hoover High School","5096 N Elk River Rd ","Elkview","25071","","9653394","9651871","http://kcs.kana.k12.wv.us/herberthoover/","0912"
"ADMINISTRATIVE","Kanawha","Kanawha County Schools","200 Elizabeth Street ","Charleston","25311","","3487770","3486188","http://kcs.kana.k12.wv.us/",""
"PUBLIC","Kanawha","Du Pont Middle School","1 Panther Way ","Belle","25015","","3481978","9491793","http://dupont.kana.k12.wv.us/","0608"
"PUBLIC","Kanawha","George C. Weimer Elementary School","3040 Kanawha Terrace ","St. Albans","25177","","7220205","7220206","http://kcs.kana.k12.wv.us/weimer/","PK05"
"PUBLIC","Kanawha","Point Harmony Elementary School","5312 Big Tyler Road ","Cross Lanes","25313","","7763482","7766476","http://kcs.kana.k12.wv.us/phele/","0K05"
"NON-PUBLIC","Kanawha","King's Way Christian Academy","134 Jenkins Drive ","Charleston","25312","","7204994","","",""
"PUBLIC","Kanawha","Kanawha City Elementary School","3601 Staunton Avenue Se ","Charleston","25304","","3481985","3486537","http://kc.kana.k12.wv.us/","PK05"
"PUBLIC","Kanawha","Carver Career Center","4799 Midland Dr ","Charleston","25306","","3481965","3481938","http://www.carvercareercenter.edu/",""
"PUBLIC","Kanawha","Central Elementary School","900 Helene Street ","St. Albans","25177","","7220226","7220227","http://centralelem.kana.k12.wv.us/","PK05"
"PUBLIC","Kanawha","Tyler Middle School","4277 West Washington Street ","Charleston","25313","","3486133","3486690","","0609"
"PUBLIC","Kanawha","Cedar Grove Middle School","Po Box J ","Cedar Grove","25039","","9491642","","https://sites.google.com/a/mail.kana.k12.wv.us/cedar-grove-middle-school/","0608"
"PUBLIC","Kanawha","Watts Elementary School","230 Costello St ","Charleston","25302","","3486635","3486644","","PK05"
"NON-PUBLIC","Kanawha","Sacred Heart Elementary","1035 Quarrier Street ","Charleston","25301","","3465491","","",""
"PUBLIC","Kanawha","Overbrook Elementary School","218 Overbrook Rd ","Charleston","25314","","3486179","","","PK05"
"NON-PUBLIC","Kanawha","Brookside Childrens Home","Po Box 112 ","Charleston","25321","","9259625","","",""
"PUBLIC","Kanawha","Grandview Elementary School","959 Woodward Drive ","Charleston","25312","","3481928","7460771","","PK05"
"PUBLIC","Kanawha","Chandler Academy","1900 School Street","Charleston","25312","","3486133","","http://chandler.kana.k12.wv.us/","0612"
"PUBLIC","Kanawha","Bridge Elementary School","5120 Elk River Road N ","Elkview","25071","","9655501","3481125","http://bridge.kana.k12.wv.us/","PK05"
"PUBLIC","Kanawha","South Charleston Middle School","400 Third Avenue ","South Charleston","25303","","3481918","7444869","http://kcs.kana.k12.wv.us/scms/","0608"
"PUBLIC","Kanawha","John Adams Middle School","2002 Presidential Dr ","Charleston","25314","","3486652","3486592","http://www.edline.net/pages/John_Adams_Junior_High_School","0608"
"PUBLIC","Kanawha","Shoals Elementary School","100 Dutch Rd ","Charleston","25302","","3481900","","http://shoals.kana.k12.wv.us/","PK05"
"NON-PUBLIC","Kanawha","Charleston Catholic High School","1033 Virginia Street ","Charleston","25311","","3428415","","http://www.charlestoncatholic-crw.org",""
"PUBLIC","Kanawha","Montrose Elementary School","631 Montrose Drive ","So. Charleston","25303","","3481930","3477409","http://montrose.kana.k12.wv.us/","0K05"
"NON-PUBLIC","Kanawha","Day Care","212 D Street ","South Charleston","25303","","7442845","","",""
"PUBLIC","Kanawha","Flinn Elementary School","2006 Mcclure Parkway ","Charleston","25312","","3481960","3481959","http://kcs.kana.k12.wv.us/flinn","0K04"
"PUBLIC","Kanawha","Capital High School","1500 Greenbrier St ","Charleston","25311","","3486500","3486509","http://www.capitalhigh.org/","PK12"
"PUBLIC","Kanawha","Belle Elementary School","401 E 6th Street ","Belle","25015","","9492612","9495854","http://belle.kana.k12.wv.us/","PK05"
"PUBLIC","Kanawha","Mckinley Middle School","3000 Kanawha Terrace ","St. Albans","25177","","7220218","7220246","http://mckinley.kana.k12.wv.us/","0608"
"PUBLIC","Kanawha","Edgewood Elementary","550 Hawks Ridge","Charleston","25302","","","","http://edgewood.kana.k12.wv.us/",""
"PUBLIC","Kanawha","Dunbar Intermediate Center","1330 Myers Avenue ","Dunbar","25064","","7661570","","http://di.kana.k12.wv.us/","PK05"
"PUBLIC","Kanawha","Ruthlawn Elementary School","Rt 8 Box 428 ","So Charleston","25309","","7449481","7449482","http://kcs.kana.k12.wv.us/ruthlawn/","PK05"
"NON-PUBLIC","Kanawha","Saint Agnes School","4801 Staunton Avenue Se ","Charleston","25304","","9254341","","http://stagneswv.org",""
"PUBLIC","Kanawha","Mary Ingles Elementary School","Po Box 367 ","Tad","25201","","3481975","3481976","http://kcs.kana.k12.wv.us/maryingles","PK05"
"NON-PUBLIC","Kanawha","Fairhaven Christian School","689 Fairhaven Drive ","Charleston","25306","","9255954","","http://www.fhcscomets.org",""
"PUBLIC","Kanawha","Cross Lanes Elementary School","5525 Big Tyler Road ","Charleston","25313","","7762022","7762029","http://cl.kana.k12.wv.us/","PK05"
"PUBLIC","Kanawha","Sissonville High School","6100 Sissonville Dr. ","Charleston","25312","","3481954","3486565","http://kcs.kana.k12.wv.us/sisshigh/","0912"
"PUBLIC","Kanawha","Andrews Heights Elementary School","P O  Box 340 ","Tornado","25202","","7220232","7220243","http://ah.kana.k12.wv.us/","PK05"
"PUBLIC","Kanawha","Hayes Middle School","830 Strawberry Road ","St. Albans","25177","","7220222","7220247","http://hayes.kana.k12.wv.us/","0608"
"PUBLIC","Kanawha","Bridgeview Elementary School","5100 Ohio Street ","South Charleston","25309","","7660383","7660388","http://bridgeviewelementary.weebly.com/","PK05"
"PUBLIC","Kanawha","J E Robins Elementary School","915 Beech Ave ","Charleston","25302","","3486631","3486634","","PK05"
"NON-PUBLIC","Kanawha","Bible Baptist Christian School","7020 Sissonville Drive ","Sissonville","25320","","9840451","9840450","",""
"PUBLIC","Kanawha","Malden Elementary School","4001 Salinas Drive ","Charleston","25306","","3481973","3481974","http://malden.kana.k12.wv.us/","PK05"
"NON-PUBLIC","Kanawha","Cross Lanes Christian School","5330 Floradale Drive ","Charleston","25313","","7765020","","http://www.crosslanes.org",""
"PUBLIC","Kanawha","Chesapeake Elementary School","13620 Mccorkle Ave ","Chesapeake","25315","","9491121","9492351","http://chesapeake.kana.k12.wv.us/","PK05"
"PUBLIC","Kanawha","Nitro High School","1300 Park Avenue ","Nitro","25143","","7554321","7554345","http://kcs.kana.k12.wv.us/nitrohigh/","0912"
"PUBLIC","Kanawha","Alban Elementary School","2030 Harrison Avenue ","St. Albans","25177","","7220234","7220235","http://alban.kana.k12.wv.us/","PK05"
"PUBLIC","Kanawha","East Bank Middle School","Po Box 897 ","East Bank","25067","","5952311","5954676","https://sites.google.com/a/mail.kana.k12.wv.us/ebms/","0608"
"PUBLIC","Kanawha","Shawnee Community Center","142 Marshall Avenue ","Dunbar","25064","","7660378","7660378","","PKPK "
"PUBLIC","Kanawha","Pratt Elementary School","Center And Stark Street ","Pratt","25162","","9494838","4424541","http://pratt.kana.k12.wv.us/","PK05"
"NON-PUBLIC","Kanawha","Dollie Hill Christian Academy","Route 7 Box 112 ","South Charleston","25303","","7684193","","",""
"PUBLIC","Kanawha","Kenna Elementary School","198 Eureka Rd ","Charleston","25314","","3486104","3486107","http://kcs.kana.k12.wv.us/kenna","PK05"
"PUBLIC","Kanawha","Garnet Career Center","422 Dickinson Street ","Charleston","25301","","3486195","3486198","http://kcs.kana.k12.wv.us/garnet/index.html",""
"PUBLIC","Kanawha","Chamberlain Elementary School","4901 Venable Av S E ","Charleston","25304","","3481969","3481970","http://chamberlain.kana.k12.wv.us/","PK05"
"PUBLIC","Kanawha","George Washington High School","1522 Tennis Club Rd ","Charleston","25314","","3487729","3444947","http://gwhs.kana.k12.wv.us","0912"
"PUBLIC","Kanawha","Dunbar Middle School","325 27th Street ","Dunbar","25064","","7660363","7660365","http://kcs.kana.k12.wv.us/schools/dunbar","0608"
"PUBLIC","Kanawha","Weberwood Elementary School","732 Gordon Road ","So. Charleston","25303","","3481924","3477421","http://weberwood.kana.k12.wv.us/","PK05"
"ADMINISTRATIVE","Lewis","Lewis County Schools","239 Court Avenue ","Weston","26452","","2698300","2698305","http://lewisboe.com",""
"NON-PUBLIC","Lewis","St. Patrick School","224 Center Street ","Weston","26452","","2695547","","",""
"PUBLIC","Lewis","Lewis County High School","205 Minuteman Drive ","Weston","26452","","2698315","2698319","http://lewisboe.com/lchs","0912"
"PUBLIC","Lewis","Jane Lew Elementary School","6536 Main Street ","Jane Lew","26378","","8847836","8847185","http://lewisboe.com/jles","PK04"
"PUBLIC","Lewis","Leading Creek Elementary","15300 US Highway 33W","Linn","26384","","4627127","4624925","http://lewisboe.com/lces","PK06"
"PUBLIC","Lewis","Roanoke Elementary School","1176 Oil Creek Road ","Roanoke","26447","","4528887","4520438","http://lewisboe.com/res","PK04"
"NON-PUBLIC","Lewis","Lewis County Christian School","Post Office Box 230 ","Weston","26452","","2696492","","",""
"PUBLIC","Lewis","Robert L. Bland Middle School","358 Court Avenue ","Weston","26452","","2698325","2698310","http://lewisboe.com/rlbms","0508"
"PUBLIC","Lewis","Peterson-Central Elementary School","509 Berlin Road ","Weston","26452","","2698330","2698351","http://lewisboe.com/pces","PK04"
"PUBLIC","Lincoln","Duval Pk-8","5304 Straight Fork","Griffithsville","25521","","5242101","","http://duvalyellowjackets.net","PK08"
"PUBLIC","Lincoln","Lincoln County High School","81 Lincoln Panther Way ","Hamlin","25523","","8246000","","http://boe.linc.k12.wv.us/education/school/school.php?sectionid=1","0912"
"PUBLIC","Lincoln","West Hamlin Elementary","114 Dairy Road","West Hamlin","25571","","8243630","8243630","http://westhamlinroughriders.net","PK05"
"PUBLIC","Lincoln","Midway Elementary School","267 Midway Road","Alum Creek","25003","","7563121","7561459","http://midwaymustanges.net","PK05"
"PUBLIC","Lincoln","Hamlin Pk-8","8130 Court Ave ","Hamlin","25523","","8243036","","http://hamlinbobcats.net","PK08"
"ADMINISTRATIVE","Lincoln","Lincoln County Schools","10 Marland Avenue ","Hamlin","25523","","8243033","8247947","http://boe.linc.k12.wv.us",""
"PUBLIC","Lincoln","Guyan Valley Middle","5312 McClellan Hwy","Branchland","25506","","8243235","","http://guyanvalleywildcats.net","0608"
"PUBLIC","Lincoln","Ranger Elementary","59 Vanatters Creek ","Ranger","25557","9719","7783454","7783454","http://rangersrangers.net","PK05"
"PUBLIC","Lincoln","Harts Pk-8","1246 Mcclellan Highway ","Harts","25524","","","","http://hartslions.net","PK08"
"PUBLIC","Logan","Chapmanville Middle School","300 Vance St. ","Chapmanville","25508","","8558378","8551307","http://www.cms.logancountyschoolswv.com/","0508"
"PUBLIC","Logan","Buffalo Elementary School","Po Box 310 ","Accoville","25606","","5839132","5837512","http://www.bes.logancountyschoolswv.com/","PK03"
"PUBLIC","Logan","Man Elementary School","Box 269 ","Mallory","25634","","5838316","5837342","http://www.mes.logancountyschoolswv.com/","0K04"
"PUBLIC","Logan","Omar Elementary","Route 44 Box 590","Omar","25638","","9462660","9464236","http://www.oes.logancountyschoolswv.com/","PK04"
"PUBLIC","Logan","Verdunville Elementary School","Drawer J Hill Drive","Verdunville","25649","","7521656","7522142","http://www.ves.logancountyschoolswv.com/","PK04"
"NON-PUBLIC","Logan","Beth Haven Christian School","Route 44 Box 620 ","Omar","25638","","9464447","","",""
"PUBLIC","Logan","Logan Elementary School","Midelburg Island ","Logan","25601","","7524180","7525463","http://www.les.logancountyschoolswv.com/","PK04"
"PUBLIC","Logan","Man Senior High School","800 East Mcdonald Avenue ","Man","25635","","5836521","5836566","http://www.mhs.logancountyschoolswv.com/","0912"
"PUBLIC","Logan","Hugh Dingess Elementary School","Rt. 1 Box 607","Harts","25524","","8553585","8556600","http://www.hdes.logancountyschoolswv.com/","PK04"
"PUBLIC","Logan","Chapmanville Regional High School","200 Vance Street ","Chapmanville","25508","","8554522","8551911","http://www.crhs.logancountyschoolswv.com/","0912"
"PUBLIC","Logan","Chapmanville East Elementary School","P.o. Box 340 ","Chapmanville","25508","","8553302","8557568","http://www.eces.logancountyschoolswv.com/","PK04"
"PUBLIC","Logan","Logan Middle School","14 Wildcat Way ","Logan","25601","","7521804","7520207","http://www.lms.logancountyschoolswv.com/","0508"
"PUBLIC","Logan","Man Middle School","Box 390 ","Mallory","25634","","5838316","5837342","http://www.mms.logancountyschoolswv.com/","0508"
"PUBLIC","Logan","West Chapmanville Elementary School","100 Vance Street Box 310","Chapmanville","25508","","8553209","8553376","http://www.wces.logancountyschoolswv.com/","PK04"
"ADMINISTRATIVE","Logan","Logan County Schools","PO Box 477","Logan","25601","","7922060","7523711","http://www.logancountyschoolswv.com/",""
"NON-PUBLIC","Logan","Truthway Christian Academy","Rr 1 Box 358 ","Chapmanville","25508","","8559267","","",""
"PUBLIC","Logan","South Man Elementary School","301 East Mcdonald Avenue ","Man","25635","","5837522","5838046","http://www.smes.logancountyschoolswv.com/","PK03"
"PUBLIC","Logan","Ralph R. Willis Vocational Center","Three Mile Curve Po Box 1747","Logan","25601","","7524687","7522943","",""
"PUBLIC","Logan","Justice Elementary School","407 Circle Dirve ","Logan","25601","","7523250","7525456","http://www.jes.logancountyschoolswv.com/","PK04"
"PUBLIC","Logan","Logan Senior High School","1 Wildcat Way ","Logan","25601","","7526606","7526614","http://www.lhs.logancountyschoolswv.com/","0912"
"PUBLIC","Logan","Holden Central Elementary School","Box M ","Holden","25625","","2392771","2392514","http://www.hces.logancountyschoolswv.com/","PK04"
"PUBLIC","Marion","Monongah Middle School","550 Camden Avenue ","Monongah","26554","1198","3672164","3672164","","0508"
"PUBLIC","Marion","East Dale Elementary School","Rt.3  57 East Dale Road ","Fairmont","26554","9803","3672132","3662522","http://eastdale.mari.k12.wv.us","PK06"
"NON-PUBLIC","Marion","Calvary Christian School","28 Fellowship Drive ","Fairmont","26554","","3638008","","",""
"PUBLIC","Marion","Fairview Middle School","17 Jesses Run Road ","Fairview","26570","9300","4491312","4491305","http://www.labs.net/schools/marion/fairviewmiddleschool","PK08"
"PUBLIC","Marion","Barrackville Elementary/Middle School","P O Box 150 509 Pike Street","Barrackville","26559","150","3672128","3672173","http://www.bvilleschool.com","0K08"
"PUBLIC","Marion","Marion County Technical Center","2 North Marion Drive Route 250 North","Farmington","26571","9709","9863590","9863440","http://www.mctconline.com",""
"PUBLIC","Marion","White Hall Elementary School","38 Emerald Lane ","White Hall","26554","8906","3672158","3672181","","PK04"
"ADMINISTRATIVE","Marion","Marion County Schools","1516 Mary Lou Retton Drive","Fairmont","26554","2739","3672100","3672111","http://www.marionboe.com",""
"PUBLIC","Marion","North Marion High School","1 North Marion Drive ","Farmington","26571","3086","9863063","9863086","http://www.labs.net/schools/marion/nmhs/","0912"
"PUBLIC","Marion","Pleasant Valley Elementary School","1858 Valley School Road ","Pleasant Valley","26554","9219","3672148","3672175","","0K06"
"PUBLIC","Marion","East Fairmont High School","1993 Airport Road ","Fairmont","26554","9138","3672140","3672180","http://www.wvonline.com/efhs","PK12"
"PUBLIC","Marion","Jayenne Elementary School","1504 Country Club Road ","Fairmont","26554","1307","3672136","3672178","","PK04"
"PUBLIC","Marion","West Fairmont Middle School","1010 Tenth Street ","Fairmont","26554","","3665631","3665636","","0508"
"PUBLIC","Marion","East Park Elementary School","1025 Fairfax Street ","Fairmont","26554","4298","3672134","3672187","https://sites.google.com/a/wvde.k12.wv.us/east-park-elementary-library/","PK06"
"NON-PUBLIC","Marion","Fairmont Catholic Ele.","416a Madison ","Fairmont","26554","2946","3635313","","",""
"PUBLIC","Marion","Mannington Middle School","113 Clarksburg Street ","Mannington","26582","1396","9861050","9861747","","PK08"
"PUBLIC","Marion","Rivesville Elementary/Middle School","229 Phillips Avenue ","Rivesville","26588","9838","2785331","2785351","","PK08"
"NON-PUBLIC","Marion","Act Academy","415 Potomac Avenue ","Fairmont","26554","","9069950","","",""
"PUBLIC","Marion","Blackshere Elementary School","77 Blackshere Drive ","Mannington","26582","9091","9862707","9862715","http://hometown.aol.com/kevinhaugh/index.html","PK04"
"PUBLIC","Marion","Marion Co Adult And Community Ed Center","601 Locust Ave. ","Fairmont","26554","","3637323","3662483"," ","0912"
"PUBLIC","Marion","Barnes Learning Center (Alc)","100 Naomi Street ","Fairmont","26554","1834","3672127","3672174","",""
"PUBLIC","Marion","Watson Elementary School","1579 Mary Lou Retton Dr ","Fairmont","26554","2238","3672156","3660107","","PK04"
"PUBLIC","Marion","Fairmont Senior High School","Loop Park Drive ","Fairmont","26554","2599","3672150","3665988","http://fhs.mari.k12.wv.us/","0912"
"PUBLIC","Marion","Monongah Elementary School","628 Walnut Street ","Monongah","26554","1199","3672159","3672188","","PK04"
"PUBLIC","Marion","East Fairmont Middle School","221 Mason Street","Fairmont","26554","4098","3672123","3672179","","0708"
"PUBLIC","Marion","Fairview Elementary School","Po Box 39 100 School Street","Fairview","26570","39","4491752","4491866","","0K04"
"ADMINISTRATIVE","Marshall","Marshall County Schools","PO Box 578","Moundsville","26041","","8434400","8434409","http://boe.mars.k12.wv.us/",""
"PUBLIC","Marshall","Moundsville Middle School","223 Tomlinson Avenue ","Moundsville","26041","","8434440","8434446","http://boe.mars.k12.wv.us/mjhs/index.htm","0608"
"NON-PUBLIC","Marshall","Our Lady Of Peace School","640 Old Fairmont Pike ","Wheeling","26003","","2421383","","http://www.olpschool.org",""
"PUBLIC","Marshall","Washington Lands Elementary School","Rr 4 Box 255 ","Moundsville","26041","","8434420","8434459","http://boe.mars.k12.wv.us/washingtonlands/index.htm","PK05"
"NON-PUBLIC","Marshall","St Francis Xavier School","600 Jefferson Avenue ","Moundsville","26041","","8452562","","http://stfrancis-school.net",""
"PUBLIC","Marshall","Mcninch Primary School","2600 Fourth Street ","Moundsville","26041","","8434431","8434461","http://boe.mars.k12.wv.us/mcninch/index.htm","PK02"
"PUBLIC","Marshall","John Marshall Adult Prep","John Marshall High School 1300 Wheeling Avenue","Glen Dale","26038","","8434444","8434419","",""
"PUBLIC","Marshall","Glen Dale Elementary School","407 Seventh Street ","Glen Dale","26038","","8434427","8434464","http://www.edline.net/pages/glendale","PK05"
"PUBLIC","Marshall","John Marshall High School","1300 Wheeling Avenue ","Glen Dale","26038","","8434444","8434419","http://jmhs.mars.k12.wv.us/","0912"
"PUBLIC","Marshall","Cameron Elementary School","12 Church Street ","Cameron","26033","","6863305","6863502","http://boe.mars.k12.wv.us/cameronelem/index.htm","PK06"
"PUBLIC","Marshall","Sherrard Middle School","1000 Fairmont Pike ","Wheeling","26003","","2333331","2336418","http://boe.mars.k12.wv.us/sherrard/index.htm","0608"
"PUBLIC","Marshall","Hilltop Elementary School","2 Ram Drive ","Wheeling","26003","","2328640","2321044","","PK05"
"NON-PUBLIC","Marshall","St James & John School","52 Seventh Street ","Benwood","26031","","2321587","","",""
"PUBLIC","Marshall","Sand Hill Elementary School","Rr 1 Box 87 ","Dallas","26036","","5475041","5475041","http://boe.mars.k12.wv.us/sandhill/index.htm","0K05"
"NON-PUBLIC","Marshall","Bishop Donahue Memorial High School","325 Logan Street ","Mcmechen","26040","","2333850","","http://www.bishopdonahue.org",""
"PUBLIC","Marshall","Center Mcmechen Elementary School","800 Marshall Street ","Mcmechen","26040","","2326530","2326520","http://boe.mars.k12.wv.us/centermcmechen/index.htm","PK05"
"PUBLIC","Marshall","Gateway Achievement Center","21 Park Street ","Moundsville","26041","","8434526","8434528","","0912"
"PUBLIC","Marshall","Central Elementary School","750 Tomlinson Avenue ","Moundsville","26041","","8434425","8434426","http://boe.mars.k12.wv.us/central/index.htm","0305"
"PUBLIC","Marshall","Cameron High School","61 Maple Avenue ","Cameron","26033","","6863336","6863510","http://boe.mars.k12.wv.us/cameron/index.htm","0712"
"NON-PUBLIC","Mason","Wesleyan Holiness Academy","2300 Lincoln Avenue ","Point Pleasant","25550","","6751180","","",""
"PUBLIC","Mason","Beale Elementary School","12897 Huntington Road","Gallipolis Ferry","25515","","6751260","6751261","http://beale.maso.k12.wv.us","PK06"
"PUBLIC","Mason","Wahama High School","P.o. Box 348 ","Mason","25260","","7735539","7735216","http://whs.maso.k12.wv.us","0712"
"PUBLIC","Mason","Hannan High School","15638 Ashton Upland Road ","Ashton","25503","","7433212","7434513","","0712"
"PUBLIC","Mason","Pt. Pleasant Primary","2200 Lincoln Ave ","Pt. Pleasant","0","","6751420","6751474","","PK02"
"PUBLIC","Mason","Roosevelt Elementary School","Route 2 Box 841 ","Point Pleasant","25550","","6753337","6757331","http://roosevelt.maso.k12.wv.us/index.html","0K06"
"NON-PUBLIC","Mason","Christ Academy","P.o. Box 224 ","Point Pleasant","25550","","6751559","","",""
"PUBLIC","Mason","Leon Elementary School","138 Aylor Street ","Leon","25123","","4581710","4582049","","PK06"
"PUBLIC","Mason","Mason County Career Center","281 Scenic Drive ","Point Pleasant","25550","","6753039","6753413","",""
"ADMINISTRATIVE","Mason","Mason County Schools","1 Education Lane","Point Pleasant","25550","","6754540","6757226","http://boe.maso.k12.wv.us",""
"PUBLIC","Mason","Point Pleasant Junior/Senior High School","Rt. 1 Box 4 ","Point Pleasant","25550","","6751350","6757480","http://pphs.maso.k12.wv.us/","0712"
"PUBLIC","Mason","Pt. Pleasant Intermediate","1 Walden Way ","Pt. Pleasant","0","","6751430","6752110","","0306"
"PUBLIC","Mason","Ashton Elementary School","4250 Ashton-Upland Road ","Ashton","25503","","5769931","5769935","http://ashton.maso.k12.wv.us","PK06"
"PUBLIC","Mason","Mason County School For Success","758 Scenic Drive","Point Pleasant","25550","","","","",""
"PUBLIC","Mason","New Haven Elementary School","P.o. Box 989 ","New Haven","25265","","8822025","8822037","","PK06"
"PUBLIC","McDowell","River View High School","512 Mountaineer Highway ","Bradshaw","24817","","9677480","","","0912"
"PUBLIC","McDowell","Southside K-8","Po Box 730 ","War","24892","","8752283","8752238","","PK08"
"PUBLIC","McDowell","Kimball Elementary School","Box 308 Route #52","Kimball","24853","","5857570","5857165","","PK05"
"NON-PUBLIC","McDowell","Nazarene Christian Academy","1049 Riverside Drive ","Welch","24801","","4363827","","",""
"PUBLIC","McDowell","Fall River Elementary School","Route 7 Drawer 70 ","Big Sandy","24816","","6567665","6567430","","PK05"
"PUBLIC","McDowell","Career And Technology Center","Drawer V ","Welch","24801","","4363488","4368063","",""
"PUBLIC","McDowell","Anawalt Elementary School","Box 230 ","Anawalt","24808","","3834849","3834674","","PK05"
"PUBLIC","McDowell","Mount View High School","960 Mount View Road ","Welch","24801","","4362939","4364714","","0612"
"PUBLIC","McDowell","Sandy River Middle School","P.o. Box 419 ","Avondale","24811","","9382407","9382418","","0608"
"PUBLIC","McDowell","Welch Elementary School","1235 Stewart Street ","Welch","24801","","4364645","4364049","","PK05"
"PUBLIC","McDowell","Iaeger Elementary School","P.o. Box 359 Waters Street","Iaeger","24844","","9382227","9385258","","PK05"
"NON-PUBLIC","McDowell","Twin Branch Pentecostal Academy","Po Box 580 ","Davy","24828","","6567448","","",""
"PUBLIC","McDowell","Bradshaw Elementary School","P.o. Box 40 ","Bradshaw","24817","","9677700","9677701","","PK05"
"PUBLIC","McDowell","Phoenix Center","275 Virginia Avenue ","Welch","24801","","4362336","4364773","",""
"ADMINISTRATIVE","McDowell","McDowell County Schools","30 Central Avenue ","Welch","24801","","4368441","4364008","http://boe.mcdo.k12.wv.us/",""
"PUBLIC","Mercer","Pikeview Middle School","3550 Eads Mill Road ","Princeton","24740","3325","","","","0608"
"PUBLIC","Mercer","Mercer Elementary School","1200 Mercer Street ","Princeton","24740","3032","4253160","4873617","","0305"
"PUBLIC","Mercer","Princeton Primary","219b Old Bluefield Road ","Princeton","24740","8904","4873904","4872649","","0K02"
"PUBLIC","Mercer","Melrose Elementary School","Hc 71, Box 257 ","Princeton","24740","9010","4253757","4870819","","0K05"
"NON-PUBLIC","Mercer","Mercer Christian Academy","314-A Oakvale Road ","Princeton","24740","","4871603","4255671","http://www.mercerchristianacademy.org",""
"PUBLIC","Mercer","Mercer County Early Learning Center","821 Broadway Street ","Princeton","24740","2831","4254251","4255117","","PKPK "
"PUBLIC","Mercer","Glenwood School","1734 Glenwood Park Road ","Princeton","24740","7965","4252445","4870047","","0K08"
"PUBLIC","Mercer","Pikeview High School","3566 Eads Mill Road ","Princeton","24740","8307","3847586","3847901","","0912"
"PUBLIC","Mercer","Sun Valley Elementary School","Po Box 10 ","Lerona","25971","10","3847441","3843114","","0K05"
"PUBLIC","Mercer","Brushfork Elementary School","Rt 4  Box 93 ","Bluefield","24701","9213","3257066","3252574","","0K05"
"PUBLIC","Mercer","Montcalm High School","5366 Simmons River Road","Rock","24747","710","5893719","5897140","","0712"
"PUBLIC","Mercer","Spanishburg School","Po Box 7 ","Spanishburg","25922","7","4255854","4251229","","PK05"
"PUBLIC","Mercer","Athens School","Po Box 568 ","Athens","24712","568","3849229","3847946","","PK05"
"PUBLIC","Mercer","Princeton Middle School","300 N. Johnston Street ","Princeton","24740","2650","4257517","4872250","","0608"
"PUBLIC","Mercer","Montcalm Elementary School","Rt 2 Box 35 ","Rock","24747","9610","5895202","5897095","","PK06"
"PUBLIC","Mercer","Bluefield Middle School","2002 Stadium Drive ","Bluefield","24701","3325","3252481","3252156","http://familyeducation.com/wv/bms/","0608"
"PUBLIC","Mercer","Memorial Primary","319  Memorial Avenue ","Bluefield","24701","4939","3278016","3273933","","0K02"
"PUBLIC","Mercer","Bluefield Intermediate","1301 Southview Drive ","Bluefield","24701","4317","3278339","3278348","","0305"
"PUBLIC","Mercer","Lashmeet/Matoaka School","Po  Box 408 ","Matoaka","24736","408","4678282","4677477","http://www.geocities.com/lms-24736/","PK05"
"PUBLIC","Mercer","Mercer County Technical Education Center","1397 Stafford Drive ","Princeton","24740","8230","4259551","4250833","http://www.edline.net/pages/mercer_county_technical_educat",""
"PUBLIC","Mercer","Whitethorn Elementary School","1919 Maryland Avenue ","Bluefield","24701","4425","3276217","3243894","","0K02"
"PUBLIC","Mercer","Ceres Elementary School","Rt 2  Box 189 ","Bluefield","24701","9631","3256786","3275516","","0K05"
"PUBLIC","Mercer","Princeton Senior High School","1321 Stafford Drive ","Princeton","24740","2467","4258101","4252823","","0912"
"PUBLIC","Mercer","Straley Elementary School","810 Straley Avenue ","Princeton","24740","2926","4253173","4872724","","0305"
"PUBLIC","Mercer","Bluewell Elementary School","Rt 4  Box 480 ","Bluefield","24701","9286","5895057","5893723","","PK05"
"PUBLIC","Mercer","Bluefield High School","535 West Cumberland Road ","Bluefield","24701","4654","3259116","3250529","","0912"
"PUBLIC","Mercer","Oakvale School","2503 Goodwins Chapel Road ","Princeton","24740","4484","8983731","8982031","","PK05"
"ADMINISTRATIVE","Mercer","Mercer County Schools","1403 Honaker Avenue ","Princeton","24740","3065","4871551","4255844","http://boe.merc.k12.wv.us/",""
"PUBLIC","Mineral","Burlington Primary","10474 Patterson Creek Road","Burlington","26710","","2893073","2895116","http://burlington.mine.k12.wv.us","PK05"
"PUBLIC","Mineral","Mineral County Alternative School","89 Baker Place","Keyser","26726","","7884213","7888423","","0912"
"PUBLIC","Mineral","Elk Garden School","86 Elk Garden Highway","Elk Garden","26717","","4465141","4465425","http://elkgarden.mine.k12.wv.us","PK05"
"PUBLIC","Mineral","Frankfort High School","393 Falcon Way","Ridgeley","26753","","7264767","7268597","http://fhs.mine.k12.wv.us/","0912"
"PUBLIC","Mineral","Frankfort Middle School","356 Golden Drive","Ridgeley","26753","","7264339","7264339","http://fms.mine.k12.wv.us","0508"
"PUBLIC","Mineral","New Creek Primary School","PO Box 97, 85 New Creek School Road","New Creek","26743","","7884249","7884208","http://boe.mine.k12.wv.us/newcreekprimaryschool_home.aspx","PK04"
"PUBLIC","Mineral","Fort Ashby Primary School","44 Fort Ashby Primary School Road","Ft. Ashby","26719","","2983632","2983200","http://fortashby.mine.k12.wv.us","0K02"
"PUBLIC","Mineral","Mineral County Technical Center","981 Harley O. Staggers Drive ","Keyser","26726","","7884240","7884243","http://mctc.mine.tec.wv.us/",""
"PUBLIC","Mineral","Keyser Middle School","879 Harley O. Staggers Drive ","Keyser","26726","","7884220","7884225","","0K08"
"PUBLIC","Mineral","Keyser High School","328 One Tornado Way","Keyser","26726","","7884230","7884234","http://khs.mine.k12.wv.us/","0912"
"ADMINISTRATIVE","Mineral","Mineral County Schools","36 Baker Pl","Keyser","26726","","7884200","7884204","http://boe.mine.k12.wv.us/",""
"PUBLIC","Mineral","Frankfort Intermediate School","284 Intermediate Drive","Fort Ashby","26719","","2983616","2983557","http://fis.mine.k12.wv.us","PK04"
"PUBLIC","Mineral","Wiley Ford Primary School","PO Box 20 ","Wiley Ford","26767","","7380400","7383633","http://wileyford.mine.k12.wv.us","PK02"
"PUBLIC","Mineral","Fountain Primary School","289 Fountain School Road","Keyser","26726","","7884215","7884229","","PK04"
"PUBLIC","Mineral","Keyser Primary School","1123 Harley O. Staggers Drive","Keyser","26726","","7884508","7884510","",""
"NON-PUBLIC","Mineral","Small World Academy (Ex K)","Luann Miller PO Box 1460","Fort Ashby","26719","","2983736","","",""
"NON-PUBLIC","Mingo","Sacred Heart","Williamson, Wv 25661 ","","0","","2353029","","",""
"PUBLIC","Mingo","Williamson PK-8","Alderson Street ","Williamson","25661","","2353430","2355567","http://www.geocities.com/athens/pantheon/5711","PK08"
"PUBLIC","Mingo","Mingo Central Comprehensive High","1000 King Coal Highway","Delbarton","25670","","","","","0912"
"PUBLIC","Mingo","Mingo County Extended Learning Center","Rt. 2 Box 52-A","Delbarton","25670","","4753347","4753797","",""
"PUBLIC","Mingo","Matewan Elementary School","100 Chambers Street ","Matewan","25678","","4264719","4264732","","PK04"
"PUBLIC","Mingo","Williamson High School","801 Alderson Street ","Williamson","25661","","2352518","2356590","","0912"
"PUBLIC","Mingo","Gilbert Elementary","Rt. 52 Elementary School Dr. ","Gilbert","25621","","6645042","6649723","","PK04"
"PUBLIC","Mingo","Gilbert High School","100 Lion Drive ","Gilbert","25621","","6648197","6648249","","0712"
"PUBLIC","Mingo","Burch Pk-6","Rt. 3 Box 4-B ","Delbarton","25670","","4752141","4752627","","PK04"
"NON-PUBLIC","Mingo","Jammie Darrian Christian Academy","Po Box 402 Gilbert, Wv 25621","","0","","6643763","","",""
"PUBLIC","Mingo","Gilbert Middle School","100 Lion Drive ","Gilbert","25621","","6648197","6648249","","0508"
"ADMINISTRATIVE","Mingo","Mingo County Schools","110 Cinderella Road","Williamson","25661","","2353333","","http://www.mingoboe.us/",""
"NON-PUBLIC","Mingo","Regional Christian School","Us Route 52 Po Box 236","Delbarton","0","","4753468","","",""
"PUBLIC","Mingo","Matewan PK-8","200 Tiger Lane ","Matewan","25678","","4268569","4264480","http://www.angelfire.com/wv2/matewanmiddle/","PK08"
"PUBLIC","Mingo","Mingo Career & Technical Center","Route 2 Box 52 A ","Delbarton","25670","","4753347","4753797","http://mcvtc.ming.tec.wv.us","1112"
"PUBLIC","Mingo","Kermit Area School (K-8)","Blue Devil Lane ","Kermit","25674","","3934130","3934137","","PK08"
"PUBLIC","Mingo","Tug Valley High School","555 Panther Drive ","Williamson","25661","","2352266","2352636","http://www.homestead.com/tugvalleyhigh","0912"
"PUBLIC","Mingo","Riverside Elementary School","5 Parkway Drive ","Williamson","25661","","2352521","2352520","","PK04"
"PUBLIC","Mingo","Matewan High School","100 Tiger Lane ","Matewan","25678","","4266555","4266292","http://www.angelfire.com/wv/matewanhigh","0912"
"PUBLIC","Mingo","Dingess Elementary School","101 Schoolhouse Rd. ","Dingess","25671","","7527036","7527036","","PK04"
"PUBLIC","Mingo","Burch High School","Rt. 2 Box 521-A ","Delbarton","25670","","4752700","4755106","","0712"
"PUBLIC","Mingo","Lenore K-8 School","#1 Ranger Drive ","Williamson","25661","","4752458","4752411","","PK08"
"NON-PUBLIC","Mingo","Omega Bible Academy","Po Box 217 North Matewan, Wv","","0","","4264235","","",""
"PUBLIC","Mingo","Burch PK-8","Rt. 2 Box 52-1a ","Delbarton","25670","","4752700","4755106","","0508"
"NON-PUBLIC","Monongalia","Alliance Christian School","200 Trinity Way ","Morgantown","26505","","2914659","","",""
"PUBLIC","Monongalia","Mason-Dixon  Elementary","7041 Mason Dixon Highway ","Blacksville","26521","","6626113","6626167","http://boe.mono.k12.wv.us/mason/index.html","PK05"
"PUBLIC","Monongalia","University High School","131 Baker`s Ridge Road ","Morgantown","26508","","2919270","2919248","http://hawks.mono.k12.wv.us/","0912"
"PUBLIC","Monongalia","Cheat Lake Elementary School","154 Crosby Road ","Morgantown","26508","","5942772","5942283","http://boe.mono.k12.wv.us/cles","PK05"
"PUBLIC","Monongalia","Clay-Battelle High School","Drawer A ","Blacksville","26521","","4328208","4328189","","0612"
"PUBLIC","Monongalia","North Elementary School","825 Chestnut Ridge Road ","Morgantown","26505","","2919280","2919213","http://boe.mono.k12.wv.us/nes/","PK05"
"PUBLIC","Monongalia","Eastwood Elementary School","677 201 St. Memorial Hwy","Morgantown","26505","8226","2848226","","",""
"NON-PUBLIC","Monongalia","Covenant Christian School","P.o. Box 342 ","Morgantown","26507","","2926050","","",""
"PUBLIC","Monongalia","South Middle School","500 East Parkway Drive ","Morgantown","26501","","2919340","2919306","","0608"
"PUBLIC","Monongalia","Brookhaven Elementary School","1215 Baker Street ","Morgantown","26508","","2919236","2849355","","PK05"
"NON-PUBLIC","Monongalia","Maranatha Christian Academy","275 Canyon Road ","Morgantown","26508","","5943717","","",""
"PUBLIC","Monongalia","Mountaineer Middle School","991 Price Street ","Morgantown","26505","","2842856","2842409","","0608"
"NON-PUBLIC","Monongalia","Morgantown Early Learning Facility","302 Scott Avenue ","Morgantown","26505","","2915845","","",""
"PUBLIC","Monongalia","Skyview Elementary School","668 River Road ","Morgantown","26501","","2842890","2842894","","PK05"
"PUBLIC","Monongalia","Technical Education Center","1000 Mississippi Street ","Morgantown","26501","","2919240","2919247","",""
"PUBLIC","Monongalia","Mountainview Elementary School","661 Greenbag Road ","Morgantown","26508","","2919255","2919254","","PK05"
"PUBLIC","Monongalia","Morgantown High School","109 Wilson Avenue ","Morgantown","26501","","2919260","2919263","http://boe.mono.k12.wv.us/mhs/","0912"
"PUBLIC","Monongalia","Suncrest Primary","523 Junior Avenue ","Morgantown","26505","","2919347","2849388","","PK03"
"NON-PUBLIC","Monongalia","St. Francis Central Catholic School","41 Gutherie Lane ","Morgantown","26505","","2915070","","http://falcon.sfcc.pvt.k12.wv.us",""
"PUBLIC","Monongalia","Suncrest Middle School","360 Baldwin Street ","Morgantown","26505","","2919335","2849362","http://boe.mono.k12.wv.us/suncrestmiddle/","0608"
"PUBLIC","Monongalia","Ridgedale Elementary School","1550 Goshen Road ","Morgantown","26508","","2919231","2919215","","PK05"
"NON-PUBLIC","Monongalia","Trinity Christian School","200 Trinity Way ","Morgantown","26505","","2914659","","http://www.tcswv.org",""
"PUBLIC","Monongalia","Westwood Middle School","670 River Road ","Morgantown","26501","","2919300","2849368","http://boe.mono.k12.wv.us/westwood","0608"
"ADMINISTRATIVE","Monongalia","Monongalia County Schools","13 South High Street ","Morgantown","26501","","2919210","2913015","http://boe.mono.k12.wv.us",""
"NON-PUBLIC","Monongalia","Morgantown Learning Academy","123 Discovery Place ","Morgantown","26508","","2969554","","http://www.learningacademy.org",""
"PUBLIC","Monongalia","Mylan Park Elementary School","901 Mylan Park Lane ","Morgantown","26501","","9837700","9837704","","PK05"
"PUBLIC","Monroe","James Monroe High School","Rt. 1 Box 97-1-A James Monroe Drive","Lindside","24951","","7535182","7535184","http://jmhs.monroe.k12.wv.us/","0912"
"PUBLIC","Monroe","Mountain View Elementary & Middle School","Mt. View Drive P.o. Box 620","Union","24983","","7724903","7724907","http://mountainview.monroe.k12.wv.us/","PK08"
"ADMINISTRATIVE","Monroe","Monroe County Schools","PO Box 330","Union","24983","","7723094","7725020","http://boe.monroe.k12.wv.us/",""
"PUBLIC","Monroe","Monroe County Vocational Center","Route 1, Box 97 James Monroe Drive","Lindside","24951","","7539971","7539272","",""
"PUBLIC","Monroe","Peterstown Middle School","108 College Drive ","Peterstown","24963","","7534322","7535376","http://peterstown.monroe.k12.wv.us/","0508"
"PUBLIC","Monroe","Peterstown Elementary","36 College Drive ","Peterstown","24963","","7534328","7534786","http://pms.monroe.k12.wv.us/","PK04"
"PUBLIC","Morgan","Berkeley Springs High School","149 Concord Avenue ","Berkeley Springs","25411","","2582871","2585058","http://www.edline.net/pages/Morgan_County_Schools/Schools","0912"
"PUBLIC","Morgan","Warm Springs Intermediate School","575 Warm Springs Way ","Berkeley Springs","25411","","2580031","","","0305"
"PUBLIC","Morgan","Pleasant View Elementary School","10500 Martinsburg Road ","Hedgesville","25427","","3042606","2587993","http://www.edline.net/pages/Morgan_County_Schools/Schools","0K05"
"PUBLIC","Morgan","Greenwood Elementary School","8989 Winchester Grade Road ","Berkeley Springs","25411","","2582372","","http://www.edline.net/pages/Morgan_County_Schools/Schools","0K05"
"PUBLIC","Morgan","Paw Paw High School","60 Pirate Circle ","Paw Paw","25434","","9477425","9475513","http://www.edline.net/pages/Morgan_County_Schools/Schools","0712"
"PUBLIC","Morgan","Warm Springs Middle School","271 Warm Springs Way ","Berkeley Springs","25411","","2581500","2584600","http://www.edline.net/pages/Morgan_County_Schools/Schools","0608"
"PUBLIC","Morgan","Widmyer Elementary","10 Myers Road ","Berkeley Springs","25411","","2582024","","","PK02"
"PUBLIC","Morgan","Paw Paw Elementary School","60 Pirate Circle ","Paw Paw","25434","","3047425","9475513","http://www.edline.net/pages/Morgan_County_Schools/Schools","0K06"
"ADMINISTRATIVE","Morgan","Morgan County Schools","247 Harrison Avenue ","Berkeley Springs","25411","","2582430","2589146","http://www.MorganSchools.net",""
"PUBLIC","Nicholas","Richwood High School","1 Valley Ave. ","Richwood","26261","","8462591","8462684","http://rhs.nich.k12.wv.us","0912"
"PUBLIC","Nicholas","Gauley River Elementary","100 School Street","Craigsville","26205","","7425271","","",""
"PUBLIC","Nicholas","Summersville Middle School","40 Grizzly Rd ","Summersville","26651","","8725092","8726314","","0608"
"PUBLIC","Nicholas","Birch River Elementary School","379 Birch River Road ","Birch River","26610","","6492651","6492651","","PK05"
"PUBLIC","Nicholas","Panther Creek Elementary School","10068 Canvas Nettie Road P.o.box 39","Nettie","26681","","8466808","8462144","","PK05"
"PUBLIC","Nicholas","Summersville Elementary School","108 Mckees Creek Rd ","Summersville","26651","","8721421","8721444","","PK05"
"NON-PUBLIC","Nicholas","Summersville Seventh Day Adventist","70 Friends-R-Fun Drive ","Summersville","26651","","8720588","","",""
"PUBLIC","Nicholas","Mt Lookout Elementary School","1945 Mt. Lookout Road ","Mt Lookout","26678","","8722731","8722731","http://mtlookout.nich.k12.wv.us","PK05"
"PUBLIC","Nicholas","Nicholas County Career/Technical Center","215 Milam Addition Rd ","Craigsville","26205","","7425416","7423024","http://ncctc.nich.tec.wv.us/index.htm","1111"
"PUBLIC","Nicholas","Dixie Elementary School","Po Box 288 1988 Dixie Highway","Dixie","25059","","6321323","6321323","","PK05"
"PUBLIC","Nicholas","Nicholas County High School","30 Grizzly Rd ","Summersville","26651","","8722141","8723026","http://welcome.to/NCHS/","0912"
"PUBLIC","Nicholas","Cherry River Elementary School","190 Riverside Drive ","Richwood","26261","","8466646","8466897","http://cherryriver.nich.k12.wv.us/","PK05"
"PUBLIC","Nicholas","Richwood Middle School","2 Valley Avenue ","Richwood","26261","","8462638","8469632","","0608"
"PUBLIC","Nicholas","Zela Elementary School","165 Country Road ","Summersville","26651","","8721481","8721481","","PK05"
"ADMINISTRATIVE","Nicholas","Nicholas County Schools","400 Old Main Drive ","Summersville","26651","","8723611","8724626","http://boe.nich.k12.wv.us",""
"PUBLIC","Nicholas","Mt Nebo Elementary School","Po Box 160 110 Schoolhouse Lane","Mt. Nebo","26651","","8722440","8722440","","PK05"
"NON-PUBLIC","Nicholas","New Life Christian Academy","89 Broad Street ","Summersville","26651","","8721148","","",""
"PUBLIC","Nicholas","Glade Creek Elementary School","7950 Webster Road ","Summersville","26651","","8722882","8722882","","PK05"
"NON-PUBLIC","Ohio","Augusta Levy Learning Center","99 N0rth Main Street ","Wheeling","26003","","2426722","","",""
"PUBLIC","Ohio","West Liberty Elementary School","745 Van Meter Way ","Wheeling","26003","9205","3367221","3367222","","0K05"
"NON-PUBLIC","Ohio","Youth Services System","1000 Chapline St ","Wheeling","26003","","2332480","","",""
"PUBLIC","Ohio","Ritchie Elementary School","3700 Wood St ","Wheeling","26003","4399","2430372","2430373","","PK05"
"NON-PUBLIC","Ohio","St Vincent De Paul School","127 Key Ave ","Wheeling","26003","","2425844","2431624","",""
"NON-PUBLIC","Ohio","Wheeling Country Day School","8 Park Rd ","Wheeling","26003","","2322430","2322434","",""
"PUBLIC","Ohio","Madison Elementary School","91 Zane St ","Wheeling","26003","2292","2430366","2430457","","PK05"
"NON-PUBLIC","Ohio","Corpus Christi Grade School","1512 Warwood Ave ","Wheeling","26003","","2771220","2772823","",""
"PUBLIC","Ohio","Wheeling Middle School","35th and Chapline St ","Wheeling","26003","1916","2430425","2430426","","0608"
"PUBLIC","Ohio","Bethlehem Elementary School","22 Chapel Rd ","Wheeling","26003","4816","2430350","2430351","","0K05"
"NON-PUBLIC","Ohio","Wheeling Catholic Elementary School","77 Fourteenth St ","Wheeling","26003","","2331515","2331516","",""
"PUBLIC","Ohio","Triadelphia Middle School","1636 National Rd ","Wheeling","26003","5598","2430387","2430392","","0608"
"NON-PUBLIC","Ohio","Lyceum Preparatory Academy","83 14th Street ","Wheeling","26003","","2328088","","",""
"PUBLIC","Ohio","Woodsdale Elementary School","1 Bethany Pike ","Wheeling","26003","6193","2430378","2430379","","PK05"
"NON-PUBLIC","Ohio","Abundant Life Christian","Rr2 - Box 445a ","Triadelphia","26059","","5474375","","",""
"PUBLIC","Ohio","Steenrod Elementary School","100 Clarks Ln ","Wheeling","26003","1454","2430354","2430357","","PK05"
"NON-PUBLIC","Ohio","Linsly School","60 Knox Ln ","Wheeling","26003","","2333260","","http://www.linsly.org",""
"PUBLIC","Ohio","Middle Creek Elementary School","579 Middle Creek Road ","Triadelphia","26059","9710","2430369","2430371","","PK05"
"NON-PUBLIC","Ohio","St Michaels School","1221 National Rd ","Wheeling","26003","","2423966","2435710","",""
"PUBLIC","Ohio","Wheeling Park High School","1976 Park View Rd ","Wheeling","26003","9311","2430400","2430449","http://wphs.ohio.k12.wv.us","0912"
"PUBLIC","Ohio","Elm Grove Elementary School","85 Mil Acres Dr ","Wheeling","26003","9614","2430363","2430364","http://wphs.ohio.k12.wv.us/elmgrove/index.html","PK05"
"NON-PUBLIC","Ohio","Central Catholic High School","75 14th St ","Wheeling","26002","","2331660","2333187","",""
"PUBLIC","Ohio","Warwood School","150 Viking Dr ","Wheeling","26003","7027","2430394","2430375","http://wphs.ohio.k12.wv.us/warwood/wms1.htm","PK08"
"ADMINISTRATIVE","Ohio","Ohio County Schools","2203 National Road ","Wheeling","26003","5203","2430300","2430328","http://boe.ohio.k12.wv.us",""
"NON-PUBLIC","Ohio","Sikora Montessori","2108 Lumber Avenue ","Wheeling","26003","","9058453","","",""
"PUBLIC","Ohio","Bridge Street Middle School","19 Junior Ave ","Wheeling","26003","4897","2430381","2430385","","0608"
"PUBLIC","Pendleton","Brandywine Elementary School","11480 Blue Gray Trail P. O. Box 247","Brandywine","26802","","2495381","2495226","http://www.pendletoncountyschools.com/bes/index.htm","PK06"
"PUBLIC","Pendleton","Pendleton County Middle/High School","Po Box 40 409 Maple Avenue","Franklin","26807","40","3582573","3587701","http://www.pendletoncountyschools.com/pchs/index.htm","0712"
"PUBLIC","Pendleton","Franklin Elementary School","67 South Branch Street Po Box 848","Franklin","26807","848","3042206","3587628","http://www.pendletoncountyschools.com/fes/index.htm","PK06"
"ADMINISTRATIVE","Pendleton","Pendleton County Schools","PO Box 888","Franklin","26807","","3582207","3582936","http://www.pendletoncountyschools.com",""
"PUBLIC","Pendleton","North Fork Elementary School","Po Box 186, 189 Price Way","Circleville","26804","","5673193","5673196","http://www.pendletoncountyschools.com/nfes/index.htm","PK06"
"PUBLIC","Pleasants","Mid Ohio Valley Technical Institute","2134 N Pleasants Highway ","St Marys","26170","","6842464","6842544","http://www.pleasantscountyschools.com/movti.aspx",""
"PUBLIC","Pleasants","Pleasants County Middle School","510 Riverview Drive ","Belmont","26134","","2995275","6652451","http://www.pleasantscountyschools.com/pcms.aspx","0508"
"PUBLIC","Pleasants","Belmont Elementary School","512 Riverview Drive ","Belmont","26134","","2995274","6652408","http://www.pleasantscountyschools.com/bes.aspx","PK04"
"NON-PUBLIC","Pleasants","Apostolic School","712 Sixth Street ","St. Marys","26170","","6847675","","",""
"PUBLIC","Pleasants","St. Marys High School","2330 N Pleasants Hwy","St Marys","26170","","6842421","6843859","http://www.pleasantscountyschools.com/smhs.aspx","0912"
"PUBLIC","Pleasants","St. Marys Elementary School","317 Washington Street ","St Marys","26170","","6843510","6842640","http://www.pleasantscountyschools.com/smes.aspx","PK04"
"ADMINISTRATIVE","Pleasants","Pleasants County Schools","202 Fairview Drive","St. Marys","26170","","6842215","6843569","http://www.pleasantscountyschools.com",""
"ADMINISTRATIVE","Pocahontas","Pocahontas County Schools","926 Fifth Avenue ","Marlinton","24954","","7994505","7994499","http://pocahontas-k12.wvnet.edu/boe/",""
"PUBLIC","Pocahontas","Pocahontas County High School","Route 1, Box 133a ","Dunmore","24934","","7996565","7996893","http://pocahontas-k12.wvnet.edu/pchs/","0912"
"PUBLIC","Pocahontas","Marlinton Elementary School","926a Fifth Avenue ","Marlinton","24954","","7996551","7996552","http://pocahontas-k12.wvnet.edu/marlinton/","PK04"
"PUBLIC","Pocahontas","Hillsboro Elementary School","Hc 64, Box 399 ","Hillsboro","24946","","6534221","6534212","http://pocahontas-k12.wvnet.edu/hillsboro/","PK05"
"NON-PUBLIC","Pocahontas","Lamp Of Youth Christian Academy","Po Box 157 ","Green Bank","24944","","4564069","","",""
"PUBLIC","Pocahontas","Marlinton Middle School","Route 2, Box 52s ","Buckeye","24924","","7996773","7997278","http://pocahontas-k12.wvnet.edu/mms","0508"
"PUBLIC","Pocahontas","Green Bank Elementary-Middle School","Route 1, Box 5 ","Green Bank","24944","","4564865","4565162","http://pocahontas-k12.wvnet.edu/greenbank/","PK08"
"PUBLIC","Preston","Terra Alta/East Preston School","1103 East State Avenue ","Terra Alta","26764","","7892344","7892596","","PK08"
"PUBLIC","Preston","Rowlesburg School","46 Center Street ","Rowlesburg","26425","","4549311","4549313","","PK08"
"ADMINISTRATIVE","Preston","Preston County Schools","731 Preston Drive ","Kingwood","26537","1551","3290580","3290720","http://www.prestonboe.com",""
"PUBLIC","Preston","South Preston School","5258 South Preston Highway","Tunnelton","26444","","5682292","5682372","","0K08"
"PUBLIC","Preston","West Preston School","113 Eby School Road","Arthurdale","26520","","8643835","8644037","",""
"PUBLIC","Preston","Central Preston Middle School","500 Knight Drive ","Kingwood","26537","","3290033","3292389","","0608"
"PUBLIC","Preston","Fellowsville Elementary","139 Fellowsville School Rd ","Tunnelton","26444","","8924456","8923866","","PK05"
"PUBLIC","Preston","Bruceton School","P.o. Box 141 141 Morgantown Street","Bruceton Mills","26525","","3792593","3794079","http://www.brucetonschool.org","PK08"
"PUBLIC","Preston","Aurora Elementary","125 Aurora School Road ","Aurora","26705","","7353781","7356805","","PK08"
"PUBLIC","Preston","Preston High School","400 Knight Drive ","Kingwood","26537","1553","3290400","3293528","","0912"
"PUBLIC","Preston","Kingwood Elementary","207 S Price Street ","Kingwood","26537","","3291034","3291035","http://glade.webs.k12.wv.us/~kinelem","PK05"
"PUBLIC","Putnam","Poca Middle School","P.o. Box 647 Route 62 South","Poca","25159","","7557343","7558930","http://www.putnamschools.com/pms","0608"
"PUBLIC","Putnam","Hometown Elementary","P.o. Box 249 Route 62 North","Hometown","25109","","5862395","5862395","","PK05"
"NON-PUBLIC","Putnam","Truth & Liberty Christian School","P.o. Box 151 ","Hurricane","25526","","5629740","","",""
"PUBLIC","Putnam","George Washington Middle School","P.o. Box 660 Route 62 North","Eleanor","25070","","5862875","5863037","http://www.putnamschools.com/gwms/","0608"
"PUBLIC","Putnam","Eastbrook Elementary School","1600 Bills Creek Road ","Winfield","25213","","7559835","","","PK05"
"NON-PUBLIC","Putnam","Calvary Baptist Academy","3655 Teays Valley Road ","Hurricane","25526","","7576768","","",""
"PUBLIC","Putnam","Winfield Elementary","2 Wall Street ","Winfield","25213","","5862565","5865351","","PK05"
"PUBLIC","Putnam","Confidence Elementary","Hc Box 163 ","Red House","25168","","5862041","5860748","","PK05"
"PUBLIC","Putnam","Winfield High School","3022 Winfield Road ","Winfield","25213","","5863279","5863601","","0912"
"PUBLIC","Putnam","Scott Teays Elementary","4308 Teays Valley Road ","Scott Depot","25560","","7577279","7574114","","PK05"
"ADMINISTRATIVE","Putnam","Putnam County Schools","77 Courthouse Drive","Winfield","25213","","5860500","5860553","http://www.putnamschools.com",""
"PUBLIC","Putnam","Hurricane High School","3350 Teays Valley Road ","Hurricane","25526","","5623991","5625460","","0912"
"PUBLIC","Putnam","Poca Elementary","P.o. Box 430 Route 62 South","Poca","25159","","7557561","7557561","","PK05"
"PUBLIC","Putnam","Winfield Middle School","3280 Winfield Road ","Winfield","25213","","5863072","5860920","","0608"
"PUBLIC","Putnam","Hurricane Town Elementary","300 Harbour Lane ","Hurricane","25526","","5623610","5623610","","PK05"
"PUBLIC","Putnam","Hurricane Middle","518 Midland Trail ","Hurricane","25526","","5629271","5627163","http://www.putnamschools.com/hms/","0608"
"PUBLIC","Putnam","George Washington Elementary School","P.o. Box 680 Route 62 North","Eleanor","25070","","5862184","5864275","","PK05"
"NON-PUBLIC","Putnam","Teays Valley Christian School","4373 Teays Valley Road ","Scott Depot","25560","","7579550","","http://www.teaysvalleychristian.org",""
"PUBLIC","Putnam","Mountain View Elementary School","3967 Teays Valley Road ","Hurricane","25526","","","","","PK05"
"PUBLIC","Putnam","Conner Street Elementary","445 Conner Street ","Hurricane","25526","","5629351","5623635","","PK05"
"PUBLIC","Putnam","Putnam Career & Technical Center","P.o. Box 640 300 Roosevelt Bldv","Eleanor","25070","","5863494","5864467","",""
"PUBLIC","Putnam","West Teays Elementary","3676 Teays Vly Road ","Hurricane","25526","","7576711","7578098","http://www.putnamschools.com/wtes/index.htm","PK05"
"PUBLIC","Putnam","Buffalo Elementary School","Rt. 2, Box 93 ","Buffalo","25033","","9372651","9372651","","PK05"
"PUBLIC","Putnam","Poca High School","Rt. 1, Box 5b ","Poca","25159","","7555001","7555009","","0912"
"PUBLIC","Putnam","Rock Branch Elementary","4616 1st Avenue ","Nitro","25143","","7551443","","","PK05"
"PUBLIC","Putnam","Buffalo High School","3317 Buffalo Road ","Buffalo","25033","","9372661","9373470","","0912"
"PUBLIC","Putnam","Lakeside Elementary","2550 Us Rt 60 ","Hurricane","25526","","5623630","5623630","","PK05"
"PUBLIC","Raleigh","Bradley Elementary School","210 Bradley School Road ","Mt Hope","25880","","2564605","","","PK05"
"NON-PUBLIC","Raleigh","Sophia Christian Academy","P.o. Box 1285 ","Sophia","25921","","6833227","","",""
"PUBLIC","Raleigh","Park Middle School","212 Park Avenue ","Beckley","25801","","2564586","","","0608"
"PUBLIC","Raleigh","Hollywood Elementary","Po Box 7 ","Macarthur","25873","","2564579","","","PK05"
"NON-PUBLIC","Raleigh","St. Franics De Sales","622 South Oakwood ","Beckley","25801","","2524087","","",""
"PUBLIC","Raleigh","Raleigh-Boone Technical Center","11823 Coal River Road ","Whitesville","25209","","","","",""
"PUBLIC","Raleigh","Beckley Elementary","399 Gray Flats Road ","Beckley","25801","","2564575","2564575","","PK05"
"PUBLIC","Raleigh","Fairdale Elementary School","Po Box 10 ","Fairdale","25839","","9340753","","","PK05"
"NON-PUBLIC","Raleigh","Trinity Christian Academy","P.o. Box 99 ","Macarthur","25873","","2528474","","",""
"PUBLIC","Raleigh","Woodrow Wilson High School","400 Stanaford Road ","Beckley","25801","","2564646","","http://wwhs.rale.k12.wv.us","0912"
"PUBLIC","Raleigh","Marsh Fork Elementary","5690 Coal River Road ","Naoma","25174","","8541951","","","PK05"
"PUBLIC","Raleigh","Crescent Elementary","205 Crescent Road ","Beckley","25801","","2564576","","","PK05"
"NON-PUBLIC","Raleigh","House Of Prayer Christian School","P.o.box 997 ","Sophia","25921","","6839715","","",""
"PUBLIC","Raleigh","Liberty High School","Po Box 265 ","Glen Daniel","25844","","9345306","","","0912"
"PUBLIC","Raleigh","Shady Spring Elementary","Po Box 2009 ","Shady Spring","25918","","2564633","","","PK05"
"PUBLIC","Raleigh","Crab Orchard Elementary","Po Box 727 Rt 16","Crab Orchard","25827","","2564577","","","PK05"
"NON-PUBLIC","Raleigh","Mabscott Christian Academy","P.o. Box 563 ","Mabscott","25871","","2526585","","",""
"PUBLIC","Raleigh","Beckley-Stratton Middle School","401 Gray Flats Road ","Beckley","25801","","2564616","","","0608"
"PUBLIC","Raleigh","Maxwell Hill Elementary","1001 Maxwell Hill Road ","Beckley","25801","","2564599","","","PK05"
"PUBLIC","Raleigh","Clear Fork District Elementary","P.o. Box 127 ","Clear Creek","25044","","8541000","","http://clearforkdistrict.rale.k12.wv.us","PK05"
"NON-PUBLIC","Raleigh","Victory Baptist Academy","P.o. Box 549 ","Beaver","25813","","2554535","","",""
"PUBLIC","Raleigh","Shady Spring Middle School","500 Flat Top Road ","Shady Spring","25918","","2564570","","http://www.edline.net/pages/Shady_Spring_JHS","0608"
"PUBLIC","Raleigh","Lester Elementary","Box 727 ","Lester","25865","","9345885","","","PK05"
"ADMINISTRATIVE","Raleigh","Raleigh County Schools","105 Adair Street ","Beckley","25801","","2564500","2564739","http://boe.rale.k12.wv.us/",""
"NON-PUBLIC","Raleigh","Greater Beckley Christian","P.o. Box 670 ","Prosperity","25909","","2551571","","",""
"PUBLIC","Raleigh","Trap Hill Middle School","665 Coal River Road ","Glen Daniel","25844","","9345392","","","0608"
"PUBLIC","Raleigh","Ghent Elementary","Po Box 350 ","Ghent","25843","","7873631","","","PK05"
"PUBLIC","Raleigh","Academy Of Careers And Technology","390 Stanaford Road ","Beckley","25801","","2564615","","",""
"PUBLIC","Raleigh","Stratton Elementary","1129 South Fayette Street ","Beckley","25801","","2564604","","","PK05"
"PUBLIC","Raleigh","Daniels Elementary","Box 689 4-H Lake Road","Daniels","25832","","2564622","","https://www.edline.net/pages/Daniels_Elementary_School","PK05"
"NON-PUBLIC","Raleigh","Teel Educational Center","219 Front Street ","Beckley","25801","","2539713","","",""
"PUBLIC","Raleigh","Shady Spring High","Po Box 2001 ","Shady Spring","25918","","2564647","","","0912"
"PUBLIC","Raleigh","Sophia-Soak Creek Elementary","Po Box 487 ","Sophia","25921","","6834541","","","PK05"
"PUBLIC","Raleigh","Cranberry-Prosperity Elementary","4575 Robert C Byrd Dr ","Beckley","25801","","2564588","","","PK05"
"NON-PUBLIC","Raleigh","Mt. Tabor Christian School","262 Mt. Tabor Road ","Beckley","25801","","2529739","","",""
"PUBLIC","Raleigh","Independence High School","Po Box 1595 ","Coal City","25823","","6833228","","","0912"
"PUBLIC","Raleigh","Stanaford Elementary School","950 Stanaford Road ","Beckley","25801","","2564626","","","PK05"
"PUBLIC","Raleigh","Coal City Elementary","Po Box 1240 ","Coal City","25823","","6835001","","","PK05"
"NON-PUBLIC","Raleigh","Childrens House","203 South Kanawha Street ","Beckley","25801","","2528569","","",""
"PUBLIC","Raleigh","Independence Middle School","Po Box 1171 ","Sophia","25921","","6834542","","","0608"
"PUBLIC","Raleigh","Mabscott Elementary","Box 174 ","Mabscott","25871","","2564583","","","PK05"
"PUBLIC","Randolph","Elkins Middle School","308 Robert E. Lee Avenue ","Elkins","26241","3299","6369176","6369178","http://boe.rand.k12.wv.us/ems","0608"
"PUBLIC","Randolph","Coalton Elementary School","P.o. Box 129 ","Coalton","26257","129","6369164","6369165","http://boe.rand.k12.wv.us/coalton","PK05"
"PUBLIC","Randolph","North Elementary School","Route 2, Box 320 ","Elkins","26241","9629","6369188","6369188","http://boe.rand.k12.wv.us/north","PK05"
"PUBLIC","Randolph","Homestead Elementary School","P.o. Box 158 ","Dailey","26259","158","3384903","3384908","http://boe.rand.k12.wv.us/homestead","PK05"
"PUBLIC","Randolph","Elkins Third Ward Elementary School","111 Nathan Street ","Elkins","26241","3399","6369183","6369184","http://boe.rand.k12.wv.us/thirdward","PK05"
"PUBLIC","Randolph","Randolph County Alternative Center","40 11th Street ","Elkins","26241","3598","6369150","6369157","http://boe.rand.k12.wv.us/rcalt","0712"
"PUBLIC","Randolph","Beverly Elementary School","P.o. Box 209 ","Beverly","26253","209","6369162","6369163","http://boe.rand.k12.wv.us/beverly","PK05"
"PUBLIC","Randolph","Tygarts Valley Middle/High School","10189 Seneca Trail","Mill Creek","26280","68","3354575","3356963","http://boe.rand.k12.wv.us/tvmhs","0612"
"PUBLIC","Randolph","Harman Elementary/High School","Po Box 130 ","Harman","26270","9999","2274114","2273610","http://boe.rand.k12.wv.us/harman","PK12"
"PUBLIC","Randolph","Valley Head Elementary School","General Delivery ","Valley Head","26294","9999","3394950","3394474","http://boe.rand.k12.wv.us/valleyhead","0K05"
"ADMINISTRATIVE","Randolph","Randolph County Schools","40 Eleventh Street","Elkins","26241","3598","6369150","6369157","http://boe.rand.k12.wv.us",""
"PUBLIC","Randolph","Midland Elementary School","150 Kennedy Drive ","Elkins","26241","9547","6369186","6369187","http://boe.rand.k12.wv.us/midland","PK05"
"PUBLIC","Randolph","George Ward Elementary School","P.o. Box 278 ","Mill Creek","26280","278","3354975","3354976","http://boe.rand.k12.wv.us/georgeward","PK05"
"PUBLIC","Randolph","Randolph Technical Center","200 Kennedy Drive ","Elkins","26241","9527","6369195","6369169","http://boe.rand.k12.wv.us/rcvtc","1111"
"PUBLIC","Randolph","Jennings Randolph Elementary School","101 Scott Ford Road ","Elkins","26241","3099","6369181","6369166","http://boe.rand.k12.wv.us/jenningsrandolph","PK05"
"PUBLIC","Randolph","Elkins High School","100 Kennedy Drive ","Elkins","26241","9547","6369170","6369168","http://boe.rand.k12.wv.us/ehs","0912"
"PUBLIC","Randolph","Pickens Elementary/High School","One Panther Place ","Pickens","26230","9999","9245525","9246460","http://boe.rand.k12.wv.us/pickens","0K12"
"PUBLIC","Ritchie","Ritchie County High School","107 Ritchie County School Rd ","Ellenboro","26346","","8693526","8693031","http://www.ritchieschools.com/ritchiecountyhighschool_home.aspx","0912"
"PUBLIC","Ritchie","Smithville Elementary","P O Box 30 ","Smithville","26178","","4773273","4773118","http://www.ritchieschools.com/smithvilleelementaryschool_home.aspx","PK05"
"PUBLIC","Ritchie","Harrisville Elementary","1201 E Main Street ","Harrisville","26362","","6432220","6432710","http://www.ritchieschools.com/harrisvilleelementaryschool_home.aspx","PK05"
"ADMINISTRATIVE","Ritchie","Ritchie County Schools","134 South Penn Avenue","Harrisville","26362","","6432991","6432994","http://www.ritchieschools.com",""
"NON-PUBLIC","Ritchie","The Highland School, Inc","Rt. 83, Box 56 ","Highland","26346","","8693250","","",""
"PUBLIC","Ritchie","Ritchie County Middle","105 Ritchie County School Rd ","Ellenboro","26346","","8693512","8693519","http://www.ritchieschools.com/ritchiecountymiddleschool_home.aspx","0608"
"PUBLIC","Ritchie","Creed Collins Elementary","512 Collins Avenue ","Pennsboro","26415","","6592140","6593322","http://www.ritichieschools.com/creedcollinselementaryschool_home.aspx","PK05"
"PUBLIC","Ritchie","Ellenboro Elementary","P O Box 219 ","Ellenboro","26346","","8693305","8693306","http://www.ritichieschools.com/ellenboroelementaryschool_home.aspx","PK05"
"PUBLIC","Roane","Roane-Jackson Technical Center","9450 Spencer Rd","Leroy","25252","","3727335","","",""
"PUBLIC","Roane","Spencer Middle School","102 Chapman Avenue ","Spencer","25276","","9276415","9276416","http://www.roanecountyschools.com/sms","0508"
"PUBLIC","Roane","Spencer Elementary School","85 Clay Road ","Spencer","25276","","9276428","9276429","http://www.roanecountyschools.com/spc/","PK04"
"PUBLIC","Roane","Geary Elementary School","P O Box 89 ","Left Hand","25251","","5653721","5653741","","PK08"
"NON-PUBLIC","Roane","Cross Country Christian Academy","170 Hollywood Road ","Newton","25266","","5653399","","",""
"PUBLIC","Roane","Roane County High","One Raider Way ","Spencer","25276","","9276420","9276404","","0912"
"PUBLIC","Roane","Walton Elementary/Middle School","90 School Drive ","Walton","25286","","5776731","5776228","","PK08"
"PUBLIC","Roane","Reedy Elementary School","Roosevelt St ","Reedy","25270","","9276433","","http://www.roanecountyschools.com/res/","PK06"
"ADMINISTRATIVE","Roane","Roane County Schools","813 Capitol Street","Spencer","25276","","9276400","9276402","http://www.roanecountyschools.com",""
"NON-PUBLIC","Summers","Pipestem Christian Academy","P. O. Box 49 ","Pipestem","25979","","4662413","4662413","",""
"PUBLIC","Summers","Grads"," ","","0","","","","",""
"PUBLIC","Summers","Jumping Branch Elementary School","P O  Box 9 ","Jumping Branch","25969","","4666025","4666025","","PK05"
"PUBLIC","Summers","Talcott Elementary School","P O  Box 140 ","Talcott","24981","","4666029","4666004","","PK05"
"PUBLIC","Summers","Summers County High School","One Bobcat Drive ","Hinton","25951","9103","4666040","4666044","","0912"
"PUBLIC","Summers","Summers Middle School","400 Temple St ","Hinton","25951","","4666030","4662271","","0508"
"PUBLIC","Summers","Hinton Area Elementary School","121 Park Avenue ","Hinton","25951","","4666024","4666008","","PK04"
"ADMINISTRATIVE","Summers","Summers County Schools","116 Main Street ","Hinton","25951","","4666000","4666008","http://boe.summers.k12.wv.us",""
"PUBLIC","Taylor","Anna Jarvis Elementary School","650 N. Pike Street ","Grafton","26354","","3044090","2652560","http://www.taylorcountyboe.net/ajes","PK04"
"PUBLIC","Taylor","Taylor County Vocational Center","115 Luby St ","Grafton","26354","","2651050","2651058","http://www.wvonline.com/techcenter",""
"PUBLIC","Taylor","Taylor County Middle School","Rt. 2, Box 148a ","Grafton","26354","","2650722","2654623","http://www.taylorcountyboe.net/tcms","0508"
"PUBLIC","Taylor","Flemington Elementary School","824 Simpson Rd","Flemington","26347","","7394749","7394671","http://www.taylorcountyboe.net/fes","PK04"
"ADMINISTRATIVE","Taylor","Taylor County Schools","71 Utt Drive","Grafton","26354","","2652497","2652508","http://www.taylorcountyboe.net/",""
"NON-PUBLIC","Taylor","Fellowship Christian Academy","1100 W. Main Street ","Grafton","26354","","2655890","","",""
"PUBLIC","Taylor","Grafton High School","400 Riverside Drive ","Grafton","26354","","2653046","2652156","http://www.taylorcountyboe.net/ghs","0912"
"PUBLIC","Taylor","West Taylor Elementary School","200 Morrow Cross Rd","Flemington","26347","","8420490","8420492","http://www.taylorcountyboe.net/wtes","PK04"
"PUBLIC","Tucker","Tucker Valley Elementary Middle School","81 Tucker Valley Road ","Hambleton","26269","","4783606","4784888","http://www.tuckercountyschools.com/tvems.htm","PK08"
"ADMINISTRATIVE","Tucker","Tucker County Schools","100 Education Lane","Parsons","26287","","4782771","4783422","http://www.tuckercountyschools.com",""
"PUBLIC","Tucker","Tucker County High School","116 Mountain Lion Way ","Hambleton","26269","","4782651","4784357","http://www.tuckercountyschools.com/tchs.htm","0912"
"PUBLIC","Tucker","Davis Thomas Elementary Middle School","100 Quail Ridge Rd Po Box 250","Thomas","26292","","4634422","4634424","http://www.tuckercountyschools.com/dtems.htm","PK08"
"ADMINISTRATIVE","Tyler","Tyler County Schools","PO Box 25","Middlebourne","26149","","7582145","7584566","http://tylercountypublicschools.com",""
"PUBLIC","Tyler","Tyler Consolidated Middle School","1993 Silver Knight Drive ","Sistersville","26175","","7589000","7589006","http://tchs.tyle.k12.wv.us/tcms/tcms.htm","0608"
"PUBLIC","Tyler","Arthur I Boreman Elementary School","P O Box 299 ","Middlebourne","26149","","7582152","7582148","","PK05"
"PUBLIC","Tyler","Tyler Consolidated High School","1993 Silver Knight Drive ","Sistersville","26175","","7589000","7589006","","0912"
"PUBLIC","Tyler","Sistersville Elementary School","651 Terrace Circle ","Sistersville","26175","9763","6522601","6522603","","PK05"
"PUBLIC","Upshur","Washington District Elementary","Hc36, Box 234 ","Buckhannon","26201","","4726599","","","PK05"
"PUBLIC","Upshur","Rock Cave Elementary","Rt 2 Box 2f Po Box 130","Rock Cave","26201","","9246969","9246969","","PK05"
"NON-PUBLIC","Upshur","Child Development Center, Wvwc","P. O. 275 ","Buckhannon","0","","4738348","","",""
"PUBLIC","Upshur","French Creek Elementary","Rt.2, Box 305 ","French Creek","26218","","9246381","9246386","","PK05"
"NON-PUBLIC","Upshur","Upshur County Christian Academy","176 S. Kanawha Street ","Buckhannon","26201","","6137827","","",""
"ADMINISTRATIVE","Upshur","Upshur County Schools","102 Smithfield Street ","Buckhannon","26201","","4725480","4720258","http://www.upshurschools.com",""
"PUBLIC","Upshur","Buckhannon Upshur High School","50 B.u. Drive ","Buckhannon","26201","","4723720","4720772","http://buhs.upsh.k12.wv.us/","0912"
"PUBLIC","Upshur","Union Elementary School","20 Heavener Grove Road ","Buckhannon","26201","","4721394","4722780","http://www.edline.net/pages/Union_ES","PK05"
"PUBLIC","Upshur","Tennerton Elementary","Route 6, Box 513 ","Buckhannon","26201","","4721278","4728530","","PK05"
"PUBLIC","Upshur","Hodgesville Elementary","Rt.5, Box 383 ","Buckhannon","26201","","4723212","","","PK05"
"NON-PUBLIC","Upshur","Brushy Fork Christian School","P.o. Box 205 ","Buckhannon","26201","","4720962","","",""
"PUBLIC","Upshur","Buckhannon Academy Elementary School","16 College Avenue ","Buckhannon","26201","","4723310","","","PK05"
"PUBLIC","Upshur","Fred Eberle Technical Center","RR 5 Box 2","Buckhannon","26201","","4721259","","http://fetc.upsh.tec.wv.us/",""
"PUBLIC","Upshur","B-U Middle School","Rt. 6, Box 303 ","Buckhannon","26201","","4721520","4726864","","0608"
"PUBLIC","Wayne","Tolsia High School","#1 Rebel Drive ","Fort Gay","25514","","6485566","6488412","","0912"
"PUBLIC","Wayne","Genoa Elementary School","21269 Rt 152 Road ","Genoa","25517","","3854421","3854427","","PK05"
"PUBLIC","Wayne","Vinson Middle School","3851 Piedmont Road ","Huntington","25704","","4291641","4296162","","0608"
"PUBLIC","Wayne","Buffalo Elementary School","331 Buffalo Creek Road ","Kenova","25530","","4292911","4293269","","PK05"
"PUBLIC","Wayne","Ceredo-Kenova Middle School","P.o. Box 705 4th St. West And High St","Ceredo","25507","","4533588","4534420","","0608"
"PUBLIC","Wayne","East Lynn Elementary School","19594 East Lynn Road","East Lynn","25512","","8493171","8495608","","PK05"
"PUBLIC","Wayne","Prichard Elementary School","500 Prichard Rd.","Prichard","25555","","4865096","4865096","","PK05"
"PUBLIC","Wayne","Spring Valley High School","#1 Timberwolf Drive ","Huntington","25704","","4291699","4297315","","0912"
"PUBLIC","Wayne","Kellogg Elementary School","4415 Piedmont Road ","Huntington","25704","","4294441","4297200","","PK05"
"PUBLIC","Wayne","Crum Pre K-8","150 Crum Road","Crum","25669","","3933200","3933447","","PK08"
"PUBLIC","Wayne","Wayne High School","100 Pioneer Road ","Wayne","25570","","2725639","2726439","http://www.waynepioneers.org","0912"
"PUBLIC","Wayne","Dunlow Elementary School","32800 Route 152","Dunlow","25511","","3854376","3851026","","PK05"
"PUBLIC","Wayne","Fort Gay PreK - 8","#1 Viking Drive","Fort Gay","25514","","6485404","","","PK08"
"PUBLIC","Wayne","Wayne Middle School","200 Pioneer Road ","Wayne","25570","","2723227","2725811","http://www.waynemiddle.org","0608"
"ADMINISTRATIVE","Wayne","Wayne County Schools","PO Box 70","Wayne","25570","","2725116","2726500","http://boe.wayn.k12.wv.us/",""
"PUBLIC","Wayne","Buffalo Middle School","298 Buffalo Creek Road ","Kenova","25530","","4296062","4297245","http://bms.wayn.k12.wv.us","0608"
"PUBLIC","Wayne","Wayne Elementary School","80 McGinnis Drive","Wayne","25570","","2726342","2726450","","PK05"
"PUBLIC","Wayne","Lavalette Elementary School","P.o. Box 380 ","Lavalette","25535","","5253221","5253245","","PK05"
"PUBLIC","Wayne","Ceredo-Kenova Elementary","1 Wonders Lane","Kenova","25530","","4531521","","","PK05"
"PUBLIC","Webster","Glade Middle School","25 Mill Street ","Cowen","26206","","2265353","2263666","http://glade.webs.k12.wv.us","0508"
"PUBLIC","Webster","Hacker Valley Elementary School","11 School Loop Road ","Hacker Valley","26222","","4936488","4936489","http://hvpt.org","PK08"
"PUBLIC","Webster","Diana Elementary School","Po Box 90 ","Diana","26217","","8472112","8472128","http://glade.webs.k12.wv.us/diana.htm","PK08"
"PUBLIC","Webster","Webster County High School","One Highlander Drive ","Upperglade","26266","","2265772","2265792","http://glade.webs.k12.wv.us/wchs.htm","0912"
"PUBLIC","Webster","Webster Springs Elementary School","318 River Drive ","Webster Springs","26288","","8475321","8475364","http://glade.webs.k12.wv.us/webstersprings.htm","PK08"
"PUBLIC","Webster","Glade Elementary School","25 Mill St. ","Cowen","26206","","2265353","2263666","http://glade.webs.k12.wv.us/GladeElem.htm","PK04"
"ADMINISTRATIVE","Webster","Webster County Schools","315 South Main Street ","Webster Springs","26288","1123","8475638","8472538","http://boe.webs.k12.wv.us",""
"ADMINISTRATIVE","Wetzel","Wetzel County Schools","333 Foundry Street ","New Martinsville","26155","","4552441","4553446","http://www.wetzelcountyschools.com",""
"PUBLIC","Wetzel","Valley High School","One Lumberjack Lane ","Pine Grove","26419","","8893151","8892534","http://vhs.wetz.k12.wv.us","0912"
"PUBLIC","Wetzel","Magnolia High School","601 Maple Avenue ","New Martinsville","26155","","4551990","4555536","http://www.edline.net/pages/Magnolia_HS","0912"
"PUBLIC","Wetzel","Wetzel Co. Ctr. For Children & Families","Rr2 Box 107 ","New Martinsville","26155","","4554092","4553625","","PKPK "
"PUBLIC","Wetzel","Paden City Elementary School","510 N Second Avenue ","Paden City","26159","","3372221","3379049","","0K06"
"PUBLIC","Wetzel","Long Drain School","Rt 1 Box 108-A ","Metz","26585","","7754221","7754261","","PK08"
"NON-PUBLIC","Wetzel","Wetzel County Substitute Personnel","333 Foundry Street ","New Martinsville","26155","","4552441","","",""
"PUBLIC","Wetzel","Paden City High School","201 N Fourth Avenue ","Paden City","26159","","3372266","3372290","http://www.pcwildcats.com","0712"
"PUBLIC","Wetzel","Hundred High School","P O  Box 830 ","Hundred","26575","","7755221","7752922","","0912"
"PUBLIC","Wetzel","Short Line School","Hc 60 Box 170 ","Reader","26167","","3864115","3864969","","PK08"
"PUBLIC","Wetzel","New Martinsville School","20 E Benjamin Drive ","New Martinsville","26155","","4552291","4556436","http://168.216.218.20","0K08"
"ADMINISTRATIVE","Wirt","Wirt County Schools","PO Box 189","Elizabeth","26143","","2754279","2754581","http://www.edline.net/pages/WirtBOE",""
"PUBLIC","Wirt","Wirt County High School","P O Box 219 ","Elizabeth","26143","","2754241","2753271","http://www.edline.net/pages/wirths","0912"
"PUBLIC","Wirt","Wirt County Primary Center","P O  Box 220 ","Elizabeth","26143","","2754263","2754277","http://www.edline.net/pages/wcpc","PK04"
"NON-PUBLIC","Wirt","River Valley Academy","4273 Garfield Road ","Palistine","26160","","","","",""
"PUBLIC","Wirt","Wirt County Middle School","P O Box 699 ","Elizabeth","26143","","2753977","2754257","http://www.edline.net/pages/wirtms","0508"
"PUBLIC","Wood","Trek Center","615 Broadway Ave ","Parkersburg","26101","6637","4209531","4209533","",""
"PUBLIC","Wood","Worthington Elementary School","2500 36th St ","Parkersburg","26104","2000","4209660","4202459","http://worthington.wood.k12.wv.us/","0K05"
"PUBLIC","Wood","Greenmont Elementary School","209 58th St ","Vienna","26105","2027","4209544","4209543","","PK05"
"PUBLIC","Wood","Parkersburg South High School","1511 Blizzard Dr ","Parkersburg","26101","6424","4209610","4209607","http://pshs.wood.k12.wv.us/","0912"
"PUBLIC","Wood","Waverly Elementary School","422 Virginia St ","Waverly","26184","9766","4644250","4644263","","PK06"
"PUBLIC","Wood","Fairplains Elementary School","615 Broadway Ave ","Parkersburg","26101","6637","4209531","4209533","","PK05"
"NON-PUBLIC","Wood","Parkersburg Catholic Elementary","810 Juliana St ","Parkersburg","26101","4626","4226694","4222469","",""
"PUBLIC","Wood","Van Devender Middle School","918 31st St ","Parkersburg","26104","2496","4209645","4209647","http://vms.wood.k12.wv.us","0608"
"PUBLIC","Wood","Neale Elementary School","2305 Grand Central Ave ","Vienna","26105","1399","4209587","4209589","https://www.edline.net/pages/Neale_ES","PK05"
"PUBLIC","Wood","Criss Elementary School","2800 22nd St ","Parkersburg","26101","3812","4209522","4209541","","PK05"
"NON-PUBLIC","Wood","Wood County Christian School","113 W 9th St ","Williamstown","26187","1509","3752000","3752000","",""
"PUBLIC","Wood","Hamilton Middle School","3501 Cadillac Dr ","Parkersburg","26104","2199","4209547","4209567","http://hjhs.wood.k12.wv.us","0608"
"PUBLIC","Wood","Mckinley Elementary School","1130 19th St ","Parkersburg","26101","2607","4209581","4209582","","PK05"
"ADMINISTRATIVE","Wood","Wood County Schools","1210 13th St ","Parkersburg","26101","4144","4209663","4209513","http://www.woodcountyschoolswv.com",""
"NON-PUBLIC","Wood","Parkersburg Christian School","1093 Core Rd ","Parkersburg","26104","2952","4856654","4284444","",""
"PUBLIC","Wood","Blennerhassett Middle School","444 Jewel Rd ","Parkersburg","26101","9545","8633356","8633357","http://bjhs.wood.k12.wv.us","0608"
"PUBLIC","Wood","Lubeck Elementary School","206 Lubeck Rd ","Parkersburg","26101","9533","8633321","8633848","","PK05"
"PUBLIC","Wood","Wood Co Voc Tech Ctr","1515 Blizzard Dr ","Parkersburg","26101","6424","4209501","4851048","http://wcvt.wood.tec.wv.us",""
"PUBLIC","Wood","Franklin Elementary Center","1511 Division St Ext ","Parkersburg","26101","9364","4209534","4209537","http://168.216.80.34/","PK05"
"PUBLIC","Wood","Jefferson Elementary Center","1103 Plum St ","Parkersburg","26101","4936","4209554","4209507","","PK05"
"PUBLIC","Wood","Williamstown High School","219 W 5th St ","Williamstown","26187","1524","3756151","3756194","http://www.movnet.com/whs","0712"
"PUBLIC","Wood","Williamstown Elementary School","418 Williams Ave ","Williamstown","26187","1246","3757675","3754894","","PK06"
"PUBLIC","Wood","Gihon Elementary School","2000 Belmont Rd ","Parkersburg","26101","9024","4209539","4209540","","PK05"
"NON-PUBLIC","Wood","Parkersburg Catholic High School","3201 Fairview Ave ","Parkersburg","26104","2111","4856341","4854697","http://www.pchs1.com",""
"PUBLIC","Wood","Parkersburg High School","2101 Dudley Ave ","Parkersburg","26101","3492","4209595","4209604","https://www.edline.net/pages/Parkersburg_HS","0912"
"PUBLIC","Wood","Vienna Elementary School","700 41st St ","Vienna","26105","2899","4209648","4209693","http://www.viennaschool.com","PK05"
"PUBLIC","Wood","Emerson Elementary School","1605 36th St ","Parkersburg","26101","1939","4209528","4209632","http://www.netassoc.net/wcboe/emerson/index.htm","0K05"
"NON-PUBLIC","Wood","North Christian School","3109 Emerson Ave ","Parkersburg","26104","2413","4850241","4283231","",""
"PUBLIC","Wood","Jackson Middle School","1601 34th St ","Vienna","26105","2499","4209551","2959954","http://jjhs.wood.k12.wv.us","0608"
"PUBLIC","Wood","Mineral Wells Elementary School","1776 Elizabeth Pike ","Mineral Wells","26150","","4891670","4892637","","PK05"
"PUBLIC","Wood","Blennerhassett Elementary School","448 Jewel Rd ","Parkersburg","26101","9545","8635128","8635335","","PK05"
"NON-PUBLIC","Wood","Parkersburg Academy","1800 38th St ","Parkersburg","26104","2049","4856901","","",""
"PUBLIC","Wood","Edison Middle School","1201 Hillcrest St ","Parkersburg","26101","7099","4209525","4209527","","0608"
"PUBLIC","Wood","Madison Elementary School","1426 32nd St ","Parkersburg","26101","1893","4209563","4209564","http://www.wvschools.com/madisonpkb","PK05"
"PUBLIC","Wood","Caperton Center For Applied Technology","300 Campus Dr ","Parkersburg","26101","8656","4248365","","",""
"PUBLIC","Wood","Martin Elementary School","1301 Hillcrest St ","Parkersburg","26101","7082","4209625","4209578","http://members.citynet.net/mamabear/martin","PK05"
"PUBLIC","Wood","Kanawha Elementary School","6465 Staunton Tpke ","Davisville","26142","9754","4209557","4209608","","PK05"
"PUBLIC","Wyoming","Berlin Mckinney Elementary School","Hc 65  Box 402 405 Cook Parkway","Oceana","24870","","6826481","6825234","http://berlinmckinney.wyom.k12.wv.us","PK04"
"PUBLIC","Wyoming","Pineville Middle School","Po Box 470 607 River Road","Pineville","24874","","7326442","7326737","http://pms.wyom.k12.wv.us/","0508"
"ADMINISTRATIVE","Wyoming","Wyoming County Schools","PO Box 69","Pineville","24874","","7326262","7327226","http://boe.wyom.k12.wv.us/",""
"PUBLIC","Wyoming","Mullens Middle School","801 Moran Avenue ","Mullens","25882","","2945757","2945762","http://mms.wyom.k12.wv.us/","0508"
"PUBLIC","Wyoming","Pineville Elementary School","Po Box 700, 541 River Road","Pineville","24874","","7327966","7326767","http://pineville.wyom.k12.wv.us/","PK04"
"NON-PUBLIC","Wyoming","Sonlight Christian Academy","Po Box 81 ","Mullens","25882","","2944595","","",""
"PUBLIC","Wyoming","Huff Cons Elementary & Middle School","374 Lizard Creek Rd, Drawer E","Hanover","24839","","6642100","6642102","http://huff.wyom.k12.wv.us","PK08"
"PUBLIC","Wyoming","Wyoming County Career & Technical Center","Hcr 72 Box 200, 1201 Bear Hole Road","Pineville","24874","","7328050","7328332","http://wcvtc.wyom.tec.wv.us/",""
"PUBLIC","Wyoming","Glen Fork Elementary & Middle School","Po Box 50 111 Glen Fork Hollow Road","Glen Fork","25845","","6826423","6823160","http://glenfork.wyom.k12.wv.us/","PK08"
"PUBLIC","Wyoming","Wyoming County East High School","PO Box 390, 260 Warrior Way","New Richmond","24867","","2945200","2945600","http://wehs.wyom.k12.wv.us","0912"
"PUBLIC","Wyoming","Baileysville Elementary & Middle School","Drawer 409 11618 R.d. Bailey Highway","Brenton","24818","","7326399","7328365","http://baileysville.wyom.k12.wv.us/","PK08"
"PUBLIC","Wyoming","Oceana Middle School","Hc 65  Box 403 309 Cook Parkway","Oceana","24870","","6826296","6826330","http://oms.wyom.k12.wv.us/","0508"
"PUBLIC","Wyoming","Road Branch Elementary & Middle School","1165 Huff Creek Road, HC 80 Box 422","Cyclone","24827","","6825916","6825560","http://roadbranch.wyom.k12.wv.us/","PK08"
"PUBLIC","Wyoming","Mullens Elementary School","2107 Caloric Road ","Mullens","25882","","2945252","2947371","http://mullens.wyom.k12.wv.us/","PK04"
"NON-PUBLIC","Wyoming","Turkey Ridge Independent Baptist","Po Box 130 ","Oceana","24870","","6826735","6826735","",""
"PUBLIC","Wyoming","Herndon Cons Elementary & Middle School","Po Box 309 4456 Herndon Road","Bud","24716","","2947668","2948474","http://herndon.wyom.k12.wv.us/","PK08"
"PUBLIC","Wyoming","Westside High School","Hc 65  Box 275 122 Renegade Road","Clear Fork","24822","","6828965","6826273","http://wshs.wyom.k12.wv.us/","0912"
