county,GMcoordinates,name,address,city,joinedAddress,zip
Jefferson,"-77.7563009, 39.3225089",Harpers Ferry Middle School,1710 West Washington Street,Harpers Ferry,"1710 West Washington Street , Harpers Ferry, WV, 25425",25425
Jefferson,"-77.780159, 39.318272",C. W. Shipley Elementary School,652 Shipley School Road,Harpers Ferry,"652 Shipley School Road , Harpers Ferry, WV, 25425",25425
Jefferson,"-77.784761, 39.2428641",Blue Ridge Primary,175 Lowery Lane,Harpers Ferry,"175 Lowery Lane , Harpers Ferry, WV, 25425",25425
Jefferson,"-77.7856879, 39.24225",Blue Ridge Elementary School,18866 Charles Town Road,Harpers Ferry,"18866 Charles Town Road , Harpers Ferry, WV, 25425",25425
Jefferson,"-77.808409, 39.426181",Shepherdstown Elementary School,662 South Church Street,Shepherdstown,"662 South Church Street , Shepherdstown, WV, 25443",25443
Jefferson,"-77.81144259999999, 39.4271079",Shepherdstown Middle School,54 Minden Avenue,Shepherdstown,"54 Minden Avenue , Shepherdstown, WV, 25443",25443
Jefferson,"-77.8210996, 39.3377069",Driswood Elementary School,75 Caspian Way,Shenandoah Junction,"75 Caspian Way , Shenandoah Junction, WV, 25442",25442
Jefferson,"-77.833176, 39.35246009999999",Jefferson High School,4141 Flowing Springs Road,Shenandoah Junction,"4141 Flowing Springs Road , Shenandoah Junction, WV, 25442",25442
Jefferson,"-77.833491, 39.356507",Wildwood Middle School,1209 Shenandoah Junction Road,Shenandoah Junction,"1209 Shenandoah Junction Road , Shenandoah Junction, WV, 25442",25442
Jefferson,"-77.848365, 39.278019",Charles Town Middle School,193 High Street,Charles Town,"193 High Street , Charles Town, WV, 25414",25414
Jefferson,"-77.8530826, 39.3565361",T A Lowery Elementary School,103 Shenandoah Junction Road,Shenandoah Junction,"103 Shenandoah Junction Road , Shenandoah Junction, WV, 25442",25442
Berkeley,"-77.85986419999999, 39.5869298",Marlowe Elementary School,9580 Williamsport Pike,Falling Waters,"9580 Williamsport Pike , Falling Waters, WV, 25419",25419
Jefferson,"-77.8611147, 39.2871896",Wright Denny Intermediate School,209 West Congress Street,Charles Town,"209 West Congress Street , Charles Town, WV, 25414",25414
Jefferson,"-77.86160590000001, 39.3031882",Ranson Elementary School,600 North Preston Street,Ranson,"600 North Preston Street , Ranson, WV, 25438",25438
Jefferson,"-77.8747308, 39.2704147",Page Jackson Elementary,370 Page Jackson School Road,Charles Town,"370 Page Jackson School Road , Charles Town, WV, 25414",25414
Jefferson,"-77.8801323, 39.259929",Washington High School,300 Washington Patriots Drive,Charles Town,"300 Washington Patriots Drive , Charles Town, WV, 25414",25414
Jefferson,"-77.88149469999999, 39.3680452",North Jefferson Elementary,6996 Charles Town Road,Kearneysville,"6996 Charles Town Road , Kearneysville, WV, 25430",25430
Berkeley,"-77.898354, 39.538216",Spring Mills High School,499 Campus Drive,Martinsburg,"499 Campus Drive, Martinsburg, WV, 25404",25404
Berkeley,"-77.8989029, 39.5374723",Spring Mills Primary,401 Campus Drive,Martinsburg,"401 Campus Drive , Martinsburg, WV, 25404",25404
Berkeley,"-77.9019254, 39.5414585",Spring Mills Middle School,255 Campus Drive,Martinsburg,"255 Campus Drive , Martinsburg, WV, 25404",25404
Berkeley,"-77.9061217, 39.5410241",Potomack Intermediate School,5308 Williamsport Pike,Martinsburg,"5308 Williamsport Pike , Martinsburg, WV, 25404",25404
Berkeley,"-77.91696879999999, 39.52595780000001",Bedington Elementary School,149 Bedington Road,Martinsburg,"149 Bedington Road , Martinsburg, WV, 25404",25404
Jefferson,"-77.9307367, 39.2540896",South Jefferson Elementary School,4599 Summit Point Road,Charles Town,"4599 Summit Point Road , Charles Town, WV, 25414",25414
Berkeley,"-77.94528, 39.472123",Opequon Elementary School,395 East Road,Martinsburg,"395 East Road , Martinsburg, WV, 25404",25404
Berkeley,"-77.94692599999999, 39.481384",Eagle School Intermediate,730 Eagle School Road,Martinsburg,"730 Eagle School Road , Martinsburg, WV, 25404",25404
Berkeley,"-77.949767, 39.471956",Martinsburg North Middle School,250 East Road,Martinsburg,"250 East Road , Martinsburg, WV, 25404",25404
Berkeley,"-77.96564900000001, 39.444722",Berkeley Heights Elementary School,726 Hack Wilson Way,Martinsburg,"726 Hack Wilson Way , Martinsburg, WV, 25401",25401
Berkeley,"-77.9680652, 39.4585893",Burke Street Elementary School,422 West Burke Street,Martinsburg,"422 West Burke Street , Martinsburg, WV, 25401",25401
Berkeley,"-77.9684319, 39.4480153",Martinsburg High School,701 South Queen Street,Martinsburg,"701 South Queen Street , Martinsburg, WV, 25401",25401
Berkeley,"-77.9690619, 39.449668",Martinsburg South Middle School,150 Bulldog Boulevard,Martinsburg,"150 Bulldog Boulevard , Martinsburg, WV, 25401",25401
Berkeley,"-77.97516159999999, 39.47693",Tuscarora Elementary School,2000 Tavern Road,Martinsburg,"2000 Tavern Road , Martinsburg, WV, 25401",25401
Berkeley,"-77.9756049, 39.4522398",Winchester Avenue Elementary School,650 Winchester Avenue,Martinsburg,"650 Winchester Avenue , Martinsburg, WV, 25401",25401
Berkeley,"-77.9790623, 39.5327798",James Rumsey Technical Institute,3274 Hedgesville Road,Martinsburg,"3274 Hedgesville Road , Martinsburg, WV, 25403",25403
Berkeley,"-77.981876, 39.459074",Rosemont Elementary School,301 South Alabama Avenue,Martinsburg,"301 South Alabama Avenue , Martinsburg, WV, 25401",25401
Berkeley,"-77.982083, 39.53749",Hedgesville High School,109 Ridge Road North,Hedgesville,"109 Ridge Road North , Hedgesville, WV, 25427",25427
Berkeley,"-77.9907273, 39.5559444",Hedgesville Middle School,334 School House Drive,Hedgesville,"334 School House Drive , Hedgesville, WV, 25427",25427
Berkeley,"-77.9909057, 39.5521408",Hedgesville Elementary School,88 School House Drive,Hedgesville,"88 School House Drive , Hedgesville, WV, 25427",25427
Berkeley,"-77.992766, 39.40784499999999",Pikeside Learning Center,3635 Winchester Ave,Martinsburg,"3635 Winchester Ave , Martinsburg, WV, 25405",25405
Berkeley,"-78.003641, 39.454135",Orchard View Intermediate School,1455 Delmar Orchard Rd,Martinsburg,"1455 Delmar Orchard Rd , Martinsburg, WV, 25403",25403
Berkeley,"-78.013966, 39.382314",Valley View Elementary School,140 Nadenbousch Lane,Martinsburg,"140 Nadenbousch Lane , Martinsburg, WV, 25405",25405
Berkeley,"-78.021008, 39.553755",Tomahawk Intermediate School,6665 Hedgesville Road,Hedgesville,"6665 Hedgesville Road , Hedgesville, WV, 25427",25427
Berkeley,"-78.03947029999999, 39.3587175",Inwood Primary School,7864 Winchester Ave,Inwood,"7864 Winchester Ave , Inwood, WV, 25428",25428
Berkeley,"-78.04147669999999, 39.3518554",Musselman High School,126 Excellence Way,Inwood,"126 Excellence Way , Inwood, WV, 25428",25428
Berkeley,"-78.046363, 39.3470439",Mill Creek Intermediate School,8785 Winchester Avenue,Bunker Hill,"8785 Winchester Avenue , Bunker Hill, WV, 25413",25413
Berkeley,"-78.049437, 39.347733",Musselman Middle School,105 Pride Avenue,Bunker Hill,"105 Pride Avenue , Bunker Hill, WV, 25413",25413
Berkeley,"-78.05763, 39.321487",Bunker Hill Elementary School,58 Happy School Avenue,Bunker Hill,"58 Happy School Avenue , Bunker Hill, WV, 25413",25413
Berkeley,"-78.0795452, 39.3680257",Mountain Ridge Intermediate,2691 Gerrardstown Road,Gerrardstown,"2691 Gerrardstown Road , Gerrardstown, WV, 25420",25420
Berkeley,"-78.0801529, 39.3663866",Mountain Ridge Middle School,2771 Gerrardstown Road,Gerrardstown,"2771 Gerrardstown Road, Gerrardstown, WV, 25420",25420
Morgan,"-78.08067600000001, 39.609071",Pleasant View Elementary School,10500 Martinsburg Road,Hedgesville,"10500 Martinsburg Road , Hedgesville, WV, 25427",25427
Berkeley,"-78.093987, 39.37188099999999",Gerrardstown Elementary School,15 Dominion Road,Gerrardstown,"15 Dominion Road , Gerrardstown, WV, 25420",25420
Berkeley,"-78.148207, 39.406958",Back Creek Valley Elementary School,1962 Back Creek Valley Road,Hedgesville,"1962 Back Creek Valley Road , Hedgesville, WV, 25427",25427
Morgan,"-78.2021278, 39.6325933",Warm Springs Intermediate School,575 Warm Springs Way,Berkeley Springs,"575 Warm Springs Way , Berkeley Springs, WV, 25411",25411
Morgan,"-78.205422, 39.6290323",Warm Springs Middle School,271 Warm Springs Way,Berkeley Springs,"271 Warm Springs Way , Berkeley Springs, WV, 25411",25411
Morgan,"-78.2215512, 39.4823331",Greenwood Elementary School,8989 Winchester Grade Road,Berkeley Springs,"8989 Winchester Grade Road , Berkeley Springs, WV, 25411",25411
Morgan,"-78.2337718, 39.6169959",Berkeley Springs High School,149 Concord Avenue,Berkeley Springs,"149 Concord Avenue , Berkeley Springs, WV, 25411",25411
Morgan,"-78.2363115, 39.6138121",Widmyer Elementary,10 Myers Road,Berkeley Springs,"10 Myers Road , Berkeley Springs, WV, 25411",25411
Morgan,"-78.4543655, 39.527622",Paw Paw High School,60 Pirate Circle,Paw Paw,"60 Pirate Circle , Paw Paw, WV, 25434",25434
Morgan,"-78.4543655, 39.527622",Paw Paw Elementary School,60 Pirate Circle,Paw Paw,"60 Pirate Circle , Paw Paw, WV, 25434",25434
Hampshire,"-78.52633050000001, 39.4281739",Slanesville Elementary School,P.o. Box 308,Slanesville,"P.o. Box 308 , Slanesville, WV, 25444",25444
Hampshire,"-78.6391041, 39.29524079999999",Augusta Elementary School,Po Box 910,Augusta,"Po Box 910 , Augusta, WV, 26704",26704
Hampshire,"-78.746453, 39.335391",Romney Middle School,"Hc 63, Box 1975",Romney,"Hc 63, Box 1975 , Romney, WV, 26757",26757
Mineral,"-78.7561222, 39.61679609999999",Wiley Ford Primary School,PO Box 20,Wiley Ford,"PO Box 20 , Wiley Ford, WV, 26767",26767
Mineral,"-78.75754239999999, 39.508279",Frankfort Intermediate School,284 Intermediate Drive,Fort Ashby,"284 Intermediate Drive, Fort Ashby, WV, 26719",26719
Hardy,"-78.758904, 39.048115",East Hardy Early/Middle School,P. O. Box 260 238 Cougar Drive,Baker,"P. O. Box 260 238 Cougar Drive, Baker, WV, 26801",26801
Hardy,"-78.7606382, 39.0473439",East Hardy High School,P. O. Box 120 259 Cougar Drive,Baker,"P. O. Box 120 259 Cougar Drive, Baker, WV, 26801",26801
Mineral,"-78.7645086, 39.5052093",Fort Ashby Primary School,44 Fort Ashby Primary School Road,Ft. Ashby,"44 Fort Ashby Primary School Road, Ft. Ashby, WV, 26719",26719
Hampshire,"-78.76463820000001, 39.3435028",Romney Elementary School,45 School Street,Romney,"45 School Street , Romney, WV, 26757",26757
Mineral,"-78.8032197, 39.5477384",Frankfort High School,393 Falcon Way,Ridgeley,"393 Falcon Way, Ridgeley, WV, 26753",26753
Mineral,"-78.8038712, 39.5409756",Frankfort Middle School,356 Golden Drive,Ridgeley,"356 Golden Drive, Ridgeley, WV, 26753",26753
Mineral,"-78.91971319999999, 39.3343491",Burlington Primary,10474 Patterson Creek Road,Burlington,"10474 Patterson Creek Road, Burlington, WV, 26710",26710
Mineral,"-78.9375829, 39.4222667",Fountain Primary School,289 Fountain School Road,Keyser,"289 Fountain School Road, Keyser, WV, 26726",26726
Hardy,"-78.9437178, 39.06905709999999",Moorefield Intermediate School,345 Caledonia Heights Road,Moorefield,"345 Caledonia Heights Road , Moorefield, WV, 26836",26836
Hardy,"-78.9437178, 39.06905709999999",Moorefield Middle School,303 Caledonia Heights Road,Moorefield,"303 Caledonia Heights Road , Moorefield, WV, 26836",26836
Hardy,"-78.9688414, 39.0678067",Moorefield High School,401 North Main Street,Moorefield,"401 North Main Street , Moorefield, WV, 26836",26836
Hardy,"-78.97308819999999, 39.0533213",Moorefield Elementary School,400 North Main Street,Moorefield,"400 North Main Street , Moorefield, WV, 26836",26836
Mineral,"-78.98466289999999, 39.4302781",Mineral County Technical Center,981 Harley O. Staggers Drive,Keyser,"981 Harley O. Staggers Drive , Keyser, WV, 26726",26726
Mineral,"-78.98466289999999, 39.4302781",Keyser Middle School,879 Harley O. Staggers Drive,Keyser,"879 Harley O. Staggers Drive , Keyser, WV, 26726",26726
Mineral,"-78.9905764, 39.4244634",Keyser Primary School,1123 Harley O. Staggers Drive,Keyser,"1123 Harley O. Staggers Drive, Keyser, WV, 26726",26726
Mineral,"-78.9906196, 39.4297575",Mineral County Alternative School,89 Baker Place,Keyser,"89 Baker Place, Keyser, WV, 26726",26726
Mineral,"-79.0213966, 39.3996909",Keyser High School,328 One Tornado Way,Keyser,"328 One Tornado Way, Keyser, WV, 26726",26726
Mineral,"-79.0284095, 39.374188",New Creek Primary School,"PO Box 97, 85 New Creek School Road",New Creek,"PO Box 97, 85 New Creek School Road, New Creek, WV, 26743",26743
Grant,"-79.1059444, 38.9395833",Dorcas Elementary School,Hc 33 Box 1060,Petersburg,"Hc 33 Box 1060 , Petersburg, WV, 26847",26847
Grant,"-79.1164019, 39.0013999",Petersburg Elementary School,333 Rig Street,Petersburg,"333 Rig Street , Petersburg, WV, 26847",26847
Grant,"-79.12039899999999, 39.000801",South Branch Career & Technical Center,401 Pierpont Street,Petersburg,"401 Pierpont Street , Petersburg, WV, 26847",26847
Grant,"-79.12042559999999, 38.9981669",Petersburg High School,207 Jefferson Avenue,Petersburg,"207 Jefferson Avenue , Petersburg, WV, 26847",26847
Mineral,"-79.1522566, 39.3809314",Elk Garden School,86 Elk Garden Highway,Elk Garden,"86 Elk Garden Highway, Elk Garden, WV, 26717",26717
Grant,"-79.1780876, 39.1226596",Maysville Elementary School,7147 Highway 42s,Maysville,"7147 Highway 42s , Maysville, WV, 26833",26833
Pendleton,"-79.243922, 38.627775",Brandywine Elementary School,11480 Blue Gray Trail P. O. Box 247,Brandywine,"11480 Blue Gray Trail P. O. Box 247, Brandywine, WV, 26802",26802
Pendleton,"-79.326016, 38.6507309",Pendleton County Middle/High School,Po Box 40 409 Maple Avenue,Franklin,"Po Box 40 409 Maple Avenue, Franklin, WV, 26807",26807
Pendleton,"-79.3287455, 38.6456983",Franklin Elementary School,67 South Branch Street Po Box 848,Franklin,"67 South Branch Street Po Box 848, Franklin, WV, 26807",26807
Pendleton,"-79.49135439999999, 38.6723225",North Fork Elementary School,"Po Box 186, 189 Price Way",Circleville,"Po Box 186, 189 Price Way, Circleville, WV, 26804",26804
Tucker,"-79.4947356, 39.1432333",Davis Thomas Elementary Middle School,100 Quail Ridge Rd Po Box 250,Thomas,"100 Quail Ridge Rd Po Box 250, Thomas, WV, 26292",26292
Preston,"-79.535485, 39.443038",Terra Alta/East Preston School,1103 East State Avenue,Terra Alta,"1103 East State Avenue , Terra Alta, WV, 26764",26764
Preston,"-79.55032299999999, 39.323677",Aurora Elementary,125 Aurora School Road,Aurora,"125 Aurora School Road , Aurora, WV, 26705",26705
Tucker,"-79.58325789999999, 39.137539",Tucker County High School,116 Mountain Lion Way,Hambleton,"116 Mountain Lion Way , Hambleton, WV, 26269",26269
Preston,"-79.64117300000001, 39.657253",Bruceton School,P.o. Box 141 141 Morgantown Street,Bruceton Mills,"P.o. Box 141 141 Morgantown Street, Bruceton Mills, WV, 26525",26525
Tucker,"-79.6691316, 39.1022965",Tucker Valley Elementary Middle School,81 Tucker Valley Road,Hambleton,"81 Tucker Valley Road , Hambleton, WV, 26269",26269
Preston,"-79.677836, 39.460035",Central Preston Middle School,500 Knight Drive,Kingwood,"500 Knight Drive , Kingwood, WV, 26537",26537
Preston,"-79.67795600000001, 39.46012",Preston High School,400 Knight Drive,Kingwood,"400 Knight Drive , Kingwood, WV, 26537",26537
Preston,"-79.68640309999999, 39.35596839999999",Rowlesburg School,46 Center Street,Rowlesburg,"46 Center Street , Rowlesburg, WV, 26425",26425
Preston,"-79.68647299999999, 39.4686049",Kingwood Elementary,207 S Price Street,Kingwood,"207 S Price Street , Kingwood, WV, 26537",26537
Preston,"-79.7716918, 39.3807731",South Preston School,5258 South Preston Highway,Tunnelton,"5258 South Preston Highway, Tunnelton, WV, 26444",26444
Preston,"-79.8118142, 39.496727",West Preston School,113 Eby School Road,Arthurdale,"113 Eby School Road, Arthurdale, WV, 26520",26520
Preston,"-79.82287, 39.329611",Fellowsville Elementary,139 Fellowsville School Rd,Tunnelton,"139 Fellowsville School Rd , Tunnelton, WV, 26444",26444
Randolph,"-79.8479268, 38.8913564",Midland Elementary School,150 Kennedy Drive,Elkins,"150 Kennedy Drive , Elkins, WV, 26241",26241
Randolph,"-79.8479268, 38.8913564",Elkins High School,100 Kennedy Drive,Elkins,"100 Kennedy Drive , Elkins, WV, 26241",26241
Randolph,"-79.8517502, 38.9194273",Randolph County Alternative Center,40 11th Street,Elkins,"40 11th Street , Elkins, WV, 26241",26241
Randolph,"-79.8526851, 38.9431518",Randolph Technical Center,200 Kennedy Drive,Elkins,"200 Kennedy Drive , Elkins, WV, 26241",26241
Randolph,"-79.8600443, 38.9131621",Jennings Randolph Elementary School,101 Scott Ford Road,Elkins,"101 Scott Ford Road , Elkins, WV, 26241",26241
Randolph,"-79.8634874, 38.92719690000001",Elkins Middle School,308 Robert E. Lee Avenue,Elkins,"308 Robert E. Lee Avenue , Elkins, WV, 26241",26241
Randolph,"-79.8665769, 38.9336861",Elkins Third Ward Elementary School,111 Nathan Street,Elkins,"111 Nathan Street , Elkins, WV, 26241",26241
Monongalia,"-79.8681733, 39.6529937",Cheat Lake Elementary School,154 Crosby Road,Morgantown,"154 Crosby Road , Morgantown, WV, 26508",26508
Randolph,"-79.8990273, 38.7965659",Homestead Elementary School,P.o. Box 158,Dailey,"P.o. Box 158 , Dailey, WV, 26259",26259
Monongalia,"-79.9050144, 39.6102152",Brookhaven Elementary School,1215 Baker Street,Morgantown,"1215 Baker Street , Morgantown, WV, 26508",26508
Monongalia,"-79.9286664, 39.6878374",University High School,131 Baker`s Ridge Road,Morgantown,"131 Baker`s Ridge Road , Morgantown, WV, 26508",26508
Monongalia,"-79.9395488, 39.6539836",Eastwood Elementary School,677 201 St. Memorial Hwy,Morgantown,"677 201 St. Memorial Hwy, Morgantown, WV, 26505",26505
Monongalia,"-79.9403896, 39.5505097",Ridgedale Elementary School,1550 Goshen Road,Morgantown,"1550 Goshen Road , Morgantown, WV, 26508",26508
Monongalia,"-79.94335199999999, 39.610532",Mountainview Elementary School,661 Greenbag Road,Morgantown,"661 Greenbag Road , Morgantown, WV, 26508",26508
Monongalia,"-79.9464634, 39.6376357",Mountaineer Middle School,991 Price Street,Morgantown,"991 Price Street , Morgantown, WV, 26505",26505
Monongalia,"-79.9550977, 39.612582",South Middle School,500 East Parkway Drive,Morgantown,"500 East Parkway Drive , Morgantown, WV, 26501",26501
Barbour,"-79.956704, 38.97761",Junior Elementary,415 First Street,Junior,"415 First Street , Junior, WV, 26275",26275
Monongalia,"-79.9568398, 39.657972",North Elementary School,825 Chestnut Ridge Road,Morgantown,"825 Chestnut Ridge Road , Morgantown, WV, 26505",26505
Monongalia,"-79.9568666, 39.6239373",Morgantown High School,109 Wilson Avenue,Morgantown,"109 Wilson Avenue , Morgantown, WV, 26501",26501
Randolph,"-79.9571776, 38.7535686",Tygarts Valley Middle/High School,10189 Seneca Trail,Mill Creek,"10189 Seneca Trail, Mill Creek, WV, 26280",26280
Monongalia,"-79.9572338, 39.61121809999999",Technical Education Center,1000 Mississippi Street,Morgantown,"1000 Mississippi Street , Morgantown, WV, 26501",26501
Randolph,"-79.970507, 38.7290538",George Ward Elementary School,P.o. Box 278,Mill Creek,"P.o. Box 278 , Mill Creek, WV, 26280",26280
Monongalia,"-79.971042, 39.65255399999999",Suncrest Middle School,360 Baldwin Street,Morgantown,"360 Baldwin Street , Morgantown, WV, 26505",26505
Monongalia,"-79.97686709999999, 39.6599771",Suncrest Primary,523 Junior Avenue,Morgantown,"523 Junior Avenue , Morgantown, WV, 26505",26505
Monongalia,"-79.978433, 39.618401",Westwood Middle School,670 River Road,Morgantown,"670 River Road , Morgantown, WV, 26501",26501
Monongalia,"-79.98163699999999, 39.617116",Skyview Elementary School,668 River Road,Morgantown,"668 River Road , Morgantown, WV, 26501",26501
Barbour,"-79.99286359999999, 39.1090421",Philip Barbour High School Complex,99 Horseshoe Drive,Philippi,"99 Horseshoe Drive , Philippi, WV, 26416",26416
Barbour,"-79.994379, 39.1097589",Belington Head Start,25 Horseshoe Drive,Philippi,"25 Horseshoe Drive , Philippi, WV, 26416",26416
Taylor,"-80.0189517, 39.3474382",Anna Jarvis Elementary School,650 N. Pike Street,Grafton,"650 N. Pike Street , Grafton, WV, 26354",26354
Monongalia,"-80.03017559999999, 39.6424999",Mylan Park Elementary School,901 Mylan Park Lane,Morgantown,"901 Mylan Park Lane , Morgantown, WV, 26501",26501
Taylor,"-80.0307385, 39.3395637",Grafton High School,400 Riverside Drive,Grafton,"400 Riverside Drive , Grafton, WV, 26354",26354
Taylor,"-80.033484, 39.3380085",Taylor County Vocational Center,115 Luby St,Grafton,"115 Luby St , Grafton, WV, 26354",26354
Barbour,"-80.0402579, 39.1452617",Philippi Head Start,Chestnut Street,Philippi,"Chestnut Street , Philippi, WV, 26416",26416
Barbour,"-80.0403578, 39.1523198",Philippi Middle School,Rt 3 Box 40,Philippi,"Rt 3 Box 40 , Philippi, WV, 26416",26416
Barbour,"-80.0403578, 39.1523198",Philippi Elementary School,Route 3 Box 38,Philippi,"Route 3 Box 38 , Philippi, WV, 26416",26416
Pocahontas,"-80.09247049999999, 38.2209011",Marlinton Elementary School,926a Fifth Avenue,Marlinton,"926a Fifth Avenue , Marlinton, WV, 24954",24954
Marion,"-80.09589489999999, 39.49327419999999",East Dale Elementary School,Rt.3 57 East Dale Road,Fairmont,"Rt.3 57 East Dale Road , Fairmont, WV, 26554",26554
Taylor,"-80.118652, 39.266854",Flemington Elementary School,824 Simpson Rd,Flemington,"824 Simpson Rd, Flemington, WV, 26347",26347
Marion,"-80.1218779, 39.4815002",East Park Elementary School,1025 Fairfax Street,Fairmont,"1025 Fairfax Street , Fairmont, WV, 26554",26554
Marion,"-80.12819209999999, 39.5317529",Rivesville Elementary/Middle School,229 Phillips Avenue,Rivesville,"229 Phillips Avenue , Rivesville, WV, 26588",26588
Marion,"-80.13091759999999, 39.480476",East Fairmont Middle School,221 Mason Street,Fairmont,"221 Mason Street, Fairmont, WV, 26554",26554
Marion,"-80.137014, 39.5011709",Barnes Learning Center (Alc),100 Naomi Street,Fairmont,"100 Naomi Street , Fairmont, WV, 26554",26554
Marion,"-80.144477, 39.459",Pleasant Valley Elementary School,1858 Valley School Road,Pleasant Valley,"1858 Valley School Road , Pleasant Valley, WV, 26554",26554
Marion,"-80.1506868, 39.4700756",West Fairmont Middle School,1010 Tenth Street,Fairmont,"1010 Tenth Street , Fairmont, WV, 26554",26554
Taylor,"-80.153335, 39.322542",West Taylor Elementary School,200 Morrow Cross Rd,Flemington,"200 Morrow Cross Rd, Flemington, WV, 26347",26347
Marion,"-80.1542276, 39.4837654",Marion Co Adult And Community Ed Center,601 Locust Ave.,Fairmont,"601 Locust Ave. , Fairmont, WV, 26554",26554
Marion,"-80.15646459999999, 39.451003",East Fairmont High School,1993 Airport Road,Fairmont,"1993 Airport Road , Fairmont, WV, 26554",26554
Marion,"-80.1571422, 39.4789039",Fairmont Senior High School,Loop Park Drive,Fairmont,"Loop Park Drive , Fairmont, WV, 26554",26554
Marion,"-80.1666678, 39.4620476",Watson Elementary School,1579 Mary Lou Retton Dr,Fairmont,"1579 Mary Lou Retton Dr , Fairmont, WV, 26554",26554
Marion,"-80.167157, 39.5042556",Barrackville Elementary/Middle School,P O Box 150 509 Pike Street,Barrackville,"P O Box 150 509 Pike Street, Barrackville, WV, 26559",26559
Upshur,"-80.1727422, 38.9711452",Union Elementary School,20 Heavener Grove Road,Buckhannon,"20 Heavener Grove Road , Buckhannon, WV, 26201",26201
Marion,"-80.1767826, 39.4189844",White Hall Elementary School,38 Emerald Lane,White Hall,"38 Emerald Lane , White Hall, WV, 26554",26554
Marion,"-80.1769405, 39.4730426",Jayenne Elementary School,1504 Country Club Road,Fairmont,"1504 Country Club Road , Fairmont, WV, 26554",26554
Randolph,"-80.21465239999999, 38.6495602",Pickens Elementary/High School,One Panther Place,Pickens,"One Panther Place , Pickens, WV, 26230",26230
Marion,"-80.2178929, 39.4619286",Monongah Middle School,550 Camden Avenue,Monongah,"550 Camden Avenue , Monongah, WV, 26554",26554
Marion,"-80.221461, 39.4636691",Monongah Elementary School,628 Walnut Street,Monongah,"628 Walnut Street , Monongah, WV, 26554",26554
Monongalia,"-80.2235649, 39.71975399999999",Clay-Battelle High School,Drawer A,Blacksville,"Drawer A , Blacksville, WV, 26521",26521
Upshur,"-80.2248877, 38.9867716",Buckhannon Academy Elementary School,16 College Avenue,Buckhannon,"16 College Avenue , Buckhannon, WV, 26201",26201
Upshur,"-80.23098209999999, 38.9721996",Tennerton Elementary,"Route 6, Box 513",Buckhannon,"Route 6, Box 513 , Buckhannon, WV, 26201",26201
Upshur,"-80.2312688, 38.9708209",B-U Middle School,"Rt. 6, Box 303",Buckhannon,"Rt. 6, Box 303 , Buckhannon, WV, 26201",26201
Randolph,"-80.2320276, 38.9939872",North Elementary School,"Route 2, Box 320",Elkins,"Route 2, Box 320 , Elkins, WV, 26241",26241
Upshur,"-80.243167, 38.95117580000001",Buckhannon Upshur High School,50 B.u. Drive,Buckhannon,"50 B.u. Drive , Buckhannon, WV, 26201",26201
Marion,"-80.2470452, 39.5933829",Fairview Elementary School,Po Box 39 100 School Street,Fairview,"Po Box 39 100 School Street, Fairview, WV, 26570",26570
Harrison,"-80.2522571, 39.2860172",Simpson Elementary School,250 Worthington Dr,Bridgeport,"250 Worthington Dr , Bridgeport, WV, 26330",26330
Marion,"-80.2527099, 39.592258",Fairview Middle School,17 Jesses Run Road,Fairview,"17 Jesses Run Road , Fairview, WV, 26570",26570
Monongalia,"-80.25351789999999, 39.7101137",Mason-Dixon Elementary,7041 Mason Dixon Highway,Blacksville,"7041 Mason Dixon Highway , Blacksville, WV, 26521",26521
Harrison,"-80.2620134, 39.2882846",Bridgeport Middle School,413 Johnson Ave,Bridgeport,"413 Johnson Ave , Bridgeport, WV, 26330",26330
Harrison,"-80.263604, 39.2909507",Johnson Elementary School,531 Johnson Ave,Bridgeport,"531 Johnson Ave , Bridgeport, WV, 26330",26330
Harrison,"-80.2636684, 39.2897899",Bridgeport High School,515 Johnson Ave,Bridgeport,"515 Johnson Ave , Bridgeport, WV, 26330",26330
Harrison,"-80.28544169999999, 39.4043252",Big Elm Elementary School,200 Tetrick Rd,Shinnston,"200 Tetrick Rd , Shinnston, WV, 26431",26431
Upshur,"-80.290577, 38.8909929",French Creek Elementary,"Rt.2, Box 305",French Creek,"Rt.2, Box 305 , French Creek, WV, 26218",26218
Greenbrier,"-80.2952394, 37.7946857",White Sulphur Elementary,150 Reed Street,White Sulphur Springs,"150 Reed Street , White Sulphur Springs, WV, 24986",24986
Marion,"-80.3000291, 39.5117126",Marion County Technical Center,2 North Marion Drive Route 250 North,Farmington,"2 North Marion Drive Route 250 North, Farmington, WV, 26571",26571
Marion,"-80.30161199999999, 39.512022",North Marion High School,1 North Marion Drive,Farmington,"1 North Marion Drive , Farmington, WV, 26571",26571
Harrison,"-80.3160369, 39.2500377",Norwood Elementary School,208 Kidd Ave,Stonewood,"208 Kidd Ave , Stonewood, WV, 26301",26301
Marion,"-80.321513, 39.522108",Blackshere Elementary School,77 Blackshere Drive,Mannington,"77 Blackshere Drive , Mannington, WV, 26582",26582
Harrison,"-80.3256627, 39.2599393",Nutter Fort Intermediate School,1302 Buckhannon Pike,Nutter Fort,"1302 Buckhannon Pike , Nutter Fort, WV, 26301",26301
Harrison,"-80.3256627, 39.2599393",Nutter Fort Primary School,1302 Buckhannon Pike,Nutter Fort,"1302 Buckhannon Pike , Nutter Fort, WV, 26301",26301
Harrison,"-80.3428076, 39.2781728",Washington Irving Middle School,443 Lee Ave,Clarksburg,"443 Lee Ave , Clarksburg, WV, 26301",26301
Harrison,"-80.34453409999999, 39.2806451",Harrison Co Alternative Learning Center,Rr 3 Box 43b,Clarksburg,"Rr 3 Box 43b , Clarksburg, WV, 26301",26301
Harrison,"-80.34453409999999, 39.2806451",Wilsonburg Elementary School,Rr 4 Box 1,Clarksburg,"Rr 4 Box 1 , Clarksburg, WV, 26301",26301
Marion,"-80.34455, 39.529531",Mannington Middle School,113 Clarksburg Street,Mannington,"113 Clarksburg Street , Mannington, WV, 26582",26582
Harrison,"-80.345862, 39.37685099999999",Lumberport Middle School,314 Main Street,Lumberport,"314 Main Street , Lumberport, WV, 26386",26386
Harrison,"-80.3479852, 39.29504120000001",North View Elementary School,1400 N 19th Street,Clarksburg,"1400 N 19th Street , Clarksburg, WV, 26301",26301
Harrison,"-80.3495721, 39.3767753",Lumberport Elementary School,Po Box 417 Chestnut & Lyndon Streets,Lumberport,"Po Box 417 Chestnut & Lyndon Streets, Lumberport, WV, 26386",26386
Harrison,"-80.35051899999999, 39.160535",Lost Creek Elementary School,Po Box 128,Lost Creek,"Po Box 128 , Lost Creek, WV, 26385",26385
Harrison,"-80.350843, 39.2612878",Robert C. Byrd High School,1 Eagle Way,Clarksburg,"1 Eagle Way , Clarksburg, WV, 26301",26301
Harrison,"-80.35203349999999, 39.1612035",South Harrison Middle School,Rr 1 Box 58b,Lost Creek,"Rr 1 Box 58b , Lost Creek, WV, 26385",26385
Harrison,"-80.35203349999999, 39.1612035",South Harrison High School,Rr 1 Box 58,Lost Creek,"Rr 1 Box 58 , Lost Creek, WV, 26385",26385
Harrison,"-80.35526999999999, 39.309937",Harrison Co Transitional Middle School,1349 Shinnston Pk,Clarksburg,"1349 Shinnston Pk, Clarksburg, WV, 26301",26301
Harrison,"-80.35883400000002, 39.310815",United Technical Center,251 Marietta St.,Clarksburg,"251 Marietta St., Clarksburg, WV, 26301",26301
Harrison,"-80.35916590000001, 39.2914318",Adamston Elementary School,1636 W Pike St,Clarksburg,"1636 W Pike St , Clarksburg, WV, 26301",26301
Greenbrier,"-80.38476039999999, 37.9721875",Frankford Elementary,21692 Seneca Trail,Frankford,"21692 Seneca Trail , Frankford, WV, 24938",24938
Webster,"-80.3876298, 38.6530821",Hacker Valley Elementary School,11 School Loop Road,Hacker Valley,"11 School Loop Road , Hacker Valley, WV, 26222",26222
Harrison,"-80.3969089, 39.2779669",Mountaineer Middle School,2 Mountaineer Dr,Clarksburg,"2 Mountaineer Dr , Clarksburg, WV, 26301",26301
Harrison,"-80.397701, 39.276026",Liberty High School,1 Mountaineer Dr,Clarksburg,"1 Mountaineer Dr , Clarksburg, WV, 26301",26301
Harrison,"-80.4040406, 39.2018943",West Milford Elementary School,226 School St,West Milford,"226 School St , West Milford, WV, 26451",26451
Lewis,"-80.406618, 39.114994",Jane Lew Elementary School,6536 Main Street,Jane Lew,"6536 Main Street , Jane Lew, WV, 26378",26378
Webster,"-80.4113582, 38.4741449",Webster Springs Elementary School,318 River Drive,Webster Springs,"318 River Drive , Webster Springs, WV, 26288",26288
Lewis,"-80.415087, 39.024501",Peterson-Central Elementary School,509 Berlin Road,Weston,"509 Berlin Road , Weston, WV, 26452",26452
Greenbrier,"-80.4415078, 37.8011158",Lewisburg Elementary,206 North Lee Street,Lewisburg,"206 North Lee Street , Lewisburg, WV, 24901",24901
Lewis,"-80.4623979, 39.039392",Robert L. Bland Middle School,358 Court Avenue,Weston,"358 Court Avenue , Weston, WV, 26452",26452
Greenbrier,"-80.470457, 37.7758556",Greenbrier School Of Practical Nursing,One Spartan Lane,Lewisburg,"One Spartan Lane , Lewisburg, WV, 24901",24901
Greenbrier,"-80.470457, 37.7758556",Greenbrier East High School,One Spartan Lane,Lewisburg,"One Spartan Lane , Lewisburg, WV, 24901",24901
Greenbrier,"-80.4756314, 37.7627578",Ronceverte Elementary,246 Ronceverte Elementary School Drive,Ronceverte,"246 Ronceverte Elementary School Drive, Ronceverte, WV, 24970",24970
Lewis,"-80.478138, 39.01965999999999",Lewis County High School,205 Minuteman Drive,Weston,"205 Minuteman Drive , Weston, WV, 26452",26452
Webster,"-80.506872, 38.4061028",Webster County High School,One Highlander Drive,Upperglade,"One Highlander Drive , Upperglade, WV, 26266",26266
Lewis,"-80.50982300000001, 38.921695",Roanoke Elementary School,1176 Oil Creek Road,Roanoke,"1176 Oil Creek Road , Roanoke, WV, 26447",26447
Hancock,"-80.5252366, 40.4134553",Broadview Elementary School,189 Circle Drive,Weirton,"189 Circle Drive , Weirton, WV, 26062",26062
Nicholas,"-80.53116729999999, 38.2229779",Richwood High School,1 Valley Ave.,Richwood,"1 Valley Ave. , Richwood, WV, 26261",26261
Nicholas,"-80.53117600000002, 38.223092",Richwood Middle School,2 Valley Avenue,Richwood,"2 Valley Avenue , Richwood, WV, 26261",26261
Hancock,"-80.53370439999999, 40.4086851",Weirton Elementary,3428 Pennsylvania Ave,Weirton,"3428 Pennsylvania Ave, Weirton, WV, 26062",26062
Brooke,"-80.53747229999999, 40.3663856",Colliers Primary School,Penn Street,Colliers,"Penn Street , Colliers, WV, 26035",26035
Brooke,"-80.53826, 40.2725069",Franklin Primary School,1305 Washington Pike,Wellsburg,"1305 Washington Pike , Wellsburg, WV, 26070",26070
Hancock,"-80.543061, 40.4166389",Liberty Elementary School,200 Culler Road,Weirton,"200 Culler Road , Weirton, WV, 26062",26062
Monroe,"-80.54463290000001, 37.5865358",Mountain View Elementary & Middle School,Mt. View Drive P.o. Box 620,Union,"Mt. View Drive P.o. Box 620, Union, WV, 24983",24983
Marshall,"-80.54940069999999, 39.9994074",Sand Hill Elementary School,Rr 1 Box 87,Dallas,"Rr 1 Box 87 , Dallas, WV, 26036",26036
Nicholas,"-80.5534124, 38.21897269999999",Cherry River Elementary School,190 Riverside Drive,Richwood,"190 Riverside Drive , Richwood, WV, 26261",26261
Webster,"-80.555126, 38.407934",Glade Middle School,25 Mill Street,Cowen,"25 Mill Street , Cowen, WV, 26206",26206
Webster,"-80.555126, 38.407934",Glade Elementary School,25 Mill St.,Cowen,"25 Mill St. , Cowen, WV, 26206",26206
Hancock,"-80.55907499999999, 40.543326",Oak Glen High School,195 Golden Bear Drive,New Cumberland,"195 Golden Bear Drive , New Cumberland, WV, 26047",26047
Marshall,"-80.55961219999999, 39.8225811",Cameron High School,61 Maple Avenue,Cameron,"61 Maple Avenue , Cameron, WV, 26033",26033
Hancock,"-80.5599587, 40.5444746",Oak Glen Middle School,39 Golden Bear Drive,New Cumberland,"39 Golden Bear Drive , New Cumberland, WV, 26047",26047
Hancock,"-80.56128540000002, 40.6157365",A. T. Allison Elementary School,600 Railroad Street,Chester,"600 Railroad Street , Chester, WV, 26034",26034
Marshall,"-80.5651907, 39.82610760000001",Cameron Elementary School,12 Church Street,Cameron,"12 Church Street , Cameron, WV, 26033",26033
Hancock,"-80.5710948, 40.418015",Weirton Heights Elementary School,160 South 12th Street,Weirton,"160 South 12th Street , Weirton, WV, 26062",26062
Hancock,"-80.5753514, 40.4060847",Weir Middle School,125 Sinclair Avenue,Weirton,"125 Sinclair Avenue , Weirton, WV, 26062",26062
Hancock,"-80.576799, 40.5290139",New Manchester Elementary School,128 Frankfort Road,New Cumberland,"128 Frankfort Road , New Cumberland, WV, 26047",26047
Hancock,"-80.57708699999999, 40.4052795",Weir High School,100 Red Rider Road,Weirton,"100 Red Rider Road , Weirton, WV, 26062",26062
Brooke,"-80.577852, 40.324597",Hooverson Heights Primary School,200 Rockdale Road,Follansbee,"200 Rockdale Road , Follansbee, WV, 26037",26037
Brooke,"-80.594312, 40.329752",Jefferson Primary School,Jefferson Street,Follansbee,"Jefferson Street , Follansbee, WV, 26037",26037
Brooke,"-80.5953079, 40.3355161",Follansbee Middle School,1400 Main Street,Follansbee,"1400 Main Street , Follansbee, WV, 26037",26037
Ohio,"-80.5982774, 40.1696903",West Liberty Elementary School,745 Van Meter Way,Wheeling,"745 Van Meter Way , Wheeling, WV, 26003",26003
Brooke,"-80.6105096, 40.278004",Wellsburg Primary School,1448 Main Street,Wellsburg,"1448 Main Street , Wellsburg, WV, 26070",26070
Brooke,"-80.611811, 40.277456",Wellsburg Middle School,1447 Main Street,Wellsburg,"1447 Main Street , Wellsburg, WV, 26070",26070
Brooke,"-80.6118381, 40.3953038",Lauretta B Millsop Primary School,Legion & Swearingen,Weirton,"Legion & Swearingen , Weirton, WV, 26062",26062
Ohio,"-80.628945, 40.042719",Middle Creek Elementary School,579 Middle Creek Road,Triadelphia,"579 Middle Creek Road , Triadelphia, WV, 26059",26059
Nicholas,"-80.64977309999999, 38.3273324",Nicholas County Career/Technical Center,215 Milam Addition Rd,Craigsville,"215 Milam Addition Rd , Craigsville, WV, 26205",26205
Ohio,"-80.6513676, 40.0278732",Elm Grove Elementary School,85 Mil Acres Dr,Wheeling,"85 Mil Acres Dr , Wheeling, WV, 26003",26003
Brooke,"-80.6516039, 40.225851",Beech Bottom Primary,High Street,Beech Bottom,"High Street , Beech Bottom, WV, 26030",26030
Nicholas,"-80.6519961, 38.329149",Gauley River Elementary,100 School Street,Craigsville,"100 School Street, Craigsville, WV, 26205",26205
Braxton,"-80.6529971, 38.7216606",Flatwoods Elementary School,Po Box 130,Flatwoods,"Po Box 130 , Flatwoods, WV, 26621",26621
Ohio,"-80.65454009999999, 40.0692047",Wheeling Park High School,1976 Park View Rd,Wheeling,"1976 Park View Rd , Wheeling, WV, 26003",26003
Braxton,"-80.65688209999999, 38.8588926",Burnsville Elementary School,Po Box 35 228 Kanawha Ave,Burnsville,"Po Box 35 228 Kanawha Ave, Burnsville, WV, 26335",26335
Monroe,"-80.6580278, 37.4834722",Monroe County Vocational Center,"Route 1, Box 97 James Monroe Drive",Lindside,"Route 1, Box 97 James Monroe Drive, Lindside, WV, 24951",24951
Ohio,"-80.6624185, 40.0426087",Bridge Street Middle School,19 Junior Ave,Wheeling,"19 Junior Ave , Wheeling, WV, 26003",26003
Braxton,"-80.6636461, 38.6945697",Braxton County Middle School,100 Carter Braxton Drive,Sutton,"100 Carter Braxton Drive , Sutton, WV, 26601",26601
Braxton,"-80.66719069999999, 38.6958124",Braxton County High School,200 Jerry Burton Drive,Sutton,"200 Jerry Burton Drive , Sutton, WV, 26601",26601
Ohio,"-80.67478059999999, 40.0600785",Triadelphia Middle School,1636 National Rd,Wheeling,"1636 National Rd , Wheeling, WV, 26003",26003
Marshall,"-80.67522459999999, 39.9967406",Hilltop Elementary School,2 Ram Drive,Wheeling,"2 Ram Drive , Wheeling, WV, 26003",26003
Ohio,"-80.6762987, 40.0600323",Steenrod Elementary School,100 Clarks Ln,Wheeling,"100 Clarks Ln , Wheeling, WV, 26003",26003
Wetzel,"-80.6772644, 39.5641231",Valley High School,One Lumberjack Lane,Pine Grove,"One Lumberjack Lane , Pine Grove, WV, 26419",26419
Marshall,"-80.6795751, 39.9968277",Sherrard Middle School,1000 Fairmont Pike,Wheeling,"1000 Fairmont Pike , Wheeling, WV, 26003",26003
Greenbrier,"-80.6869167, 37.965",Rupert Elementary,Po Drawer D,Rupert,"Po Drawer D , Rupert, WV, 25984",25984
Ohio,"-80.691768, 40.0449589",Bethlehem Elementary School,22 Chapel Rd,Wheeling,"22 Chapel Rd , Wheeling, WV, 26003",26003
Ohio,"-80.6931554, 40.07729399999999",Woodsdale Elementary School,1 Bethany Pike,Wheeling,"1 Bethany Pike , Wheeling, WV, 26003",26003
Ohio,"-80.7012561, 40.114285",Warwood School,150 Viking Dr,Wheeling,"150 Viking Dr , Wheeling, WV, 26003",26003
Nicholas,"-80.705536, 38.228907",Panther Creek Elementary School,10068 Canvas Nettie Road P.o.box 39,Nettie,"10068 Canvas Nettie Road P.o.box 39, Nettie, WV, 26681",26681
Braxton,"-80.7074118, 38.6673006",Sutton Elementary School,288 N Hill Road,Sutton,"288 N Hill Road , Sutton, WV, 26601",26601
Lewis,"-80.7098714, 39.0126472",Leading Creek Elementary,15300 US Highway 33W,Linn,"15300 US Highway 33W, Linn, WV, 26384",26384
Braxton,"-80.710011, 38.579581",Little Birch Elementary School,55 Little Birch Road,Sutton,"55 Little Birch Road, Sutton, WV, 26601",26601
Marshall,"-80.7222431, 39.9206454",Mcninch Primary School,2600 Fourth Street,Moundsville,"2600 Fourth Street , Moundsville, WV, 26041",26041
Ohio,"-80.7236073, 40.0447839",Ritchie Elementary School,3700 Wood St,Wheeling,"3700 Wood St , Wheeling, WV, 26003",26003
Ohio,"-80.726417, 40.04786989999999",Wheeling Middle School,35th and Chapline St,Wheeling,"35th and Chapline St , Wheeling, WV, 26003",26003
Marshall,"-80.7282553, 39.989034",Center Mcmechen Elementary School,800 Marshall Street,Mcmechen,"800 Marshall Street , Mcmechen, WV, 26040",26040
Greenbrier,"-80.7325287, 38.0664173",Crichton Elementary,Po Box 205,Quinwood,"Po Box 205 , Quinwood, WV, 25981",25981
Greenbrier,"-80.7329419, 38.0030774",Greenbrier West High School,Po Box 325 One Cavalier Drive,Charmco,"Po Box 325 One Cavalier Drive, Charmco, WV, 25958",25958
Ohio,"-80.7335621, 40.0722792",Madison Elementary School,91 Zane St,Wheeling,"91 Zane St , Wheeling, WV, 26003",26003
Marshall,"-80.7363211, 39.9309101",Gateway Achievement Center,21 Park Street,Moundsville,"21 Park Street , Moundsville, WV, 26041",26041
Marshall,"-80.7451428, 39.91825499999999",Central Elementary School,750 Tomlinson Avenue,Moundsville,"750 Tomlinson Avenue , Moundsville, WV, 26041",26041
Marshall,"-80.74544999999999, 39.92239199999999",Moundsville Middle School,223 Tomlinson Avenue,Moundsville,"223 Tomlinson Avenue , Moundsville, WV, 26041",26041
Nicholas,"-80.7483056, 38.4971667",Birch River Elementary School,379 Birch River Road,Birch River,"379 Birch River Road , Birch River, WV, 26610",26610
Marshall,"-80.7528797, 39.9475823",Glen Dale Elementary School,407 Seventh Street,Glen Dale,"407 Seventh Street , Glen Dale, WV, 26038",26038
Marshall,"-80.7532632, 39.9416792",John Marshall Adult Prep,John Marshall High School 1300 Wheeling Avenue,Glen Dale,"John Marshall High School 1300 Wheeling Avenue, Glen Dale, WV, 26038",26038
Marshall,"-80.7532632, 39.9416792",John Marshall High School,1300 Wheeling Avenue,Glen Dale,"1300 Wheeling Avenue , Glen Dale, WV, 26038",26038
Summers,"-80.7542478, 37.6515095",Talcott Elementary School,P O Box 140,Talcott,"P O Box 140 , Talcott, WV, 24981",24981
Doddridge,"-80.755513, 39.3003339",Doddridge County Preschool Center,2945 Smithton Road,West Union,"2945 Smithton Road, West Union, WV, 26426",26426
Doddridge,"-80.7735429, 39.29271",Doddridge County Elementary School,182 Doddridge School Road,West Union,"182 Doddridge School Road, West Union, WV, 26456",26456
Braxton,"-80.774655, 38.671378",Davis Elementary School,113 Fifth Street,Gassaway,"113 Fifth Street , Gassaway, WV, 26624",26624
Doddridge,"-80.77487289999999, 39.2924959",Doddridge County Middle School,65 Doddridge School Road,West Union,"65 Doddridge School Road, West Union, WV, 26456",26456
Greenbrier,"-80.7801418, 37.9685215",Rainelle Elementary,701 Kanawha Avenue,Rainelle,"701 Kanawha Avenue , Rainelle, WV, 25962",25962
Doddridge,"-80.7857567, 39.2771531",Doddridge County High School,79 Bulldog Drive,West Union,"79 Bulldog Drive , West Union, WV, 26456",26456
Monroe,"-80.79153149999999, 37.4009168",Peterstown Middle School,108 College Drive,Peterstown,"108 College Drive , Peterstown, WV, 24963",24963
Monroe,"-80.7928708, 37.4004768",Peterstown Elementary,36 College Drive,Peterstown,"36 College Drive , Peterstown, WV, 24963",24963
Nicholas,"-80.8002546, 38.3194084",Glade Creek Elementary School,7950 Webster Road,Summersville,"7950 Webster Road , Summersville, WV, 26651",26651
Gilmer,"-80.81851309999999, 38.9374884",Gilmer County Elementary School,99 Fairground Road,Glenville,"99 Fairground Road, Glenville, WV, 26351",26351
Nicholas,"-80.83027030000001, 38.322379",Summersville Middle School,40 Grizzly Rd,Summersville,"40 Grizzly Rd , Summersville, WV, 26651",26651
Nicholas,"-80.8314911, 38.3216046",Nicholas County High School,30 Grizzly Rd,Summersville,"30 Grizzly Rd , Summersville, WV, 26651",26651
Gilmer,"-80.8342108, 38.9388632",Gilmer County High School,300 Pine Street,Glenville,"300 Pine Street , Glenville, WV, 26351",26351
Wetzel,"-80.84743019999999, 39.6791762",New Martinsville School,20 E Benjamin Drive,New Martinsville,"20 E Benjamin Drive , New Martinsville, WV, 26155",26155
Nicholas,"-80.8528935, 38.209111",Mt Nebo Elementary School,Po Box 160 110 Schoolhouse Lane,Mt. Nebo,"Po Box 160 110 Schoolhouse Lane, Mt. Nebo, WV, 26651",26651
Braxton,"-80.853968, 38.638059",Frametown Elementary School,Hc 61 Box 14,Frametown,"Hc 61 Box 14 , Frametown, WV, 26623",26623
Nicholas,"-80.856742, 38.278281",Summersville Elementary School,108 Mckees Creek Rd,Summersville,"108 Mckees Creek Rd , Summersville, WV, 26651",26651
Wetzel,"-80.85759929999999, 39.6445214",Wetzel Co. Ctr. For Children & Families,Rr2 Box 107,New Martinsville,"Rr2 Box 107 , New Martinsville, WV, 26155",26155
Fayette,"-80.8600282, 37.866317",Meadow Bridge Elementary,2725 Main Street,Meadow Bridge,"2725 Main Street , Meadow Bridge, WV, 25976",25976
Fayette,"-80.8600685, 37.8663527",Meadow Bridge High,2775 Main Street,Meadow Bridge,"2775 Main Street , Meadow Bridge, WV, 25976",25976
Wetzel,"-80.8606265, 39.6461944",Magnolia High School,601 Maple Avenue,New Martinsville,"601 Maple Avenue , New Martinsville, WV, 26155",26155
Nicholas,"-80.87547289999999, 38.1566215",Mt Lookout Elementary School,1945 Mt. Lookout Road,Mt Lookout,"1945 Mt. Lookout Road , Mt Lookout, WV, 26678",26678
Summers,"-80.8881048, 37.7067055",Summers County High School,One Bobcat Drive,Hinton,"One Bobcat Drive , Hinton, WV, 25951",25951
Summers,"-80.88836409999999, 37.6745007",Summers Middle School,400 Temple St,Hinton,"400 Temple St , Hinton, WV, 25951",25951
Summers,"-80.8915339, 37.670299",Hinton Area Elementary School,121 Park Avenue,Hinton,"121 Park Avenue , Hinton, WV, 25951",25951
Tyler,"-80.8946742, 39.5206006",Tyler Consolidated Middle School,1993 Silver Knight Drive,Sistersville,"1993 Silver Knight Drive , Sistersville, WV, 26175",26175
Tyler,"-80.8946742, 39.5206006",Tyler Consolidated High School,1993 Silver Knight Drive,Sistersville,"1993 Silver Knight Drive , Sistersville, WV, 26175",26175
Wetzel,"-80.92624289999999, 39.6103016",Paden City Elementary School,510 N Second Avenue,Paden City,"510 N Second Avenue , Paden City, WV, 26159",26159
Wetzel,"-80.9313264, 39.6052878",Paden City High School,201 N Fourth Avenue,Paden City,"201 N Fourth Avenue , Paden City, WV, 26159",26159
Nicholas,"-80.9508895, 38.2850748",Zela Elementary School,165 Country Road,Summersville,"165 Country Road , Summersville, WV, 26651",26651
Ritchie,"-80.9539475, 39.0626312",Smithville Elementary,P O Box 30,Smithville,"P O Box 30 , Smithville, WV, 26178",26178
Mercer,"-80.9547709, 37.3398449",Oakvale School,2503 Goodwins Chapel Road,Princeton,"2503 Goodwins Chapel Road , Princeton, WV, 24740",24740
Fayette,"-80.9688239, 38.1107386",Midland Trail High,Po Box 89 Rt 60-E,Hico,"Po Box 89 Rt 60-E, Hico, WV, 25854",25854
Ritchie,"-80.97206229999999, 39.286057",Creed Collins Elementary,512 Collins Avenue,Pennsboro,"512 Collins Avenue , Pennsboro, WV, 26415",26415
Summers,"-80.9760556, 37.6856403",Jumping Branch Elementary School,P O Box 9,Jumping Branch,"P O Box 9 , Jumping Branch, WV, 25969",25969
Tyler,"-81.00018779999999, 39.5549861",Sistersville Elementary School,651 Terrace Circle,Sistersville,"651 Terrace Circle , Sistersville, WV, 26175",26175
Mercer,"-81.00604899999999, 37.42475750000001",Athens School,Po Box 568,Athens,"Po Box 568 , Athens, WV, 24712",24712
Clay,"-81.0343194, 38.5869375",Big Otter Elementary School,Po Box 100 59 Ossia Road,Ivydale,"Po Box 100 59 Ossia Road, Ivydale, WV, 25113",25113
Ritchie,"-81.044167, 39.213475",Harrisville Elementary,1201 E Main Street,Harrisville,"1201 E Main Street , Harrisville, WV, 26362",26362
Calhoun,"-81.0592741, 38.9498905",Pleasant Hill School,3254 N Calhoun Hwy,Grantsville,"3254 N Calhoun Hwy , Grantsville, WV, 26147",26147
Mercer,"-81.0599572, 37.4286616",Pikeview High School,3566 Eads Mill Road,Princeton,"3566 Eads Mill Road , Princeton, WV, 24740",24740
Mercer,"-81.061092, 37.427192",Pikeview Middle School,3550 Eads Mill Road,Princeton,"3550 Eads Mill Road , Princeton, WV, 24740",24740
Ritchie,"-81.06347, 39.262663",Ritchie County High School,107 Ritchie County School Rd,Ellenboro,"107 Ritchie County School Rd , Ellenboro, WV, 26346",26346
Ritchie,"-81.0641006, 39.2626941",Ritchie County Middle,105 Ritchie County School Rd,Ellenboro,"105 Ritchie County School Rd , Ellenboro, WV, 26346",26346
Fayette,"-81.065429, 38.006748",Gatewood Elementary,5094 Gatewood Road,Fayetteville,"5094 Gatewood Road , Fayetteville, WV, 25840",25840
Clay,"-81.08316769999999, 38.460473",Clay Middle School,Po Box 489 419 Church Street,Clay,"Po Box 489 419 Church Street, Clay, WV, 25043",25043
Clay,"-81.0836987, 38.460489",Clay Elementary School,Po Box 600 219 Church Street,Clay,"Po Box 600 219 Church Street, Clay, WV, 25043",25043
Clay,"-81.09237639999999, 38.4460987",Clay County High School,Po Box 729 1 Panther Drive,Clay,"Po Box 729 1 Panther Drive, Clay, WV, 25043",25043
Raleigh,"-81.0942426, 37.7040935",Shady Spring Elementary,Po Box 2009,Shady Spring,"Po Box 2009 , Shady Spring, WV, 25918",25918
Raleigh,"-81.0942426, 37.7040935",Shady Spring High,Po Box 2001,Shady Spring,"Po Box 2001 , Shady Spring, WV, 25918",25918
Mercer,"-81.09446179999999, 37.3706849",Straley Elementary School,810 Straley Avenue,Princeton,"810 Straley Avenue , Princeton, WV, 24740",24740
Mercer,"-81.0954184, 37.3788847",Mercer County Early Learning Center,821 Broadway Street,Princeton,"821 Broadway Street , Princeton, WV, 24740",24740
Calhoun,"-81.0959455, 38.9234195",Calhoun-Gilmer Career Center,5260 E Little Kanawha Hwy,Grantsville,"5260 E Little Kanawha Hwy, Grantsville, WV, 26147",26147
Fayette,"-81.09954789999999, 38.1362201",Ansted Elementary,Po Box 609,Ansted,"Po Box 609 , Ansted, WV, 25812",25812
Mercer,"-81.09971039999999, 37.3606943",Princeton Senior High School,1321 Stafford Drive,Princeton,"1321 Stafford Drive , Princeton, WV, 24740",24740
Mercer,"-81.1001355, 37.3671685",Mercer Elementary School,1200 Mercer Street,Princeton,"1200 Mercer Street , Princeton, WV, 24740",24740
Mercer,"-81.10179099999999, 37.354954",Princeton Primary,219b Old Bluefield Road,Princeton,"219b Old Bluefield Road , Princeton, WV, 24740",24740
Raleigh,"-81.1026262, 37.6938945",Shady Spring Middle School,500 Flat Top Road,Shady Spring,"500 Flat Top Road , Shady Spring, WV, 25918",25918
Mercer,"-81.1030573, 37.4786642",Spanishburg School,Po Box 7,Spanishburg,"Po Box 7 , Spanishburg, WV, 25922",25922
Mercer,"-81.1045068, 37.3687344",Princeton Middle School,300 N. Johnston Street,Princeton,"300 N. Johnston Street , Princeton, WV, 24740",24740
Mercer,"-81.1046952, 37.3600179",Mercer County Technical Education Center,1397 Stafford Drive,Princeton,"1397 Stafford Drive , Princeton, WV, 24740",24740
Fayette,"-81.1052421, 38.0525436",Fayetteville Elementary,200 Wiseman Avenue,Fayetteville,"200 Wiseman Avenue , Fayetteville, WV, 25840",25840
Calhoun,"-81.1129632, 38.8376242",Calhoun Middle/High School,50 Underwood Circle,Mt. Zion,"50 Underwood Circle , Mt. Zion, WV, 26151",26151
Fayette,"-81.1131642, 38.0467048",Fayetteville High,515 West Maple Avenue,Fayetteville,"515 West Maple Avenue , Fayetteville, WV, 25840",25840
Calhoun,"-81.1286808, 38.7893803",Arnoldsburg School,Post Office Box 159,Arnoldsburg,"Post Office Box 159 , Arnoldsburg, WV, 25234",25234
Fayette,"-81.1335433, 37.9995935",Rosedale Elementary,4001 Summerlee Rd,Oak Hill,"4001 Summerlee Rd , Oak Hill, WV, 25901",25901
Fayette,"-81.142077, 37.98552",New River Elementary,262 Oyler Avenue,Oak Hill,"262 Oyler Avenue , Oak Hill, WV, 25901",25901
Fayette,"-81.14692509999999, 37.9888198",Fayette Institute Of Technology,300 West Oyler Avenue,Oak Hill,"300 West Oyler Avenue , Oak Hill, WV, 25901",25901
Fayette,"-81.14838979999999, 37.9911471",Oak Hill High,350 West Oyler Avenue,Oak Hill,"350 West Oyler Avenue , Oak Hill, WV, 25901",25901
Mercer,"-81.151944, 37.3373018",Glenwood School,1734 Glenwood Park Road,Princeton,"1734 Glenwood Park Road , Princeton, WV, 24740",24740
Raleigh,"-81.15391699999999, 37.812429",Stanaford Elementary School,950 Stanaford Road,Beckley,"950 Stanaford Road , Beckley, WV, 25801",25801
Raleigh,"-81.155153, 37.784953",Beckley-Stratton Middle School,401 Gray Flats Road,Beckley,"401 Gray Flats Road , Beckley, WV, 25801",25801
Raleigh,"-81.15519599999999, 37.7832277",Beckley Elementary,399 Gray Flats Road,Beckley,"399 Gray Flats Road , Beckley, WV, 25801",25801
Fayette,"-81.1579053, 37.9738781",Collins Middle,601 Jones Avenue,Oak Hill,"601 Jones Avenue , Oak Hill, WV, 25901",25901
Fayette,"-81.1632868, 37.8942657",Mount Hope Elementary,408 Lincoln Street,Mount Hope,"408 Lincoln Street , Mount Hope, WV, 25880",25880
Raleigh,"-81.16825469999999, 37.8002154",Woodrow Wilson High School,400 Stanaford Road,Beckley,"400 Stanaford Road , Beckley, WV, 25801",25801
Raleigh,"-81.1685098, 37.7999083",Academy Of Careers And Technology,390 Stanaford Road,Beckley,"390 Stanaford Road , Beckley, WV, 25801",25801
Raleigh,"-81.17383699999999, 37.766447",Stratton Elementary,1129 South Fayette Street,Beckley,"1129 South Fayette Street , Beckley, WV, 25801",25801
Clay,"-81.1791452, 38.3306638",Lizemore Elementary School,Po Box 70 #1 Lizemore Street,Lizemore,"Po Box 70 #1 Lizemore Street, Lizemore, WV, 25125",25125
Pleasants,"-81.1797971, 39.4243966",St. Marys High School,2330 N Pleasants Hwy,St Marys,"2330 N Pleasants Hwy, St Marys, WV, 26170",26170
Pleasants,"-81.180206, 39.422841",Mid Ohio Valley Technical Institute,2134 N Pleasants Highway,St Marys,"2134 N Pleasants Highway , St Marys, WV, 26170",26170
Raleigh,"-81.191154, 37.771575",Park Middle School,212 Park Avenue,Beckley,"212 Park Avenue , Beckley, WV, 25801",25801
Raleigh,"-81.191169, 37.82106",Cranberry-Prosperity Elementary,4575 Robert C Byrd Dr,Beckley,"4575 Robert C Byrd Dr , Beckley, WV, 25801",25801
Nicholas,"-81.192036, 38.254408",Dixie Elementary School,Po Box 288 1988 Dixie Highway,Dixie,"Po Box 288 1988 Dixie Highway, Dixie, WV, 25059",25059
Raleigh,"-81.193389, 37.847952",Bradley Elementary School,210 Bradley School Road,Mt Hope,"210 Bradley School Road , Mt Hope, WV, 25880",25880
Mercer,"-81.19679, 37.406273",Montcalm Elementary School,Rt 2 Box 35,Rock,"Rt 2 Box 35 , Rock, WV, 24747",24747
Raleigh,"-81.197519, 37.807839",Maxwell Hill Elementary,1001 Maxwell Hill Road,Beckley,"1001 Maxwell Hill Road , Beckley, WV, 25801",25801
Pleasants,"-81.2029337, 39.3901719",St. Marys Elementary School,317 Washington Street,St Marys,"317 Washington Street , St Marys, WV, 26170",26170
Mercer,"-81.2097371, 37.2583355",Memorial Primary,319 Memorial Avenue,Bluefield,"319 Memorial Avenue , Bluefield, WV, 24701",24701
Raleigh,"-81.2100044, 37.7873688",Crescent Elementary,205 Crescent Road,Beckley,"205 Crescent Road , Beckley, WV, 25801",25801
Mercer,"-81.217817, 37.248651",Bluefield High School,535 West Cumberland Road,Bluefield,"535 West Cumberland Road , Bluefield, WV, 24701",24701
Raleigh,"-81.21823309999999, 37.68671560000001",Independence High School,Po Box 1595,Coal City,"Po Box 1595 , Coal City, WV, 25823",25823
Clay,"-81.23006749999999, 38.446661",H E White Elementary School,501 Bomont Road,Bomont,"501 Bomont Road , Bomont, WV, 25030",25030
Mercer,"-81.23070059999999, 37.249801",Whitethorn Elementary School,1919 Maryland Avenue,Bluefield,"1919 Maryland Avenue , Bluefield, WV, 24701",24701
Mercer,"-81.23238429999999, 37.2431432",Bluefield Intermediate,1301 Southview Drive,Bluefield,"1301 Southview Drive , Bluefield, WV, 24701",24701
Roane,"-81.2353612, 38.6121233",Geary Elementary School,P O Box 89,Left Hand,"P O Box 89 , Left Hand, WV, 25251",25251
Raleigh,"-81.2405784, 37.7182976",Crab Orchard Elementary,Po Box 727 Rt 16,Crab Orchard,"Po Box 727 Rt 16, Crab Orchard, WV, 25827",25827
Mercer,"-81.2436322, 37.2494521",Bluefield Middle School,2002 Stadium Drive,Bluefield,"2002 Stadium Drive , Bluefield, WV, 24701",24701
Raleigh,"-81.2477531, 37.7101555",Sophia-Soak Creek Elementary,Po Box 487,Sophia,"Po Box 487 , Sophia, WV, 25921",25921
Raleigh,"-81.2477531, 37.7101555",Independence Middle School,Po Box 1171,Sophia,"Po Box 1171 , Sophia, WV, 25921",25921
Mercer,"-81.2511024, 37.3473785",Montcalm High School,5366 Simmons River Road,Rock,"5366 Simmons River Road, Rock, WV, 24747",24747
Raleigh,"-81.2546366, 37.6987948",Hollywood Elementary,Po Box 7,Macarthur,"Po Box 7 , Macarthur, WV, 25873",25873
Pleasants,"-81.2634123, 39.3778543",Pleasants County Middle School,510 Riverview Drive,Belmont,"510 Riverview Drive , Belmont, WV, 26134",26134
Pleasants,"-81.26423299999999, 39.377906",Belmont Elementary School,512 Riverview Drive,Belmont,"512 Riverview Drive , Belmont, WV, 26134",26134
Mercer,"-81.30693149999999, 37.4780145",Lashmeet/Matoaka School,Po Box 408,Matoaka,"Po Box 408 , Matoaka, WV, 24736",24736
Raleigh,"-81.3234382, 37.9067915",Clear Fork District Elementary,P.o. Box 127,Clear Creek,"P.o. Box 127 , Clear Creek, WV, 25044",25044
Raleigh,"-81.336454, 37.794213",Trap Hill Middle School,665 Coal River Road,Glen Daniel,"665 Coal River Road , Glen Daniel, WV, 25844",25844
Roane,"-81.3501871, 38.79167990000001",Spencer Elementary School,85 Clay Road,Spencer,"85 Clay Road , Spencer, WV, 25276",25276
Roane,"-81.35303189999999, 38.8048358",Spencer Middle School,102 Chapman Avenue,Spencer,"102 Chapman Avenue , Spencer, WV, 25276",25276
Roane,"-81.3658834, 38.7738286",Roane County High,One Raider Way,Spencer,"One Raider Way , Spencer, WV, 25276",25276
Raleigh,"-81.3673719, 37.7827025",Fairdale Elementary School,Po Box 10,Fairdale,"Po Box 10 , Fairdale, WV, 25839",25839
Wyoming,"-81.3713247, 37.5259596",Herndon Cons Elementary & Middle School,Po Box 309 4456 Herndon Road,Bud,"Po Box 309 4456 Herndon Road, Bud, WV, 24716",24716
Raleigh,"-81.3729372, 37.7998421",Liberty High School,Po Box 265,Glen Daniel,"Po Box 265 , Glen Daniel, WV, 25844",25844
Wyoming,"-81.37548819999999, 37.588754",Mullens Middle School,801 Moran Avenue,Mullens,"801 Moran Avenue , Mullens, WV, 25882",25882
Wyoming,"-81.3800359, 37.6001498",Mullens Elementary School,2107 Caloric Road,Mullens,"2107 Caloric Road , Mullens, WV, 25882",25882
Wood,"-81.3838896, 39.3383318",Waverly Elementary School,422 Virginia St,Waverly,"422 Virginia St , Waverly, WV, 26184",26184
Wirt,"-81.3922736, 39.0577083",Wirt County Primary Center,P O Box 220,Elizabeth,"P O Box 220 , Elizabeth, WV, 26143",26143
Roane,"-81.40059769999999, 38.6338939",Walton Elementary/Middle School,90 School Drive,Walton,"90 School Drive , Walton, WV, 25286",25286
Roane,"-81.4287323, 38.9010358",Reedy Elementary School,Roosevelt St,Reedy,"Roosevelt St , Reedy, WV, 25270",25270
Kanawha,"-81.4289228, 38.2172265",Cedar Grove Elementary School,Po Box J,Cedar Grove,"Po Box J , Cedar Grove, WV, 25039",25039
Kanawha,"-81.4289228, 38.2172265",Cedar Grove Middle School,Po Box J,Cedar Grove,"Po Box J , Cedar Grove, WV, 25039",25039
McDowell,"-81.4365833, 37.3295833",Anawalt Elementary School,Box 230,Anawalt,"Box 230 , Anawalt, WV, 24808",24808
Wood,"-81.4517356, 39.4007652",Williamstown High School,219 W 5th St,Williamstown,"219 W 5th St , Williamstown, WV, 26187",26187
Raleigh,"-81.4519565, 37.8482081",Marsh Fork Elementary,5690 Coal River Road,Naoma,"5690 Coal River Road , Naoma, WV, 25174",25174
Wood,"-81.4537335, 39.4017671",Williamstown Elementary School,418 Williams Ave,Williamstown,"418 Williams Ave , Williamstown, WV, 26187",26187
Wood,"-81.4610269, 39.199402",Kanawha Elementary School,6465 Staunton Tpke,Davisville,"6465 Staunton Tpke , Davisville, WV, 26142",26142
Kanawha,"-81.4671585, 38.4449168",Bridge Elementary School,5120 Elk River Road N,Elkview,"5120 Elk River Road N , Elkview, WV, 25071",25071
Wyoming,"-81.4709693, 37.570262",Wyoming County East High School,"PO Box 390, 260 Warrior Way",New Richmond,"PO Box 390, 260 Warrior Way, New Richmond, WV, 24867",24867
Kanawha,"-81.477891, 38.442588",Elkview Middle School,5090 N Elk River Rd,Elkview,"5090 N Elk River Rd , Elkview, WV, 25071",25071
Kanawha,"-81.4815615, 38.4050054",Pinch Elementary School,300 South Pinch Rd,Elkview,"300 South Pinch Rd , Elkview, WV, 25071",25071
Kanawha,"-81.48276489999999, 38.442321",Herbert Hoover High School,5096 N Elk River Rd,Elkview,"5096 N Elk River Rd , Elkview, WV, 25071",25071
Kanawha,"-81.4943595, 38.3332057",Mary Ingles Elementary School,Po Box 367,Tad,"Po Box 367 , Tad, WV, 25201",25201
Wood,"-81.5069961, 39.2165703",Caperton Center For Applied Technology,300 Campus Dr,Parkersburg,"300 Campus Dr , Parkersburg, WV, 26101",26101
Kanawha,"-81.512694, 38.207217",Riverside High School,#1 Warrior Way,Belle,"#1 Warrior Way , Belle, WV, 25015",25015
Wood,"-81.51349859999999, 39.1775811",Mineral Wells Elementary School,1776 Elizabeth Pike,Mineral Wells,"1776 Elizabeth Pike , Mineral Wells, WV, 26150",26150
Wood,"-81.5153516, 39.2848362",Worthington Elementary School,2500 36th St,Parkersburg,"2500 36th St , Parkersburg, WV, 26104",26104
Kanawha,"-81.51536899999999, 38.21035699999999",Midland Trail Elementary School,200 Ferry St,Diamond,"200 Ferry St , Diamond, WV, 25015",25015
Wood,"-81.5203902, 39.2704223",Criss Elementary School,2800 22nd St,Parkersburg,"2800 22nd St , Parkersburg, WV, 26101",26101
Wood,"-81.52201269999999, 39.2854332",Hamilton Middle School,3501 Cadillac Dr,Parkersburg,"3501 Cadillac Dr , Parkersburg, WV, 26104",26104
Kanawha,"-81.5263424, 38.2155946",Chesapeake Elementary School,13620 Mccorkle Ave,Chesapeake,"13620 Mccorkle Ave , Chesapeake, WV, 25315",25315
Wood,"-81.5287, 39.2875325",Emerson Elementary School,1605 36th St,Parkersburg,"1605 36th St , Parkersburg, WV, 26101",26101
Wyoming,"-81.5308204, 37.6976706",Glen Fork Elementary & Middle School,Po Box 50 111 Glen Fork Hollow Road,Glen Fork,"Po Box 50 111 Glen Fork Hollow Road, Glen Fork, WV, 25845",25845
Wood,"-81.5322578, 39.24424279999999",Trek Center,615 Broadway Ave,Parkersburg,"615 Broadway Ave , Parkersburg, WV, 26101",26101
Wood,"-81.5322578, 39.24424279999999",Fairplains Elementary School,615 Broadway Ave,Parkersburg,"615 Broadway Ave , Parkersburg, WV, 26101",26101
Wood,"-81.5323006, 39.2315501",Edison Middle School,1201 Hillcrest St,Parkersburg,"1201 Hillcrest St , Parkersburg, WV, 26101",26101
Wood,"-81.53367229999999, 39.2835457",Madison Elementary School,1426 32nd St,Parkersburg,"1426 32nd St , Parkersburg, WV, 26101",26101
Wood,"-81.533856, 39.2322512",Martin Elementary School,1301 Hillcrest St,Parkersburg,"1301 Hillcrest St , Parkersburg, WV, 26101",26101
Wyoming,"-81.53475399999999, 37.5792",Pineville Middle School,Po Box 470 607 River Road,Pineville,"Po Box 470 607 River Road, Pineville, WV, 24874",24874
Wyoming,"-81.53475399999999, 37.5792",Pineville Elementary School,"Po Box 700, 541 River Road",Pineville,"Po Box 700, 541 River Road, Pineville, WV, 24874",24874
Raleigh,"-81.5350867, 37.9583058",Raleigh-Boone Technical Center,11823 Coal River Road,Whitesville,"11823 Coal River Road , Whitesville, WV, 25209",25209
Kanawha,"-81.53761829999999, 38.2320461",Du Pont Middle School,1 Panther Way,Belle,"1 Panther Way , Belle, WV, 25015",25015
Wood,"-81.5389659, 39.325156",Jackson Middle School,1601 34th St,Vienna,"1601 34th St , Vienna, WV, 26105",26105
Wood,"-81.5397113, 39.3470656",Greenmont Elementary School,209 58th St,Vienna,"209 58th St , Vienna, WV, 26105",26105
Kanawha,"-81.5398014, 38.2327788",Belle Elementary School,401 E 6th Street,Belle,"401 E 6th Street , Belle, WV, 25015",25015
Wood,"-81.5419015, 39.266261",Jefferson Elementary Center,1103 Plum St,Parkersburg,"1103 Plum St , Parkersburg, WV, 26101",26101
Wood,"-81.5425142, 39.3313719",Vienna Elementary School,700 41st St,Vienna,"700 41st St , Vienna, WV, 26105",26105
Wood,"-81.54256459999999, 39.2869681",Van Devender Middle School,918 31st St,Parkersburg,"918 31st St , Parkersburg, WV, 26104",26104
Wood,"-81.5446396, 39.2755704",Mckinley Elementary School,1130 19th St,Parkersburg,"1130 19th St , Parkersburg, WV, 26101",26101
Wood,"-81.54482879999999, 39.2785727",Parkersburg High School,2101 Dudley Ave,Parkersburg,"2101 Dudley Ave , Parkersburg, WV, 26101",26101
Wood,"-81.54899569999999, 39.2436853",Parkersburg South High School,1511 Blizzard Dr,Parkersburg,"1511 Blizzard Dr , Parkersburg, WV, 26101",26101
Wood,"-81.549307, 39.2421793",Wood Co Voc Tech Ctr,1515 Blizzard Dr,Parkersburg,"1515 Blizzard Dr , Parkersburg, WV, 26101",26101
Wood,"-81.55154739999999, 39.2379253",Gihon Elementary School,2000 Belmont Rd,Parkersburg,"2000 Belmont Rd , Parkersburg, WV, 26101",26101
Wood,"-81.5522914, 39.3223417",Neale Elementary School,2305 Grand Central Ave,Vienna,"2305 Grand Central Ave , Vienna, WV, 26105",26105
Wood,"-81.55460339999999, 39.2432678",Franklin Elementary Center,1511 Division St Ext,Parkersburg,"1511 Division St Ext , Parkersburg, WV, 26101",26101
Kanawha,"-81.5583881, 38.3007452",Malden Elementary School,4001 Salinas Drive,Charleston,"4001 Salinas Drive , Charleston, WV, 25306",25306
Jackson,"-81.561241, 38.822323",Roane-Jackson Technical Center,9450 Spencer Rd,Leroy,"9450 Spencer Rd, Leroy, WV, 25252",25252
Roane,"-81.561241, 38.822323",Roane-Jackson Technical Center,9450 Spencer Rd,Leroy,"9450 Spencer Rd, Leroy, WV, 25252",25252
Kanawha,"-81.562899, 38.2895581",Carver Career Center,4799 Midland Dr,Charleston,"4799 Midland Dr , Charleston, WV, 25306",25306
McDowell,"-81.56412809999999, 37.4488145",Welch Elementary School,1235 Stewart Street,Welch,"1235 Stewart Street , Welch, WV, 24801",24801
Kanawha,"-81.5664886, 38.2460696",Marmet Elementary School,408 94th St,Marmet,"408 94th St , Marmet, WV, 25315",25315
Kanawha,"-81.5703936, 38.3965411",Elk Elementary Center,3320 Pennsylvania Ave,Charleston,"3320 Pennsylvania Ave , Charleston, WV, 25302",25302
McDowell,"-81.5757711, 37.4387926",Mount View High School,960 Mount View Road,Welch,"960 Mount View Road , Welch, WV, 24801",24801
Wood,"-81.5758148, 39.2520517",Lubeck Elementary School,206 Lubeck Rd,Parkersburg,"206 Lubeck Rd , Parkersburg, WV, 26101",26101
Kanawha,"-81.5767874, 38.3720105",Capital High School,1500 Greenbrier St,Charleston,"1500 Greenbrier St , Charleston, WV, 25311",25311
Kanawha,"-81.5803354, 38.3191508",Chamberlain Elementary School,4901 Venable Av S E,Charleston,"4901 Venable Av S E , Charleston, WV, 25304",25304
McDowell,"-81.5813805, 37.434714",Phoenix Center,275 Virginia Avenue,Welch,"275 Virginia Avenue , Welch, WV, 24801",24801
Kanawha,"-81.5868325, 38.3245153",Horace Mann Middle School,4300 Maccorkle Avenue,Charleston,"4300 Maccorkle Avenue , Charleston, WV, 25304",25304
Kanawha,"-81.59197300000001, 38.350269",Ruffner Elementary School,809 Litz Drive,Charleston,"809 Litz Drive , Charleston, WV, 25311",25311
Kanawha,"-81.5937735, 38.3900224",Shoals Elementary School,100 Dutch Rd,Charleston,"100 Dutch Rd , Charleston, WV, 25302",25302
Kanawha,"-81.5955627, 38.329578",Kanawha City Elementary School,3601 Staunton Avenue Se,Charleston,"3601 Staunton Avenue Se , Charleston, WV, 25304",25304
Boone,"-81.6141415, 38.1303013",Sherman Elementary School,7487 Coal River Road Po Box 369,Comfort,"7487 Coal River Road Po Box 369, Comfort, WV, 25049",25049
Wood,"-81.6160094, 39.2596302",Blennerhassett Elementary School,448 Jewel Rd,Parkersburg,"448 Jewel Rd , Parkersburg, WV, 26101",26101
Wood,"-81.61664789999999, 39.2593596",Blennerhassett Middle School,444 Jewel Rd,Parkersburg,"444 Jewel Rd , Parkersburg, WV, 26101",26101
Boone,"-81.62169460000001, 38.1143459",Sherman High School,10008 Coal River Road Po Box Ab,Seth,"10008 Coal River Road Po Box Ab, Seth, WV, 25181",25181
Kanawha,"-81.6267249, 38.343956",Piedmont Year-Round Education,203 Bradford Street,Charleston,"203 Bradford Street , Charleston, WV, 25301",25301
Kanawha,"-81.629853, 38.528963",Sissonville Elementary School,8324 Sissonville Drive,Sissonville,"8324 Sissonville Drive , Sissonville, WV, 25320",25320
Kanawha,"-81.6299222, 38.35104",Garnet Career Center,422 Dickinson Street,Charleston,"422 Dickinson Street , Charleston, WV, 25301",25301
Kanawha,"-81.63328589999999, 38.3652026",Watts Elementary School,230 Costello St,Charleston,"230 Costello St , Charleston, WV, 25302",25302
Kanawha,"-81.63725819999999, 38.3838867",Edgewood Elementary,550 Hawks Ridge,Charleston,"550 Hawks Ridge, Charleston, WV, 25302",25302
Kanawha,"-81.641459, 38.3244967",Holz Elementary School,1505 Hampton Rd,Charleston,"1505 Hampton Rd , Charleston, WV, 25314",25314
Kanawha,"-81.649518, 38.3678017",Stonewall Jackson Middle School,812 Park Avenue,Charleston,"812 Park Avenue , Charleston, WV, 25302",25302
Kanawha,"-81.6510612, 38.3710492",J E Robins Elementary School,915 Beech Ave,Charleston,"915 Beech Ave , Charleston, WV, 25302",25302
Kanawha,"-81.654968, 38.3630761",Glenwood Elementary School,810 Grant St,Charleston,"810 Grant St , Charleston, WV, 25302",25302
Kanawha,"-81.6568363, 38.3343177",George Washington High School,1522 Tennis Club Rd,Charleston,"1522 Tennis Club Rd , Charleston, WV, 25314",25314
Kanawha,"-81.6576312, 38.3377448",Overbrook Elementary School,218 Overbrook Rd,Charleston,"218 Overbrook Rd , Charleston, WV, 25314",25314
Kanawha,"-81.6593844, 38.3272158",John Adams Middle School,2002 Presidential Dr,Charleston,"2002 Presidential Dr , Charleston, WV, 25314",25314
Kanawha,"-81.66138029999999, 38.36448000000001",Mary C. Snow West Side Elementary School,100 Florida Street,Charleston,"100 Florida Street , Charleston, WV, 25302",25302
Kanawha,"-81.66227190000001, 38.380167",Chandler Elementary School,1900 School Street,Charleston,"1900 School Street , Charleston, WV, 25312",25312
Kanawha,"-81.66227190000001, 38.380167",Chandler Academy,1900 School Street,Charleston,"1900 School Street, Charleston, WV, 25312",25312
Kanawha,"-81.6678096, 38.4649799",Sissonville Middle School,100 Middle School Lane,Charleston,"100 Middle School Lane , Charleston, WV, 25312",25312
Kanawha,"-81.6703656, 38.353107",Weberwood Elementary School,732 Gordon Road,So. Charleston,"732 Gordon Road , So. Charleston, WV, 25303",25303
Kanawha,"-81.670879, 38.48052370000001",Flinn Elementary School,2006 Mcclure Parkway,Charleston,"2006 Mcclure Parkway , Charleston, WV, 25312",25312
Wyoming,"-81.6709953, 37.7531799",Road Branch Elementary & Middle School,"1165 Huff Creek Road, HC 80 Box 422",Cyclone,"1165 Huff Creek Road, HC 80 Box 422, Cyclone, WV, 24827",24827
Boone,"-81.6723184, 37.8954448",Wharton Elementary,36071 Pond Fork Road Po Box 60,Wharton,"36071 Pond Fork Road Po Box 60, Wharton, WV, 25208",25208
Kanawha,"-81.6725903, 38.4749352",Sissonville High School,6100 Sissonville Dr.,Charleston,"6100 Sissonville Dr. , Charleston, WV, 25312",25312
Wyoming,"-81.67291349999999, 37.5898502",Baileysville Elementary & Middle School,Drawer 409 11618 R.d. Bailey Highway,Brenton,"Drawer 409 11618 R.d. Bailey Highway, Brenton, WV, 24818",24818
McDowell,"-81.6740799, 37.304933",Southside K-8,Po Box 730,War,"Po Box 730 , War, WV, 24892",24892
Jackson,"-81.6767629, 38.6860454",Kenna Elementary School,650 Route 21,Kenna,"650 Route 21 , Kenna, WV, 25248",25248
Kanawha,"-81.681378, 38.381726",Grandview Elementary School,959 Woodward Drive,Charleston,"959 Woodward Drive , Charleston, WV, 25312",25312
Kanawha,"-81.68327579999999, 38.3385611",Kenna Elementary School,198 Eureka Rd,Charleston,"198 Eureka Rd , Charleston, WV, 25314",25314
Kanawha,"-81.6852301, 38.3567209",Montrose Elementary School,631 Montrose Drive,So. Charleston,"631 Montrose Drive , So. Charleston, WV, 25303",25303
Kanawha,"-81.691468, 38.3661634",South Charleston Middle School,400 Third Avenue,South Charleston,"400 Third Avenue , South Charleston, WV, 25303",25303
Boone,"-81.70038679999999, 38.1837243",Ashford-Rumble Elementary,1649 Ashford Nellis Road,Ashford,"1649 Ashford Nellis Road , Ashford, WV, 25009",25009
Jackson,"-81.7009587, 38.8141683",Cottageville Elementary School,100 School Street,Cottageville,"100 School Street , Cottageville, WV, 25239",25239
Jackson,"-81.7016002, 38.8149997",Ripley Elementary School,404 Second Avenue,Ripley,"404 Second Avenue , Ripley, WV, 25271",25271
Jackson,"-81.701605, 38.812448",Ripley High School,2 School Street,Ripley,"2 School Street , Ripley, WV, 25271",25271
McDowell,"-81.70411109999999, 37.45763890000001",Fall River Elementary School,Route 7 Drawer 70,Big Sandy,"Route 7 Drawer 70 , Big Sandy, WV, 24816",24816
Boone,"-81.71336749999999, 37.9718766",Van Junior/Senior High School,913 Van High School Road Po Box 100,Van,"913 Van High School Road Po Box 100, Van, WV, 25206",25206
Boone,"-81.7139301, 37.97191960000001",Van Elementary,338 Van High School Road Po Box 360,Van,"338 Van High School Road Po Box 360, Van, WV, 25206",25206
Kanawha,"-81.71591699999999, 38.3875993",Tyler Middle School,4277 West Washington Street,Charleston,"4277 West Washington Street , Charleston, WV, 25313",25313
Kanawha,"-81.724538, 38.3453609",Richmond Elementary School,4620 Spring Hill Avenue,South Charleston,"4620 Spring Hill Avenue , South Charleston, WV, 25309",25309
Kanawha,"-81.735449, 38.348251",South Charleston High School,1 Eagle Way,South Charleston,"1 Eagle Way , South Charleston, WV, 25309",25309
Kanawha,"-81.735788, 38.352637",Bridgeview Elementary School,5100 Ohio Street,South Charleston,"5100 Ohio Street , South Charleston, WV, 25309",25309
Kanawha,"-81.743146, 38.3594428",Dunbar Intermediate Center,1330 Myers Avenue,Dunbar,"1330 Myers Avenue , Dunbar, WV, 25064",25064
Kanawha,"-81.75391739999999, 38.3623581",Dunbar Primary Center,2401 Myers Avenue,Dunbar,"2401 Myers Avenue , Dunbar, WV, 25064",25064
Kanawha,"-81.7540336, 38.36725140000001",Ben Franklin Career Center,500 28th Street,Dunbar,"500 28th Street , Dunbar, WV, 25064",25064
Kanawha,"-81.7556178, 38.3652734",Dunbar Middle School,325 27th Street,Dunbar,"325 27th Street , Dunbar, WV, 25064",25064
Kanawha,"-81.7564522, 38.3729711",Shawnee Community Center,142 Marshall Avenue,Dunbar,"142 Marshall Avenue , Dunbar, WV, 25064",25064
Jackson,"-81.7588268, 38.95071",Ravenswood Middle School,409 Sycamore Street,Ravenswood,"409 Sycamore Street , Ravenswood, WV, 26164",26164
Jackson,"-81.76132129999999, 38.9521781",Ravenswood High School,Plaza Drive,Ravenswood,"Plaza Drive , Ravenswood, WV, 26164",26164
Jackson,"-81.761432, 38.960579",Henry J Kaiser Elementary School,803 Kaiser Avenue,Ravenswood,"803 Kaiser Avenue , Ravenswood, WV, 26164",26164
Kanawha,"-81.77135489999999, 38.4312865",Point Harmony Elementary School,5312 Big Tyler Road,Cross Lanes,"5312 Big Tyler Road , Cross Lanes, WV, 25313",25313
Kanawha,"-81.77705900000001, 38.270804",Alum Creek Elementary School,Rt 7 Box 279a,So Charleston,"Rt 7 Box 279a , So Charleston, WV, 25309",25309
Kanawha,"-81.78304179999999, 38.4259847",Andrew Jackson Middle School,5445 Big Tyler Road,Charleston,"5445 Big Tyler Road , Charleston, WV, 25313",25313
Jackson,"-81.783355, 38.822207",Evans Elementary School,205 Schoolhouse Drive,Evans,"205 Schoolhouse Drive , Evans, WV, 25241",25241
McDowell,"-81.78425469999999, 37.4130236",Sandy River Middle School,P.o. Box 419,Avondale,"P.o. Box 419 , Avondale, WV, 24811",24811
Kanawha,"-81.7888692, 38.37571",George C. Weimer Elementary School,3040 Kanawha Terrace,St. Albans,"3040 Kanawha Terrace , St. Albans, WV, 25177",25177
Kanawha,"-81.7897519, 38.42118",Cross Lanes Elementary School,5525 Big Tyler Road,Charleston,"5525 Big Tyler Road , Charleston, WV, 25313",25313
Kanawha,"-81.790656, 38.375632",Mckinley Middle School,3000 Kanawha Terrace,St. Albans,"3000 Kanawha Terrace , St. Albans, WV, 25177",25177
McDowell,"-81.7980489, 37.3507725",Bradshaw Elementary School,P.o. Box 40,Bradshaw,"P.o. Box 40 , Bradshaw, WV, 24817",24817
McDowell,"-81.8032638, 37.3579867",River View High School,512 Mountaineer Highway,Bradshaw,"512 Mountaineer Highway , Bradshaw, WV, 24817",24817
Wyoming,"-81.8068693, 37.5856022",Huff Cons Elementary & Middle School,"374 Lizard Creek Rd, Drawer E",Hanover,"374 Lizard Creek Rd, Drawer E, Hanover, WV, 24839",24839
Kanawha,"-81.8118956, 38.37898029999999",Saint Albans High School,2100 Kanawha Terrace,St. Albans,"2100 Kanawha Terrace , St. Albans, WV, 25177",25177
Kanawha,"-81.812957, 38.3855708",Alban Elementary School,2030 Harrison Avenue,St. Albans,"2030 Harrison Avenue , St. Albans, WV, 25177",25177
Putnam,"-81.81417549999999, 38.4722971",Poca Middle School,P.o. Box 647 Route 62 South,Poca,"P.o. Box 647 Route 62 South, Poca, WV, 25159",25159
Putnam,"-81.81417549999999, 38.4722971",Poca Elementary,P.o. Box 430 Route 62 South,Poca,"P.o. Box 430 Route 62 South, Poca, WV, 25159",25159
Boone,"-81.8164446, 38.0628103",Madison Elementary,150 Josephine Avenue,Madison,"150 Josephine Avenue , Madison, WV, 25130",25130
Putnam,"-81.8191105, 38.4476357",Rock Branch Elementary,4616 1st Avenue,Nitro,"4616 1st Avenue , Nitro, WV, 25143",25143
McDowell,"-81.8213349, 37.466634",Iaeger Elementary School,P.o. Box 359 Waters Street,Iaeger,"P.o. Box 359 Waters Street, Iaeger, WV, 24844",24844
Boone,"-81.8257659, 38.1043071",Brookview Elementary,1 Learning Way,Foster,"1 Learning Way , Foster, WV, 25081",25081
Boone,"-81.82732709999999, 38.0723384",Madison Middle School,404 Riverside Dr-W,Madison,"404 Riverside Dr-W , Madison, WV, 25130",25130
Kanawha,"-81.83152989999999, 38.382825",Central Elementary School,900 Helene Street,St. Albans,"900 Helene Street , St. Albans, WV, 25177",25177
Boone,"-81.8331248, 38.0742221",Scott High School,1 Skyhawk Place,Madison,"1 Skyhawk Place , Madison, WV, 25130",25130
Lincoln,"-81.8363011, 38.2607881",Midway Elementary School,267 Midway Road,Alum Creek,"267 Midway Road, Alum Creek, WV, 25003",25003
Kanawha,"-81.8373357, 38.36868320000001",Lakewood Elementary School,2089 Lakewood Drive,St. Albans,"2089 Lakewood Drive , St. Albans, WV, 25177",25177
Kanawha,"-81.8404091, 38.4204528",Nitro Elementary School,1921 19th Street,Nitro,"1921 19th Street , Nitro, WV, 25143",25143
Kanawha,"-81.8419873, 38.3732791",Hayes Middle School,830 Strawberry Road,St. Albans,"830 Strawberry Road , St. Albans, WV, 25177",25177
Kanawha,"-81.8453229, 38.419258",Nitro High School,1300 Park Avenue,Nitro,"1300 Park Avenue , Nitro, WV, 25143",25143
Boone,"-81.8469301, 37.9641221",Jeffrey-Spencer Elementary,3277 Hewett Creek Road Po Box 319,Hewett,"3277 Hewett Creek Road Po Box 319, Hewett, WV, 25108",25108
Logan,"-81.8497567, 37.7653234",Buffalo Elementary School,Po Box 310,Accoville,"Po Box 310 , Accoville, WV, 25606",25606
Kanawha,"-81.856883, 38.400735",Anne Bailey Elementary School,405 Winfield Road,St. Albans,"405 Winfield Road , St. Albans, WV, 25177",25177
Kanawha,"-81.86068209999999, 38.3232547",Andrews Heights Elementary School,P O Box 340,Tornado,"P O Box 340 , Tornado, WV, 25202",25202
Putnam,"-81.8619197, 38.536232",Hometown Elementary,P.o. Box 249 Route 62 North,Hometown,"P.o. Box 249 Route 62 North, Hometown, WV, 25109",25109
Putnam,"-81.8664331, 38.4655985",Eastbrook Elementary School,1600 Bills Creek Road,Winfield,"1600 Bills Creek Road , Winfield, WV, 25213",25213
Logan,"-81.8748159, 37.7345366",Man Senior High School,800 East Mcdonald Avenue,Man,"800 East Mcdonald Avenue , Man, WV, 25635",25635
Logan,"-81.8766558, 37.7386318",South Man Elementary School,301 East Mcdonald Avenue,Man,"301 East Mcdonald Avenue , Man, WV, 25635",25635
Putnam,"-81.8782689, 38.538443",Winfield High School,3022 Winfield Road,Winfield,"3022 Winfield Road , Winfield, WV, 25213",25213
Mingo,"-81.88182359999999, 37.6186173",Gilbert Elementary,Rt. 52 Elementary School Dr.,Gilbert,"Rt. 52 Elementary School Dr. , Gilbert, WV, 25621",25621
Putnam,"-81.8889311, 38.5353507",Winfield Middle School,3280 Winfield Road,Winfield,"3280 Winfield Road , Winfield, WV, 25213",25213
Putnam,"-81.89506820000001, 38.5307242",Winfield Elementary,2 Wall Street,Winfield,"2 Wall Street , Winfield, WV, 25213",25213
Putnam,"-81.910465, 38.448205",Scott Teays Elementary,4308 Teays Valley Road,Scott Depot,"4308 Teays Valley Road , Scott Depot, WV, 25560",25560
Mingo,"-81.9115556, 37.6358889",Gilbert High School,100 Lion Drive,Gilbert,"100 Lion Drive , Gilbert, WV, 25621",25621
Mingo,"-81.9115556, 37.6358889",Gilbert Middle School,100 Lion Drive,Gilbert,"100 Lion Drive , Gilbert, WV, 25621",25621
Putnam,"-81.92128480000001, 38.5334092",George Washington Middle School,P.o. Box 660 Route 62 North,Eleanor,"P.o. Box 660 Route 62 North, Eleanor, WV, 25070",25070
Putnam,"-81.92128480000001, 38.5334092",George Washington Elementary School,P.o. Box 680 Route 62 North,Eleanor,"P.o. Box 680 Route 62 North, Eleanor, WV, 25070",25070
Putnam,"-81.9235564, 38.5349716",Putnam Career & Technical Center,P.o. Box 640 300 Roosevelt Bldv,Eleanor,"P.o. Box 640 300 Roosevelt Bldv, Eleanor, WV, 25070",25070
Logan,"-81.9426074, 37.8268911",Ralph R. Willis Vocational Center,Three Mile Curve Po Box 1747,Logan,"Three Mile Curve Po Box 1747, Logan, WV, 25601",25601
Putnam,"-81.9429476, 38.4470558",Mountain View Elementary School,3967 Teays Valley Road,Hurricane,"3967 Teays Valley Road , Hurricane, WV, 25526",25526
Mason,"-81.9572479, 38.7481123",Leon Elementary School,138 Aylor Street,Leon,"138 Aylor Street , Leon, WV, 25123",25123
Mason,"-81.9684821, 38.985761",New Haven Elementary School,P.o. Box 989,New Haven,"P.o. Box 989 , New Haven, WV, 25265",25265
Putnam,"-81.9728282, 38.4463223",West Teays Elementary,3676 Teays Vly Road,Hurricane,"3676 Teays Vly Road , Hurricane, WV, 25526",25526
Putnam,"-81.99157819999999, 38.6057368",Buffalo High School,3317 Buffalo Road,Buffalo,"3317 Buffalo Road , Buffalo, WV, 25033",25033
Lincoln,"-81.993031, 38.238749",Duval Pk-8,5304 Straight Fork,Griffithsville,"5304 Straight Fork, Griffithsville, WV, 25521",25521
Logan,"-81.9933508, 37.8953677",Justice Elementary School,407 Circle Dirve,Logan,"407 Circle Dirve , Logan, WV, 25601",25601
Logan,"-81.99506629999999, 37.8511408",Logan Elementary School,Midelburg Island,Logan,"Midelburg Island , Logan, WV, 25601",25601
Logan,"-81.99550169999999, 37.8518548",Logan Senior High School,1 Wildcat Way,Logan,"1 Wildcat Way , Logan, WV, 25601",25601
Logan,"-81.9959825, 37.8503511",Logan Middle School,14 Wildcat Way,Logan,"14 Wildcat Way , Logan, WV, 25601",25601
Putnam,"-82.0058466, 38.437667",Hurricane High School,3350 Teays Valley Road,Hurricane,"3350 Teays Valley Road , Hurricane, WV, 25526",25526
Putnam,"-82.00676220000001, 38.4126564",Lakeside Elementary,2550 Us Rt 60,Hurricane,"2550 Us Rt 60 , Hurricane, WV, 25526",25526
Putnam,"-82.0192376, 38.4282373",Hurricane Middle,518 Midland Trail,Hurricane,"518 Midland Trail , Hurricane, WV, 25526",25526
Logan,"-82.02193869999999, 37.9758979",Chapmanville Regional High School,200 Vance Street,Chapmanville,"200 Vance Street , Chapmanville, WV, 25508",25508
Putnam,"-82.0221768, 38.4346469",Conner Street Elementary,445 Conner Street,Hurricane,"445 Conner Street , Hurricane, WV, 25526",25526
Logan,"-82.02488489999999, 37.9764615",Chapmanville Middle School,300 Vance St.,Chapmanville,"300 Vance St. , Chapmanville, WV, 25508",25508
Putnam,"-82.0307521, 38.4241492",Hurricane Town Elementary,300 Harbour Lane,Hurricane,"300 Harbour Lane , Hurricane, WV, 25526",25526
Logan,"-82.0462652, 37.847937",Verdunville Elementary School,Drawer J Hill Drive,Verdunville,"Drawer J Hill Drive, Verdunville, WV, 25649",25649
Cabell,"-82.06179999999999, 38.4194869",Culloden Elementary School,2100 U.s. Route 60,Culloden,"2100 U.s. Route 60 , Culloden, WV, 25510",25510
Mason,"-82.07308800000001, 38.567419",Hannan High School,15638 Ashton Upland Road,Ashton,"15638 Ashton Upland Road , Ashton, WV, 25503",25503
Mingo,"-82.0846054, 37.64188619999999",Mingo Central Comprehensive High,1000 King Coal Highway,Delbarton,"1000 King Coal Highway, Delbarton, WV, 25670",25670
Lincoln,"-82.10094860000001, 38.2788761",Hamlin Pk-8,8130 Court Ave,Hamlin,"8130 Court Ave , Hamlin, WV, 25523",25523
Lincoln,"-82.1163273, 38.27583",Lincoln County High School,81 Lincoln Panther Way,Hamlin,"81 Lincoln Panther Way , Hamlin, WV, 25523",25523
Mason,"-82.11697699999999, 38.879924",Mason County School For Success,758 Scenic Drive,Point Pleasant,"758 Scenic Drive, Point Pleasant, WV, 25550",25550
Mason,"-82.120972, 38.881619",Mason County Career Center,281 Scenic Drive,Point Pleasant,"281 Scenic Drive , Point Pleasant, WV, 25550",25550
Mason,"-82.1275871, 38.87296",Pt. Pleasant Intermediate,1 Walden Way,Pt. Pleasant,"1 Walden Way , Pt. Pleasant, WV, 0",0
Mason,"-82.130189, 38.863892",Pt. Pleasant Primary,2200 Lincoln Ave,Pt. Pleasant,"2200 Lincoln Ave , Pt. Pleasant, WV, 0",0
Cabell,"-82.13456, 38.4368405",Milton Elementary School,1201 Pike St.,Milton,"1201 Pike St. , Milton, WV, 25541",25541
Lincoln,"-82.13501389999999, 38.0370312",Harts Pk-8,1246 Mcclellan Highway,Harts,"1246 Mcclellan Highway , Harts, WV, 25524",25524
Logan,"-82.1386833, 37.9779553",Hugh Dingess Elementary School,Rt. 1 Box 607,Harts,"Rt. 1 Box 607, Harts, WV, 25524",25524
Mason,"-82.14643980000001, 38.6190022",Ashton Elementary School,4250 Ashton-Upland Road,Ashton,"4250 Ashton-Upland Road , Ashton, WV, 25503",25503
Mingo,"-82.1504999, 37.8544721",Dingess Elementary School,101 Schoolhouse Rd.,Dingess,"101 Schoolhouse Rd. , Dingess, WV, 25671",25671
Cabell,"-82.15105, 38.4373515",Milton Middle School,1 Panther Trail,Milton,"1 Panther Trail , Milton, WV, 25541",25541
Mingo,"-82.1559516, 37.6220631",Matewan Elementary School,100 Chambers Street,Matewan,"100 Chambers Street , Matewan, WV, 25678",25678
Mingo,"-82.1566, 37.7339",Mingo County Extended Learning Center,Rt. 2 Box 52-A,Delbarton,"Rt. 2 Box 52-A, Delbarton, WV, 25670",25670
Mingo,"-82.1769834, 37.6769637",Mingo Career & Technical Center,Route 2 Box 52 A,Delbarton,"Route 2 Box 52 A , Delbarton, WV, 25670",25670
Mingo,"-82.1769834, 37.6769637",Burch PK-8,Rt. 2 Box 52-1a,Delbarton,"Rt. 2 Box 52-1a , Delbarton, WV, 25670",25670
Lincoln,"-82.1898441, 38.2487168",Guyan Valley Middle,5312 McClellan Hwy,Branchland,"5312 McClellan Hwy, Branchland, WV, 25506",25506
Lincoln,"-82.1902243, 38.12137329999999",Ranger Elementary,59 Vanatters Creek,Ranger,"59 Vanatters Creek , Ranger, WV, 25557",25557
Lincoln,"-82.196229, 38.29387699999999",West Hamlin Elementary,114 Dairy Road,West Hamlin,"114 Dairy Road, West Hamlin, WV, 25571",25571
Mason,"-82.1973117, 38.7677634",Beale Elementary School,12897 Huntington Road,Gallipolis Ferry,"12897 Huntington Road, Gallipolis Ferry, WV, 25515",25515
Cabell,"-82.20874479999999, 38.4287096",Cabell Midland High School,2300 Us Route 60 East,Ona,"2300 Us Route 60 East , Ona, WV, 25545",25545
Cabell,"-82.2158561, 38.42558349999999",Ona Elementary School,2701 Elementary Dr,Ona,"2701 Elementary Dr , Ona, WV, 25545",25545
Cabell,"-82.2210593, 38.3208479",Salt Rock Elementary School,5570 Madison Creek Rd,Salt Rock,"5570 Madison Creek Rd , Salt Rock, WV, 25559",25559
Cabell,"-82.25429299999999, 38.41907399999999",Nichols Elementary School,3505 Erwin Road,Barboursville,"3505 Erwin Road , Barboursville, WV, 25504",25504
Mingo,"-82.2724733, 37.6772854",Williamson High School,801 Alderson Street,Williamson,"801 Alderson Street , Williamson, WV, 25661",25661
Mingo,"-82.2726283, 37.6764793",Williamson PK-8,Alderson Street,Williamson,"Alderson Street , Williamson, WV, 25661",25661
Cabell,"-82.286162, 38.379285",Martha Elementary School,3067 Martha Road,Barboursville,"3067 Martha Road , Barboursville, WV, 25504",25504
Mingo,"-82.2882846, 37.6694947",Riverside Elementary School,5 Parkway Drive,Williamson,"5 Parkway Drive , Williamson, WV, 25661",25661
Mingo,"-82.289684, 37.797841",Lenore K-8 School,#1 Ranger Drive,Williamson,"#1 Ranger Drive , Williamson, WV, 25661",25661
Cabell,"-82.294518, 38.403337",Barboursville Middle School,1400 Central Ave,Barboursville,"1400 Central Ave , Barboursville, WV, 25504",25504
Cabell,"-82.296893, 38.407411",Village Of Barboursville Elementary Sch,718 Central Ave,Barboursville,"718 Central Ave , Barboursville, WV, 25504",25504
Cabell,"-82.30640749999999, 38.4773629",Cox Landing Elementary School,6358 Cox Lane,Lesage,"6358 Cox Lane , Lesage, WV, 25537",25537
Cabell,"-82.33237, 38.38570800000001",Davis Creek Elementary School,6330 Davis Creek Rd,Barboursville,"6330 Davis Creek Rd , Barboursville, WV, 25504",25504
Mingo,"-82.3380208, 37.799081",Tug Valley High School,555 Panther Drive,Williamson,"555 Panther Drive , Williamson, WV, 25661",25661
Cabell,"-82.36421299999999, 38.41531",Altizer Elementary School,"250 Third Street, Altizer",Huntington,"250 Third Street, Altizer , Huntington, WV, 25705",25705
Cabell,"-82.3722257, 38.4032754",Cabell County Career Technology Center,1035 Norway Ave,Huntington,"1035 Norway Ave , Huntington, WV, 25705",25705
Cabell,"-82.3722257, 38.4032754",Cabell County Career Technology Center,1035 Norway Ave,Huntington,"1035 Norway Ave , Huntington, WV, 25705",25705
Cabell,"-82.37721599999999, 38.382375",Hite Saunders Elementary School,3708 Green Valley Road,Huntington,"3708 Green Valley Road , Huntington, WV, 25701",25701
Wayne,"-82.383404, 38.162494",East Lynn Elementary School,19594 East Lynn Road,East Lynn,"19594 East Lynn Road, East Lynn, WV, 25512",25512
Cabell,"-82.38715309999999, 38.4031628",Geneva Kent Elementary School,68 Holley Avenue,Huntington,"68 Holley Avenue , Huntington, WV, 25705",25705
Cabell,"-82.38715309999999, 38.4031628",Explorer Academy,68 Holley Ave,Huntington,"68 Holley Ave, Huntington, WV, 25705",25705
Cabell,"-82.391392, 38.407296",Beverly Hills Middle School,2901 Saltwell Rd,Huntington,"2901 Saltwell Rd , Huntington, WV, 25705",25705
Cabell,"-82.391392, 38.407296",Huntington East Middle School,2901 Saltwell Rd,Huntington,"2901 Saltwell Rd, Huntington, WV, 25705",25705
Cabell,"-82.39857429999999, 38.3936242",Huntington High School,1 Highlander Way,Huntington,"1 Highlander Way , Huntington, WV, 25701",25701
Cabell,"-82.399326, 38.413612",Peyton Elementary School,199 Rotary Rd,Huntington,"199 Rotary Rd , Huntington, WV, 25705",25705
Cabell,"-82.4020243, 38.4266393",Alternative School,2800 5th Ave,Huntington,"2800 5th Ave , Huntington, WV, 25702",25702
Cabell,"-82.4091638, 38.4291151",Enslow Middle School,2613 Collis Ave,Huntington,"2613 Collis Ave , Huntington, WV, 25702",25702
Cabell,"-82.4111944, 38.4300068",Highlawn Elementary School,2549 1st Avenue,Huntington,"2549 1st Avenue , Huntington, WV, 25703",25703
Cabell,"-82.4203404, 38.4121254",Spring Hill Elementary School,1901 Hall Avenue,Huntington,"1901 Hall Avenue , Huntington, WV, 25701",25701
Cabell,"-82.4272414, 38.4040281",Meadows Elementary School,1601 Washington Blvd,Huntington,"1601 Washington Blvd , Huntington, WV, 25701",25701
Wayne,"-82.429165, 38.254347",Wayne Elementary School,80 McGinnis Drive,Wayne,"80 McGinnis Drive, Wayne, WV, 25570",25570
Wayne,"-82.4331737, 38.0271515",Dunlow Elementary School,32800 Route 152,Dunlow,"32800 Route 152, Dunlow, WV, 25511",25511
Wayne,"-82.434381, 38.246841",Wayne High School,100 Pioneer Road,Wayne,"100 Pioneer Road , Wayne, WV, 25570",25570
Wayne,"-82.434968, 38.245076",Wayne Middle School,200 Pioneer Road,Wayne,"200 Pioneer Road , Wayne, WV, 25570",25570
Wayne,"-82.448047, 37.906487",Crum Pre K-8,150 Crum Road,Crum,"150 Crum Road, Crum, WV, 25669",25669
Wayne,"-82.4494931, 38.3233683",Lavalette Elementary School,P.o. Box 380,Lavalette,"P.o. Box 380 , Lavalette, WV, 25535",25535
Cabell,"-82.4528441, 38.4108658",Southside Elementary,200 Tenth Avenue,Huntington,"200 Tenth Avenue , Huntington, WV, 25701",25701
Cabell,"-82.45287789999999, 38.4111169",Huntington Middle School,925 Third Street,Huntington,"925 Third Street , Huntington, WV, 25701",25701
Wayne,"-82.4629166, 38.1273332",Genoa Elementary School,21269 Rt 152 Road,Genoa,"21269 Rt 152 Road , Genoa, WV, 25517",25517
Cabell,"-82.49075810000001, 38.4104518",Central City Elementary School,2100 Washington Ave,Huntington,"2100 Washington Ave , Huntington, WV, 25704",25704
Wayne,"-82.5002319, 38.0008076",Tolsia High School,#1 Rebel Drive,Fort Gay,"#1 Rebel Drive , Fort Gay, WV, 25514",25514
Wayne,"-82.51103599999999, 38.399288",Vinson Middle School,3851 Piedmont Road,Huntington,"3851 Piedmont Road , Huntington, WV, 25704",25704
Wayne,"-82.513109, 38.348204",Buffalo Middle School,298 Buffalo Creek Road,Kenova,"298 Buffalo Creek Road , Kenova, WV, 25530",25530
Wayne,"-82.515923, 38.349362",Buffalo Elementary School,331 Buffalo Creek Road,Kenova,"331 Buffalo Creek Road , Kenova, WV, 25530",25530
Wayne,"-82.517957, 38.397215",Kellogg Elementary School,4415 Piedmont Road,Huntington,"4415 Piedmont Road , Huntington, WV, 25704",25704
Wayne,"-82.527402, 38.378617",Spring Valley High School,#1 Timberwolf Drive,Huntington,"#1 Timberwolf Drive , Huntington, WV, 25704",25704
Wayne,"-82.569, 38.3995854",Ceredo-Kenova Elementary,1 Wonders Lane,Kenova,"1 Wonders Lane, Kenova, WV, 25530",25530
Wayne,"-82.5872969, 38.4186202",Ceredo-Kenova Middle School,P.o. Box 705 4th St. West And High St,Ceredo,"P.o. Box 705 4th St. West And High St, Ceredo, WV, 25507",25507
Wayne,"-82.5917223, 38.1145716",Fort Gay PreK - 8,#1 Viking Drive,Fort Gay,"#1 Viking Drive, Fort Gay, WV, 25514",25514
Wayne,"-82.5986676, 38.2404138",Prichard Elementary School,500 Prichard Rd.,Prichard,"500 Prichard Rd., Prichard, WV, 25555",25555
Barbour,"-79.925634, 39.033417",Belington Middle School,Rr 2 Box 343,Belington,"Rr 2 Box 343 , Belington, WV, 26250",26250
Barbour,"-79.878723, 39.228903",Kasson Elementary/Middle School,Rt. 1 Box 233a,Moatsville,"Rt. 1 Box 233a , Moatsville, WV, 26405",26405
Barbour,"-79.926084, 39.032137",Belington Elementary,Rr 2 Box 344,Belington,"Rr 2 Box 344 , Belington, WV, 26250",26250
Boone,"-81.621274, 38.115385",Sherman Junior High School,9846 Coal River Road Po Box Aa,Seth,"9846 Coal River Road Po Box Aa, Seth, WV, 25181",25181
Boone,"-81.535667, 37.982053",Whitesville Elementary School,"37949 Coal River Road Hc82, Box 265",Whitesville,"37949 Coal River Road Hc82, Box 265, Whitesville, WV, 25209",25209
Boone,"-81.822524, 37.982829",Ramage Elementary,"15908 Spruce River Road Rt 1, Box 293",Danville,"15908 Spruce River Road Rt 1, Box 293, Danville, WV, 25053",25053
Boone,"-81.810397, 38.103085",Boone Career-Technical Center,"3505 Daniel Boone Pkwy-Suite B Hc81, Box 50-B",Danville,"3505 Daniel Boone Pkwy-Suite B Hc81, Box 50-B, Danville, WV, 25053",25053
Brooke,"-80.589667, 40.303363",Brooke High School,"R.d. 3, Box 610 Cross Creek Road",Wellsburg,"R.d. 3, Box 610 Cross Creek Road, Wellsburg, WV, 26070",26070
Cabell,"-82.384677, 38.427145",Guyandotte Elementary School,607 5th Ave Guy,Huntington,"607 5th Ave Guy , Huntington, WV, 25702",25702
Fayette,"-80.962697, 38.066225",Divide Elementary,Po Box 180,Lookout,"Po Box 180 , Lookout, WV, 25868",25868
Fayette,"-81.095786, 38.133521",Ansted Middle,Po Box 766,Ansted,"Po Box 766 , Ansted, WV, 25812",25812
Fayette,"-81.308956, 38.181713",Valley Elementary,Po Box 215,Smithers,"Po Box 215 , Smithers, WV, 25186",25186
Fayette,"-81.195924, 38.167667",Gauley Bridge Elementary,Po Box 519,Gauley Bridge,"Po Box 519 , Gauley Bridge, WV, 25085",25085
Fayette,"-81.310423, 38.181632",Valley High School,Po Box 459 Greyhound Lane,Smithers,"Po Box 459 Greyhound Lane, Smithers, WV, 25186",25186
Gilmer,"-81.014465, 38.899367",Calhoun-Gilmer Career Center,5260 East Little Kanawha Hwy,Grantsville,"5260 East Little Kanawha Hwy, Grantsville, WV, 26147",26147
Grant,"-79.279617, 39.274265",Union Educational Complex,Hc 76 Box 750,Mount Storm,"Hc 76 Box 750 , Mount Storm, WV, 26839",26839
Greenbrier,"-80.664850, 37.883251",Smoot Elementary,General Delivery,Smoot,"General Delivery , Smoot, WV, 24977",24977
Greenbrier,"-80.668094, 37.955221",Western Greenbrier Middle School,Hc 40 Box 14,Crawley,"Hc 40 Box 14 , Crawley, WV, 24931",24931
Greenbrier,"-80.636085, 37.727001",Alderson Elementary,Rr1 Box 162f,Alderson,"Rr1 Box 162f , Alderson, WV, 24910",24910
Greenbrier,"-80.472712, 37.773662",Eastern Greenbrier Middle School,Route 1 Box 150,Ronceverte,"Route 1 Box 150 , Ronceverte, WV, 24970",24970
Hampshire,"-78.699255, 39.325798",Hampshire Senior High School,"Hc 63, Box 1970",Romney,"Hc 63, Box 1970 , Romney, WV, 26757",26757
Hampshire,"-78.439181, 39.303844",Capon Bridge Middle School,"Hc 71, Box 1001",Capon Bridge,"Hc 71, Box 1001 , Capon Bridge, WV, 26711",26711
Hampshire,"-78.696958, 39.449837",Springfield-Green Spring Elementary School,Hc 65 Box 9000,Springfield,"Hc 65 Box 9000 , Springfield, WV, 26763",26763
Hampshire,"-78.700738, 39.325967",Hampshire County Career Training Center,Hc 63 Box 1970,Romney,"Hc 63 Box 1970 , Romney, WV, 26757",26757
Hampshire,"-78.437178, 39.303167",Capon Bridge Elementary School,"Hc 71, Box 1000",Capon Bridge,"Hc 71, Box 1000 , Capon Bridge, WV, 26711",26711
Hampshire,"-78.597783, 39.448820",John J. Cornwell,"Hc 60, Box 72",Levels,"Hc 60, Box 72 , Levels, WV, 25431",25431
Harrison,"-80.355184, 39.310086",United High School,,,,
Harrison,"-80.387567, 39.225117",Pressley Ridge School,Rr 5 Box 697,Clarksburg,"Rr 5 Box 697 , Clarksburg, WV, 26301",26301
Harrison,"-80.310838, 39.380632",Lincoln High School,Rr 1 Box 300,Shinnston,"Rr 1 Box 300 , Shinnston, WV, 26431",26431
Harrison,"-80.577632, 39.285657",Salem Elementary,Rr 1 Box 10a,Salem,"Rr 1 Box 10a , Salem, WV, 26426",26426
Jackson,"-81.736446, 38.944010",Ravenswood Grade School,"Rt 2, Box 22-A",Ravenswood,"Rt 2, Box 22-A , Ravenswood, WV, 26164",26164
Jackson,"-81.681825, 38.744748",Fairplain Elementary School,Rt 3 Box 147,Ripley,"Rt 3 Box 147 , Ripley, WV, 25271",25271
Jackson,"-81.705533, 38.807086",Ripley Middle School,"Route 2, Box 75-A Klondyke Road",Ripley,"Route 2, Box 75-A Klondyke Road, Ripley, WV, 25271",25271
Jackson,"-81.660000, 38.912949",Gilmore Elementary School,"Rt. 3, Box 28-A",Sandyville,"Rt. 3, Box 28-A , Sandyville, WV, 25275",25275
Kanawha,"-81.632591, 38.349825",Bonham Elementary School,"Route 1, Box 425a",Charleston,"Route 1, Box 425a , Charleston, WV, 25312",25312
Kanawha,"-81.448614, 38.149002",Sharon Dawes Elementary School,P O Box 149,Miami,"P O Box 149 , Miami, WV, 25134",25134
Kanawha,"-81.338841, 38.490337",Clendenin Elementary School,P O Box 462,Clendenin,"P O Box 462 , Clendenin, WV, 25045",25045
Kanawha,"-81.719859, 38.321782",Ruthlawn Elementary School,Rt 8 Box 428,So Charleston,"Rt 8 Box 428 , So Charleston, WV, 25309",25309
Kanawha,"-81.451847, 38.214861",East Bank Middle School,Po Box 897,East Bank,"Po Box 897 , East Bank, WV, 25067",25067
Kanawha,"-81.390086, 38.208615",Pratt Elementary School,Center And Stark Street,Pratt,"Center And Stark Street , Pratt, WV, 25162",25162
Logan,"-81.989558, 37.769531",Omar Elementary,Route 44 Box 590,Omar,"Route 44 Box 590, Omar, WV, 25638",25638
Logan,"-82.020623, 37.968276",Chapmanville East Elementary School,P.o. Box 340,Chapmanville,"P.o. Box 340 , Chapmanville, WV, 25508",25508
Logan,"-81.855177, 37.727286",Man Middle School,Box 390,Mallory,"Box 390 , Mallory, WV, 25634",25634
Logan,"-82.023915, 37.977531",West Chapmanville Elementary School,100 Vance Street Box 310,Chapmanville,"100 Vance Street Box 310, Chapmanville, WV, 25508",25508
Logan,"-82.076662, 37.827732",Holden Central Elementary School,Box M,Holden,"Box M , Holden, WV, 25625",25625
Marshall,"-80.792608, 39.894277",Washington Lands Elementary School,Rr 4 Box 255,Moundsville,"Rr 4 Box 255 , Moundsville, WV, 26041",26041
Mason,"-82.036691, 39.009977",Wahama High School,P.o. Box 348,Mason,"P.o. Box 348 , Mason, WV, 25260",25260
Mason,"-82.064660, 38.845651",Roosevelt Elementary School,Route 2 Box 841,Point Pleasant,"Route 2 Box 841 , Point Pleasant, WV, 25550",25550
Mason,"-82.121164, 38.880598",Point Pleasant Junior/Senior High School,Rt. 1 Box 4,Point Pleasant,"Rt. 1 Box 4 , Point Pleasant, WV, 25550",25550
McDowell,"-81.497206, 37.420230",Kimball Elementary School,Box 308 Route #52,Kimball,"Box 308 Route #52, Kimball, WV, 24853",24853
Mercer,"-81.053749, 37.388952",Melrose Elementary School,"Hc 71, Box 257",Princeton,"Hc 71, Box 257 , Princeton, WV, 24740",24740
Mercer,"-80.997865, 37.484844",Sun Valley Elementary School,Po Box 10,Lerona,"Po Box 10 , Lerona, WV, 25971",25971
Mercer,"-81.253364, 37.282614",Brushfork Elementary School,Rt 4 Box 93,Bluefield,"Rt 4 Box 93 , Bluefield, WV, 24701",24701
Mercer,"-81.147900, 37.307375",Ceres Elementary School,Rt 2 Box 189,Bluefield,"Rt 2 Box 189 , Bluefield, WV, 24701",24701
Mercer,"-81.258946, 37.313644",Bluewell Elementary School,Rt 4 Box 480,Bluefield,"Rt 4 Box 480 , Bluefield, WV, 24701",24701
Mingo,"-82.177596, 37.676909",Burch Pk-6,Rt. 3 Box 4-B,Delbarton,"Rt. 3 Box 4-B , Delbarton, WV, 25670",25670
Mingo,"-82.153303, 37.624276",Matewan PK-8,200 Tiger Lane,Matewan,"200 Tiger Lane , Matewan, WV, 25678",25678
Mingo,"-82.398915, 37.809898",Kermit Area School (K-8),Blue Devil Lane,Kermit,"Blue Devil Lane , Kermit, WV, 25674",25674
Mingo,"-82.179220, 37.677113",Burch High School,Rt. 2 Box 521-A,Delbarton,"Rt. 2 Box 521-A , Delbarton, WV, 25670",25670
Monroe,"-80.659037, 37.482293",James Monroe High School,Rt. 1 Box 97-1-A James Monroe Drive,Lindside,"Rt. 1 Box 97-1-A James Monroe Drive, Lindside, WV, 24951",24951
Pocahontas,"-79.932504, 38.287693",Pocahontas County High School,"Route 1, Box 133a",Dunmore,"Route 1, Box 133a , Dunmore, WV, 24934",24934
Pocahontas,"-80.209537, 38.137227",Hillsboro Elementary School,"Hc 64, Box 399",Hillsboro,"Hc 64, Box 399 , Hillsboro, WV, 24946",24946
Pocahontas,"-80.111457, 38.200768",Marlinton Middle School,"Route 2, Box 52s",Buckeye,"Route 2, Box 52s , Buckeye, WV, 24924",24924
Pocahontas,"-79.825922, 38.425915",Green Bank Elementary-Middle School,"Route 1, Box 5",Green Bank,"Route 1, Box 5 , Green Bank, WV, 24944",24944
Putnam,"-81.776492, 38.581035",Confidence Elementary,Hc Box 163,Red House,"Hc Box 163 , Red House, WV, 25168",25168
Putnam,"-81.987050, 38.609875",Buffalo Elementary School,"Rt. 2, Box 93",Buffalo,"Rt. 2, Box 93 , Buffalo, WV, 25033",25033
Putnam,"-81.816387, 38.458611",Poca High School,"Rt. 1, Box 5b",Poca,"Rt. 1, Box 5b , Poca, WV, 25159",25159
Raleigh,"-81.306356, 37.729611",Lester Elementary,Box 727,Lester,"Box 727 , Lester, WV, 25865",25865
Raleigh,"-81.108597, 37.630180",Ghent Elementary,Po Box 350,Ghent,"Po Box 350 , Ghent, WV, 25843",25843
Raleigh,"-81.110119, 37.744572",Daniels Elementary,Box 689 4-H Lake Road,Daniels,"Box 689 4-H Lake Road, Daniels, WV, 25832",25832
Raleigh,"-81.220799, 37.695212",Coal City Elementary,Po Box 1240,Coal City,"Po Box 1240 , Coal City, WV, 25823",25823
Raleigh,"-81.206215, 37.771499",Mabscott Elementary,Box 174,Mabscott,"Box 174 , Mabscott, WV, 25871",25871
Randolph,"-79.969038, 38.896331",Coalton Elementary School,P.o. Box 129,Coalton,"P.o. Box 129 , Coalton, WV, 26257",26257
Randolph,"-79.872236, 38.843280",Beverly Elementary School,P.o. Box 209,Beverly,"P.o. Box 209 , Beverly, WV, 26253",26253
Randolph,"-79.522276, 38.920393",Harman Elementary/High School,Po Box 130,Harman,"Po Box 130 , Harman, WV, 26270",26270
Ritchie,"-81.056556, 39.268150",Ellenboro Elementary,P O Box 219,Ellenboro,"P O Box 219 , Ellenboro, WV, 26346",26346
Taylor,"-80.076891, 39.340273",Taylor County Middle School,"Rt. 2, Box 148a",Grafton,"Rt. 2, Box 148a , Grafton, WV, 26354",26354
Tyler,"-80.859059, 39.475631",Arthur I Boreman Elementary School,P O Box 299,Middlebourne,"P O Box 299 , Middlebourne, WV, 26149",26149
Upshur,"-80.189395, 38.924641",Washington District Elementary,"Hc36, Box 234",Buckhannon,"Hc36, Box 234 , Buckhannon, WV, 26201",26201
Upshur,"-80.331690, 38.843825",Rock Cave Elementary,Rt 2 Box 2f Po Box 130,Rock Cave,"Rt 2 Box 2f Po Box 130, Rock Cave, WV, 26201",26201
Upshur,"-80.179737, 39.063822",Hodgesville Elementary,"Rt.5, Box 383",Buckhannon,"Rt.5, Box 383 , Buckhannon, WV, 26201",26201
Upshur,"-80.225685, 39.002231",Fred Eberle Technical Center,RR 5 Box 2,Buckhannon,"RR 5 Box 2, Buckhannon, WV, 26201",26201
Webster,"-80.454346, 38.572486",Diana Elementary School,Po Box 90,Diana,"Po Box 90 , Diana, WV, 26217",26217
Wetzel,"-80.484248, 39.661173",Long Drain School,Rt 1 Box 108-A,Metz,"Rt 1 Box 108-A , Metz, WV, 26585",26585
Wetzel,"-80.454727, 39.678455",Hundred High School,P O Box 830,Hundred,"P O Box 830 , Hundred, WV, 26575",26575
Wetzel,"-80.726039, 39.570458",Short Line School,Hc 60 Box 170,Reader,"Hc 60 Box 170 , Reader, WV, 26167",26167
Wirt,"-81.392306, 39.063026",Wirt County High School,P O Box 219,Elizabeth,"P O Box 219 , Elizabeth, WV, 26143",26143
Wirt,"-81.391668, 39.057807",Wirt County Middle School,P O Box 699,Elizabeth,"P O Box 699 , Elizabeth, WV, 26143",26143
Wyoming,"-81.624273, 37.687564",Berlin Mckinney Elementary School,Hc 65 Box 402 405 Cook Parkway,Oceana,"Hc 65 Box 402 405 Cook Parkway, Oceana, WV, 24870",24870
Wyoming,"-81.522414, 37.588257",Wyoming County Career & Technical Center,"Hcr 72 Box 200, 1201 Bear Hole Road",Pineville,"Hcr 72 Box 200, 1201 Bear Hole Road, Pineville, WV, 24874",24874
Wyoming,"-81.625173, 37.686598",Oceana Middle School,Hc 65 Box 403 309 Cook Parkway,Oceana,"Hc 65 Box 403 309 Cook Parkway, Oceana, WV, 24870",24870
Wyoming,"-81.662983, 37.656468",Westside High School,Hc 65 Box 275 122 Renegade Road,Clear Fork,"Hc 65 Box 275 122 Renegade Road, Clear Fork, WV, 24822",24822